 2017  119 0101 40.8 LQ 30.779  50.568 14.3  YAM104 0.1                        1
 GAP= 14        0.25       0.4     0.4  0.5  0.3683E-01 -0.1307E-01 -0.9297E-02E
 ACTION:UP  17-07-14 15:03 OP:avh  STATUS:               ID:20170119010141     I
 OLDACT:SPL 17-06-06 15:20 OP:op   STATUS:               ID:20170119010141     3
 BINDERID: 1567                                                                3
 VERSIONID: 2                                                                  3
 ARC *               2017  119  1 1 36    60                                   6
  275.0800   87.8900    4.5300                               2        FOCMEC   F
 STAT SP IPHASW D HRMM SECON CODA AMPLIT PERI AZIMU VELO AIN AR TRES W  DIS CAZ7
 D076 HZ IP   0 D  1 1 43.51                             163   -0.0710 4.00  48 
 D075 HZ EP   0 C  1 1 43.51                             163   -0.0810 4.18  19 
 D027 HZ IP   0 D  1 1 43.58                             162    0.0010 4.23 227 
 D061 HZ IP   0 C  1 1 43.58                             162   -0.0210 4.38 342 
 D026 HZ IP   0 D  1 1 43.57                             161   -0.0210 4.51 253 
 D040 HZ EP   1 C  1 1 43.68                             161    0.07 7 4.53 166 
 D077 HZ IP   0 D  1 1 43.56                             161   -0.0510 4.54  73 
 D036 HZ EP   1 C  1 1 43.59                             161   -0.02 7 4.68 287 
 D028 HZ IP   0 D  1 1 43.64                             160    0.0410 4.76 203 
 D074 HZ EP   0 C  1 1 43.56                             158   -0.1010 5.36 360 
 D078 HZ IP   0 D  1 1 43.66                             158    0.0110 5.37  94 
 D029 HZ IP   0 D  1 1 43.74                             157    0.0810 5.65 183 
 D025 HZ IP   0 D  1 1 43.66                             156   -0.0110 5.84 271 
 D047 HZ IP   0 C  1 1 43.65                             156   -0.0410 5.89 313 
 D090 HZ IP   0 D  1 1 43.64                             156   -0.0710 6.08  66 
 D088 HZ EP   1 D  1 1 43.64                             155   -0.07 7 6.10  29 
 D060 HZ IP   0 C  1 1 43.69                             155   -0.0210 6.20 333 
 D066 HZ EP   1 C  1 1 43.75                             155    0.04 7 6.31 121 
 D017 HZ IP   0 D  1 1 43.70                             155   -0.0010 6.31 225 
 D035 HZ IP   0 C  1 1 43.72                             154   -0.0110 6.45 295 
 D016 HZ EP   1 D  1 1 43.70                             154   -0.02 7 6.59 244 
 D018 HZ EP   0 D  1 1 43.70                             153   -0.0210 6.65 209 
 D079 HZ EP   0 C  1 1 43.78                             152    0.0210 6.97 108 
 D091 HZ IP   0 D  1 1 43.74                             152   -0.0310 7.00  81 
 D073 HZ IP   0 C  1 1 43.74                             152   -0.0410 7.01 348 
 D019 HZ EP   1 D  1 1 43.79                             150    0.01 7 7.46 190 
 D054 HZ EP   1 C  1 1 44.02                             148    0.17 7 8.06 138 
 D103 HZ IP   0 D  1 1 43.73                             148   -0.1310 8.09  62 
 D059 HZ IP   0 C  1 1 43.83                             148   -0.0410 8.23 330 
 D034 HZ IP   0 C  1 1 43.87                             148    0.0010 8.31 302 
 D042 HZ EP   0 C  1 1 43.99                             147    0.1210 8.33 152 
 D086 HZ IP   0 C  1 1 43.92                             147    0.0110 8.51   3 
 D008 HZ IP   0 D  1 1 43.85                             147   -0.0310 8.59 226 
 D007 HZ IP   0 D  1 1 43.87                             146   -0.0210 8.62 240 
 D104 HZ IP   0 D  1 1 43.78                             146   -0.1210 8.66  74 
 D072 HZ IP   0 C  1 1 43.87                             146   -0.0610 8.80 342 
 D009 HZ IP   0 D  1 1 43.89                             145   -0.0210 8.89 214 
 D100 HZ IP   2 D  1 1 43.88                             145   -0.07 5 9.11  22 
 D085 HZ IP   0 C  1 1 43.98                             145    0.0110 9.25 352 
 D055 HZ EP   1 C  1 1 44.23                             142    0.19 7 10.1 138 
 D045 HZ IP   0 C  1 1 44.04                             142   -0.0110 10.1 314 
 D058 HZ IP   0 C  1 1 44.06                             142    0.0010 10.1 327 
 D005 HZ IP   0 D  1 1 44.04                             142   -0.0010 10.1 263 
 D068 HZ EP   0 C  1 1 44.11                             141    0.0610 10.2 128 
 D033 HZ IP   0 C  1 1 44.10                             141    0.0310 10.3 304 
 D022 HZ IP   0 C  1 1 44.10                             140   -0.0110 10.7 293 
 D071 HZ IP   0 C  1 1 44.14                             140    0.0210 10.7 337 
 D098 HZ EP   0 C  1 1 44.16                             139   -0.0010 11.1   1 
 D081 HZ EP   0 C  1 1 44.20                             138    0.0510 11.2 115 
 D004 HZ EP   0 D  1 1 44.16                             138   -0.0110 11.4 271 
 D084 HZ IP   0 C  1 1 44.30                             138    0.1110 11.5 348 
 D012 HZ EP   1 C  1 1 44.16                             137   -0.05 7 11.7 285 
 D044 HZ IP   0 C  1 1 44.26                             137    0.0110 12.0 316 
 D057 HZ IP   0 C  1 1 44.29                             136    0.0210 12.1 325 
 D032 HZ IP   0 C  1 1 44.31                             136    0.0410 12.1 306 
 D097 HZ IP   0 C  1 1 44.34                             135    0.0310 12.5 355 
 D070 HZ IP   0 C  1 1 44.39                             135    0.0710 12.6 334 
 D003 HZ EP   1 C  1 1 44.32                             134   -0.04 7 13.0 277 
 D083 HZ IP   0 C  1 1 44.55                             133    0.1310 13.4 344 
 D096 HZ IP   0 C  1 1 44.58                             130    0.0710 14.2 350 
 D031 HZ IP   0 C  1 1 44.60                             130    0.0910 14.3 307 
 D043 HZ IP   0 C  1 1 44.59                             130    0.0710 14.3 316 
 D069 HZ IP   0 C  1 1 44.67                             130    0.1210 14.4 332 
 D020 HZ IP   0 C  1 1 44.52                             130   -0.0210 14.5 299 
 D010 HZ EP   0 C  1 1 44.59                             128   -0.0410 15.3 292 
 D082 HZ IP   0 C  1 1 44.86                             128    0.2110 15.4 339 
 D001 HZ EP   0 D  1 1 44.74                             126   -0.0010 16.1 287 
 R001 HZ EP   0 C  1 1 45.46                             112   -0.3710 23.7  99 
                                                                                
