 2020  3 8  111 12.8 L  28.256 -16.678 13.0  IGN 120.26 0.3GIGN                1
 ACTION:                   OP:     STATUS:               ID:20200308011112 L   I
 STAT SP IPHASW D HRMM SECON CODA AMPLIT PERI AZIMU VELO AIN AR TRES W  DIS CAZ7
 CPVI  N  S   2    111 16.86                                   -0.10      2  67 
 CCHO  N  S   2    111 17.25                                    0.20      3 174 
 GUIA  Z  P   1    111 15.62                                    0.30      4 258 
 GUIA  N  S   2    111 17.42                                    0.30      4 258 
 CNOR  Z  P   1    111 15.26                                   -0.20      7  15 
 CNOR  N  S   2    111 17.45                                    0.00      7  15 
 CCAN  Z  P   1    111 15.20                                   -0.30      8 117 
 CCAN  N  S   2    111 17.22                                   -0.40      8 117 
 CFOR  N  S   2    111 18.33                                    0.30     10  52 
 CDIE  N  S   2    111 18.33                                   -0.00     12  74 
 CADE  Z  P   1    111 15.62                                   -0.40     12 211 
 CADE  N  S   2    111 18.20                                   -0.20     12 211 
 CREA  N  S   2    111 18.66                                   -0.20     14  41 
 CBOL  N  S   2    111 19.38                                    0.10     17 294 
 MACI  N  S   2    111 19.67                                    0.30     17  92 
 CTFS  N  S   2    111 20.36                                    0.40     19 167 
                                                                                
 2020  3 8  111 25.1 L  28.228 -16.691 12.1  IGN  80.20 0.4GIGN                1
 ACTION:                   OP:     STATUS:               ID:20200308011125 L   I
 STAT SP IPHASW D HRMM SECON CODA AMPLIT PERI AZIMU VELO AIN AR TRES W  DIS CAZ7
 GUIA  N  S   2    111 29.43                                    0.30      3 308 
 CCAN  Z  P   1    111 27.60                                   -0.20      8  93 
 CCAN  N  S   2    111 29.53                                   -0.30      8  93 
 CDOS  Z  P   1    111 27.73                                   -0.10      9 328 
 CDOS  N  S   2    111 29.85                                   -0.00      9 328 
 CADE  Z  P   1    111 27.96                                    0.10      9 214 
 CADE  N  S   2    111 30.05                                    0.10      9 214 
 CNOR  N  S   2    111 29.95                                   -0.20     10  18 
 CFOR  N  S   2    111 30.97                                    0.10     13  45 
 CBOL  N  S   2    111 31.39                                   -0.20     17 305 
 CREA  N  S   2    111 32.17                                    0.40     18  38 
                                                                                
 2020  3 8  131 37.6 L  28.133 -16.247 24.9  IGN  80.30 1.0GIGN                1
 ACTION:                   OP:     STATUS:               ID:20200308013137 L   I
 STAT SP IPHASW D HRMM SECON CODA AMPLIT PERI AZIMU VELO AIN AR TRES W  DIS CAZ7
 CGUI  Z  P   1    131 43.82                                    0.50     29 318 
 CGUI  N  S   2    131 47.87                                    0.20     29 318 
 MACI  N  S   2    131 47.62                                   -0.10     29 297 
 CDIE  N  S   2    131 48.50                                   -0.40     34 299 
 CCAN  N  S   2    131 49.30                                    0.00     37 286 
 CPVI  N  S   2    131 50.29                                   -0.30     43 289 
 CNOR  N  S   2    131 50.62                                   -0.40     46 296 
 CADE  N  S   2    131 52.21                                    0.50     49 274 
 CLUM  Z  P   1    131 48.01                                   -0.00     68 121 
 CLUM  N  S   2    131 55.77                                   -0.10     68 121 
                                                                                
 2020  3 8  3 1 41.5 L  28.679 -17.683 18.2  IGN  40.28 1.3GIGN                1
 ACTION:                   OP:     STATUS:               ID:20200308030141 L   I
 STAT SP IPHASW D HRMM SECON CODA AMPLIT PERI AZIMU VELO AIN AR TRES W  DIS CAZ7
 CBRE  Z  P   1    3 1 44.72                                   -0.40     12 242 
 CBRE  N  S   2    3 1 48.11                                    0.20     12 242 
 CMIR  Z  P   1    3 1 45.86                                    0.20     18 277 
 CMIR  N  S   2    3 1 48.76                                   -0.10     18 277 
 CROM  Z  P   1    3 1 46.06                                   -0.20     22 292 
 CROM  N  S   2    3 1 49.86                                    0.10     22 292 
 TBT   Z  P   1    3 1 46.76                                    0.50     23 271 
 TBT   N  S   2    3 1 49.58                                   -0.30     23 271 
                                                                                
 2020  3 8  3 4 18.8 L  28.674 -17.642 11.5  IGN  50.15 1.3GIGN                1
 ACTION:                   OP:     STATUS:               ID:20200308030418 L   I
 STAT SP IPHASW D HRMM SECON CODA AMPLIT PERI AZIMU VELO AIN AR TRES W  DIS CAZ7
 CBRE  Z  P   1    3 4 22.21                                   -0.10     16 250 
 CBRE  N  S   2    3 4 24.75                                   -0.20     16 250 
 CENR  N  S   2    3 4 26.51                                    0.30     21 255 
 CMIR  Z  P   1    3 4 23.16                                    0.00     21 277 
 CMIR  N  S   2    3 4 26.46                                    0.10     21 277 
 CROM  Z  P   1    3 4 23.84                                    0.00     27 290 
 CROM  N  S   2    3 4 27.53                                   -0.00     27 290 
 TBT   Z  P   1    3 4 23.91                                    0.00     27 272 
 TBT   N  S   2    3 4 27.45                                   -0.20     27 272 
                                                                                
 2020  3 8  324 48.6 L  27.666 -18.067 20.5  IGN  80.15 2.0GIGN                1
 ACTION:                   OP:     STATUS:               ID:20200308032448 L   I
 STAT SP IPHASW D HRMM SECON CODA AMPLIT PERI AZIMU VELO AIN AR TRES W  DIS CAZ7
 CTAC  Z  P   1    324 51.87                                   -0.10      4  78 
 CTAC  N  S   2    324 54.68                                    0.10      4  78 
 CMCL  Z  P   1    324 52.31                                    0.20      7  42 
 CMCL  N  S   2    324 54.72                                    0.00      7  42 
 CJUL  Z  P   1    324 52.12                                    0.00      8 348 
 CJUL  N  S   2    324 55.04                                    0.30      8 348 
 CNAO  Z  P   1    324 52.08                                   -0.10      8 105 
 CNAO  N  S   2    324 54.72                                   -0.10      8 105 
 CTAB  Z  P   1    324 52.37                                    0.20      9 349 
 CTAB  N  S   2    324 54.81                                   -0.20      9 349 
 CCAL  Z  P   1    324 52.28                                    0.10     10 303 
 CCAL  N  S   2    324 54.73                                   -0.20     10 303 
 CCUM  Z  P   1    324 52.07                                   -0.20     10  22 
 CCUM  N  S   2    324 54.98                                   -0.00     10  22 
 CTIG  N  S   2    324 56.43                                   -0.10     20  46 
 TBT   Z  P   1    325  4.44                                   -0.20    113   7 
 TBT   N  S   2    325 16.09                                   -0.60    113   7 
 CMIR  Z  P   1    325  4.56                                   -0.40    116  10 
 CMIR  N  S   2    325 16.67                                   -0.60    116  10 
 CBOL  N  S   2    325 22.32                                   -0.40    141  59 
 CADE  N  S   2    325 21.54                                   -1.20    141  67 
 CLAJ  N  S   2    325 22.37                                   -1.70    147  68 
 CCHO  N  S   2    325 23.73                                   -1.00    150  65 
 CCAN  N  S   2    325 24.11                                   -1.90    157  66 
 CDIE  N  S   2    325 26.88                                   -0.70    163  65 
 MACI  N  S   2    325 27.65                                   -0.60    167  67 
 CGUI  N  S   2    325 29.46                                   -0.80    176  65 
                                                                                
 2020  3 8 1130 26.9 L  28.028 -16.258 26.0  IGN  70.33 1.1GIGN                1
 ACTION:                   OP:     STATUS:               ID:20200308113026 L   I
 STAT SP IPHASW D HRMM SECON CODA AMPLIT PERI AZIMU VELO AIN AR TRES W  DIS CAZ7
 MACI  Z  P   1   1130 33.66                                    0.20     34 315 
 MACI  N  S   2   1130 38.93                                    0.60     34 315 
 CGUI  Z  P   1   1130 33.45                                   -0.30     38 331 
 CGUI  N  S   2   1130 38.59                                   -0.20     38 331 
 CCAN  Z  P   1   1130 33.92                                   -0.20     40 303 
 CCAN  N  S   2   1130 38.80                                   -0.70     40 303 
 CLAJ  Z  P   1   1130 34.47                                    0.10     43 289 
 CLAJ  N  S   2   1130 39.92                                   -0.10     43 289 
 CPVI  N  S   2   1130 41.19                                    0.40     48 303 
 CNOR  N  S   2   1130 41.47                                   -0.00     50 309 
 CBOL  Z  P   1   1130 37.10                                    0.20     64 300 
                                                                                
 2020  3 8 20 6 29.6 L  28.079 -16.275  9.6  IGN 110.22 1.2GIGN                1
 ACTION:                   OP:     STATUS:               ID:20200308200629 L   I
 STAT SP IPHASW D HRMM SECON CODA AMPLIT PERI AZIMU VELO AIN AR TRES W  DIS CAZ7
 MACI  Z  P   1   20 6 35.55                                    0.40     30 310 
 MACI  N  S   2   20 6 39.77                                    0.50     30 310 
 CGUI  Z  P   1   20 6 35.53                                    0.10     31 329 
 CGUI  N  S   2   20 6 39.62                                   -0.20     31 329 
 CTFS  N  S   2   20 6 40.80                                    0.00     36 271 
 CDIE  Z  P   1   20 6 35.94                                   -0.20     36 309 
 CDIE  N  S   2   20 6 40.52                                   -0.50     36 309 
 CCAN  Z  P   1   20 6 35.94                                   -0.20     37 296 
 CCAN  N  S   2   20 6 40.83                                   -0.20     37 296 
 CLAJ  Z  P   1   20 6 36.77                                    0.10     40 282 
 CCHO  Z  P   1   20 6 36.71                                   -0.20     42 293 
 CCHO  N  S   2   20 6 42.49                                    0.10     42 293 
 GUIA  Z  P   1   20 6 37.72                                    0.10     48 293 
 GUIA  N  S   2   20 6 43.58                                   -0.10     48 293 
 CDOS  Z  P   1   20 6 38.27                                    0.10     51 298 
 CBOL  Z  P   1   20 6 39.21                                   -0.10     60 296 
 CBOL  N  S   2   20 6 46.77                                    0.10     60 296 
 CLUM  Z  P   1   20 6 40.39                                    0.00     68 115 
 CLUM  N  S   2   20 6 48.47                                    0.10     68 115 
                                                                                
 2020  3 9  057  1.5 L  28.148 -16.668  7.7  IGN 110.18 0.7GIGN                1
 ACTION:                   OP:     STATUS:               ID:20200309005701 L   I
 STAT SP IPHASW D HRMM SECON CODA AMPLIT PERI AZIMU VELO AIN AR TRES W  DIS CAZ7
 CLAJ  Z  P   1    057  2.97                                   -0.10      1 320 
 CLAJ  N  S   2    057  4.44                                    0.20      1 320 
 CVIL  Z  P   1    057  3.20                                    0.10      3  63 
 CVIL  N  S   2    057  4.51                                    0.20      3  63 
 CADE  Z  P   1    057  3.47                                   -0.10      8 281 
 CADE  N  S   2    057  4.95                                   -0.20      8 281 
 CTFS  Z  P   1    057  3.60                                   -0.00      8 154 
 CTFS  N  S   2    057  5.24                                   -0.00      8 154 
 CCHO  N  S   2    057  5.43                                    0.00      9 356 
 CCAN  Z  P   1    057  3.81                                   -0.20     10  35 
 CCAN  N  S   2    057  5.49                                   -0.30     10  35 
 GUIA  Z  P   1    057  4.35                                    0.10     12 335 
 GUIA  N  S   2    057  6.13                                   -0.20     12 335 
 CRAJ  N  S   2    057  6.95                                   -0.00     14  28 
 CDOS  Z  P   1    057  5.22                                    0.20     18 337 
 CDOS  N  S   2    057  7.61                                   -0.10     18 337 
 MACI  Z  P   1    057  5.32                                   -0.00     19  54 
 MACI  N  S   2    057  8.44                                    0.20     19  54 
 CBOL  Z  P   1    057  6.08                                   -0.00     24 319 
 CBOL  N  S   2    057 10.09                                    0.50     24 319 
                                                                                
 2020  3 9  148 31.2 L  28.155 -16.666  7.3  IGN 160.18 1.4GIGN                1
 ACTION:                   OP:     STATUS:               ID:20200309014831 L   I
 STAT SP IPHASW D HRMM SECON CODA AMPLIT PERI AZIMU VELO AIN AR TRES W  DIS CAZ7
 CLAJ  Z  P   1    148 32.78                                    0.00      1 273 
 CLAJ  N  S   2    148 34.00                                    0.10      1 273 
 CVIL  Z  P   1    148 32.87                                    0.10      2  79 
 CVIL  N  S   2    148 34.04                                    0.10      2  79 
 CADE  Z  P   1    148 33.16                                   -0.20      8 275 
 CADE  N  S   2    148 34.57                                   -0.30      8 275 
 CCHO  Z  P   1    148 33.40                                    0.10      8 354 
 CCHO  N  S   2    148 35.01                                    0.10      8 354 
 CTFS  Z  P   1    148 33.39                                   -0.00      9 158 
 CTFS  N  S   2    148 34.90                                   -0.20      9 158 
 CCAN  Z  P   1    148 33.48                                   -0.10     10  37 
 CCAN  N  S   2    148 35.06                                   -0.30     10  37 
 GUIA  Z  P   1    148 34.07                                    0.20     11 332 
 GUIA  N  S   2    148 35.93                                    0.10     11 332 
 CRAJ  Z  P   1    148 34.21                                   -0.00     14  29 
 CRAJ  N  S   2    148 36.32                                   -0.20     14  29 
 CGRA  Z  P   1    148 34.52                                    0.20     14 115 
 CGRA  N  S   2    148 36.79                                    0.20     14 115 
 CDOS  Z  P   1    148 34.82                                    0.10     17 335 
 CDOS  N  S   2    148 37.02                                   -0.30     17 335 
 CNOR  Z  P   1    148 34.85                                    0.10     18   2 
 CDIE  Z  P   1    148 34.73                                   -0.10     18  36 
 MACI  Z  P   1    148 34.37                                   -0.60     19  56 
 MACI  Z  P   1    148 34.91                                   -0.10     19  56 
 MACI  N  S   2    148 36.92                                   -0.90     19  56 
 MACI  N  S   2    148 37.69                                   -0.10     19  56 
 CREA  N  S   2    148 39.54                                    0.50     23  21 
 CBOL  Z  P   1    148 35.80                                    0.00     24 318 
 CBOL  N  S   2    148 39.42                                    0.20     24 318 
 CGUI  Z  P   1    148 36.49                                   -0.00     29  50 
 CGUI  N  S   2    148 40.22                                   -0.30     29  50 
                                                                                
 2020  3 9  255 29.1 L  28.121 -16.252 34.0  IGN 190.29 1.6GIGN                1
 ACTION:                   OP:     STATUS:               ID:20200309025529 L   I
 STAT SP IPHASW D HRMM SECON CODA AMPLIT PERI AZIMU VELO AIN AR TRES W  DIS CAZ7
 MACI  Z  P   1    255 35.85                                    0.20     29 300 
 MACI  N  S   2    255 40.80                                    0.30     29 300 
 CGUI  Z  P   1    255 35.73                                    0.10     29 320 
 CGUI  N  S   2    255 40.74                                    0.20     29 320 
 CDIE  Z  P   1    255 36.16                                   -0.10     36 301 
 CDIE  N  S   2    255 41.82                                    0.30     36 301 
 CCAN  Z  P   1    255 36.19                                   -0.20     37 288 
 CCAN  N  S   2    255 41.54                                   -0.30     37 288 
 CRAJ  Z  P   1    255 36.30                                   -0.20     38 295 
 CRAJ  N  S   2    255 41.99                                    0.00     38 295 
 CTFS  Z  P   1    255 36.53                                    0.00     38 264 
 CTFS  N  S   2    255 41.93                                   -0.10     38 264 
 CVIL  Z  P   1    255 36.44                                   -0.10     39 276 
 CVIL  N  S   2    255 41.93                                   -0.20     39 276 
 CFOR  Z  P   1    255 36.81                                    0.10     40 303 
 CFOR  N  S   2    255 42.53                                    0.20     40 303 
 CREA  Z  P   1    255 36.43                                   -0.40     41 309 
 CREA  N  S   2    255 42.37                                   -0.30     41 309 
 CLAJ  Z  P   1    255 36.65                                   -0.30     42 275 
 CLAJ  N  S   2    255 42.09                                   -0.60     42 275 
 CCHO  Z  P   1    255 36.82                                   -0.20     43 286 
 CCHO  N  S   2    255 42.71                                   -0.20     43 286 
 CPVI  Z  P   1    255 37.36                                    0.30     43 291 
 CPVI  N  S   2    255 43.19                                    0.20     43 291 
 CNOR  Z  P   1    255 37.39                                    0.10     46 298 
 CNOR  N  S   2    255 43.67                                    0.30     46 298 
 EBAJ  Z  P   1    255 37.13                                   -0.40     47 349 
 EBAJ  N  S   2    255 43.39                                   -0.40     47 349 
 GUIA  Z  P   1    255 37.56                                   -0.00     48 287 
 GUIA  N  S   2    255 43.99                                    0.10     48 287 
 CADE  Z  P   1    255 37.10                                   -0.50     49 275 
 CADE  N  S   2    255 43.03                                   -0.90     49 275 
 CDOS  Z  P   1    255 38.32                                    0.40     51 292 
 CDOS  N  S   2    255 45.03                                    0.50     51 292 
 CBOL  Z  P   1    255 39.31                                    0.30     61 291 
 CBOL  N  S   2    255 47.04                                    0.60     61 291 
 CLUM  Z  P   1    255 40.16                                    0.30     68 119 
 CLUM  N  S   2    255 48.04                                    0.10     68 119 
                                                                                
