 2020  313 1327 59.4 L  27.936 -14.472 10.9  IGN 120.74 2.7GIGN                1
 ACTION:                   OP:     STATUS:               ID:20200313132759 L   I
 STAT SP IPHASW D HRMM SECON CODA AMPLIT PERI AZIMU VELO AIN AR TRES W  DIS CAZ7
 CGIN  Z  P   1   1328  7.33                                   -0.10     49  52 
 CGIN  N  S   2   1328 13.33                                   -0.10     49  52 
 CFTV  Z  P   1   1328  8.82                                   -0.90     66  35 
 CFTV  N  S   2   1328 15.83                                   -1.60     66  35 
 CFUE  Z  P   1   1328 12.81                                   -0.60     94  34 
 CFUE  N  S   2   1328 22.81                                   -1.20     94  34 
 CLUM  Z  P   1   1328 16.07                                   -0.10    117 264 
 CLUM  N  S   2   1328 28.72                                   -0.10    117 264 
 CTIM  Z  P   1   1328 18.57                                   -0.20    137  31 
 CTIM  N  S   2   1328 33.83                                    0.50    137  31 
 CBLA  N  S   2   1328 35.90                                    1.30    143  32 
 EFAM  Z  P   1   1328 22.80                                    1.00    161  35 
 EFAM  N  S   2   1328 39.58                                    1.00    161  35 
 CDLV  Z  P   1   1328 22.46                                   -0.30    169  36 
 CDLV  N  S   2   1328 40.97                                    0.70    169  36 
 EBAJ  Z  P   1   1328 27.04                                    1.00    196 291 
 EBAJ  N  S   2   1328 45.84                                   -0.20    196 291 
 CGUI  Z  P   1   1328 27.03                                    0.60    198 283 
 CGUI  N  S   2   1328 46.27                                   -0.40    198 283 
 MACI  Z  P   1   1328 27.12                                    0.10    203 280 
 MACI  N  S   2   1328 48.26                                    0.50    203 280 
 CCAN  Z  P   1   1328 28.25                                    0.10    212 279 
 CCAN  N  S   2   1328 48.83                                   -0.90    212 279 
                                                                                
 2020  313 1634 20.0 L  28.045 -16.247 24.9  IGN 170.37 2.0GIGN                1
 ACTION:                   OP:     STATUS:               ID:20200313163420 L   I
 STAT SP IPHASW D HRMM SECON CODA AMPLIT PERI AZIMU VELO AIN AR TRES W  DIS CAZ7
 CGRA  Z  P   1   1634 25.91                                    0.10     29 283 
 CGRA  N  S   2   1634 30.56                                    0.40     29 283 
 MACI  Z  P   1   1634 26.90                                    0.50     34 312 
 MACI  N  S   2   1634 31.74                                    0.50     34 312 
 CGUI  Z  P   1   1634 26.73                                    0.10     37 328 
 CGUI  N  S   2   1634 30.83                                   -0.70     37 328 
 CCAN  Z  P   1   1634 27.19                                    0.10     40 299 
 CCAN  N  S   2   1634 31.58                                   -0.90     40 299 
 CDIE  Z  P   1   1634 26.92                                   -0.20     41 311 
 CDIE  N  S   2   1634 32.76                                    0.30     41 311 
 CRAJ  Z  P   1   1634 27.45                                    0.10     42 305 
 CRAJ  N  S   2   1634 33.50                                    0.70     42 305 
 CLAJ  Z  P   1   1634 27.67                                    0.20     43 286 
 CLAJ  N  S   2   1634 32.97                                   -0.20     43 286 
 CFOR  Z  P   1   1634 27.67                                   -0.00     46 311 
 CFOR  N  S   2   1634 33.29                                   -0.10     46 311 
 CCHO  Z  P   1   1634 27.82                                   -0.00     47 296 
 CCHO  N  S   2   1634 33.63                                   -0.00     47 296 
 CPVI  Z  P   1   1634 27.79                                   -0.10     47 301 
 CPVI  N  S   2   1634 33.86                                    0.00     47 301 
 CREA  Z  P   1   1634 27.36                                   -0.60     48 316 
 CREA  N  S   2   1634 33.66                                   -0.20     48 316 
 CNOR  Z  P   1   1634 28.39                                    0.10     50 306 
 CNOR  N  S   2   1634 34.77                                    0.30     50 306 
 CADE  Z  P   1   1634 28.01                                   -0.30     50 285 
 CADE  N  S   2   1634 33.50                                   -1.00     50 285 
 GUIA  Z  P   1   1634 28.54                                    0.10     51 296 
 GUIA  N  S   2   1634 34.79                                    0.00     51 296 
 CDOS  Z  P   1   1634 29.23                                    0.30     56 300 
 CDOS  N  S   2   1634 35.79                                    0.20     56 300 
 CLUM  Z  P   1   1634 30.17                                    0.20     63 113 
 CLUM  N  S   2   1634 37.09                                   -0.30     63 113 
 CBOL  Z  P   1   1634 30.32                                    0.30     64 298 
 CBOL  N  S   2   1634 37.73                                    0.20     64 298 
                                                                                
 2020  313 2020 45.4 L  28.102 -15.095  2.4  IGN  50.80 2.1GIGN                1
 ACTION:                   OP:     STATUS:               ID:20200313202045 L   I
 STAT SP IPHASW D HRMM SECON CODA AMPLIT PERI AZIMU VELO AIN AR TRES W  DIS CAZ7
 CLUM  Z  P   1   2020 55.67                                   -0.60     63 240 
 CLUM  N  S   2   2021  5.04                                    0.60     63 240 
 CGIN  Z  P   1   2021  2.11                                    0.90    100  83 
 CGIN  N  S   2   2021 11.82                                   -1.20    100  83 
 CFUE  Z  P   1   2021  5.23                                    0.50    129  62 
 CFUE  N  S   2   2021 19.62                                    0.40    129  62 
 CGUI  Z  P   1   2021  4.63                                   -0.80    134 281 
 CGUI  N  S   2   2021 19.69                                   -0.80    134 281 
 CRAJ  N  S   2   2021 24.61                                    1.00    149 277 
                                                                                
 2020  314  248 14.0 L  28.142 -16.667  8.4  IGN 110.19 0.6GIGN                1
 ACTION:                   OP:     STATUS:               ID:20200314024814 L   I
 STAT SP IPHASW D HRMM SECON CODA AMPLIT PERI AZIMU VELO AIN AR TRES W  DIS CAZ7
 CLAJ  Z  P   1    248 15.81                                    0.10      1 332 
 CLAJ  N  S   2    248 17.09                                    0.10      1 332 
 CVIL  Z  P   1    248 15.88                                    0.10      3  53 
 CVIL  N  S   2    248 17.23                                    0.10      3  53 
 CTFS  Z  P   1    248 16.09                                   -0.10      7 152 
 CTFS  N  S   2    248 17.73                                   -0.10      7 152 
 CADE  Z  P   1    248 16.16                                   -0.10      8 285 
 CADE  N  S   2    248 17.62                                   -0.30      8 285 
 CCHO  Z  P   1    248 16.43                                    0.00      9 356 
 CCHO  N  S   2    248 18.29                                    0.10      9 356 
 CCAN  Z  P   1    248 16.50                                   -0.10     11  33 
 CCAN  N  S   2    248 18.25                                   -0.30     11  33 
 GUIA  N  S   2    248 19.25                                    0.20     12 336 
 CPVI  Z  P   1    248 17.32                                    0.30     13   3 
 CPVI  N  S   2    248 19.39                                    0.20     13   3 
 CRAJ  Z  P   1    248 17.60                                    0.30     16  27 
 CRAJ  N  S   2    248 19.47                                   -0.20     16  27 
 CDOS  N  S   2    248 20.26                                   -0.20     18 337 
 MACI  N  S   2    248 20.81                                   -0.10     20  53 
                                                                                
 2020  314  521 58.5 L  28.195 -16.757 11.8  IGN 130.17 0.6GIGN                1
 ACTION:                   OP:     STATUS:               ID:20200314052158 L   I
 STAT SP IPHASW D HRMM SECON CODA AMPLIT PERI AZIMU VELO AIN AR TRES W  DIS CAZ7
 CADE  N  S   2    522  2.69                                    0.10      4 160 
 GUIA  Z  P   1    522  0.95                                   -0.10      7  31 
 GUIA  N  S   2    522  2.86                                   -0.10      7  31 
 CCHO  Z  P   1    522  1.21                                   -0.10      9  67 
 CCHO  N  S   2    522  3.32                                    0.00      9  67 
 CLAJ  Z  P   1    522  1.30                                    0.00      9 118 
 CLAJ  N  S   2    522  3.14                                   -0.20      9 118 
 CDOS  Z  P   1    522  1.58                                    0.10     11   9 
 CPVI  Z  P   1    522  1.73                                    0.10     12  52 
 CPVI  N  S   2    522  4.45                                    0.50     12  52 
 CCAN  Z  P   1    522  1.85                                   -0.20     16  78 
 CCAN  N  S   2    522  4.32                                   -0.30     16  78 
 CBOL  N  S   2    522  4.68                                    0.00     16 331 
 CNOR  Z  P   1    522  2.05                                   -0.10     17  36 
 CNOR  N  S   2    522  4.86                                   -0.00     17  36 
 CTFS  N  S   2    522  5.38                                    0.30     17 135 
 CDIE  Z  P   1    522  2.88                                   -0.10     22  63 
 CDIE  N  S   2    522  6.15                                   -0.10     22  63 
 MACI  Z  P   1    522  3.32                                   -0.10     26  76 
 MACI  N  S   2    522  7.13                                    0.10     26  76 
 CGUI  N  S   2    522  9.14                                    0.10     33  65 
                                                                                
 2020  314  616 47.1 L  28.148 -16.662  7.9  IGN 100.30 1.1GIGN                1
 ACTION:                   OP:     STATUS:               ID:20200314061647 L   I
 STAT SP IPHASW D HRMM SECON CODA AMPLIT PERI AZIMU VELO AIN AR TRES W  DIS CAZ7
 CLAJ  Z  P   1    616 48.83                                    0.20      1 304 
 CLAJ  N  S   2    616 49.73                                   -0.10      1 304 
 CVIL  Z  P   1    616 48.88                                    0.20      2  58 
 CVIL  N  S   2    616 50.16                                    0.20      2  58 
 CTFS  Z  P   1    616 49.09                                   -0.10      8 158 
 CTFS  N  S   2    616 50.61                                   -0.20      8 158 
 CADE  N  S   2    616 50.63                                   -0.30      8 280 
 CCHO  Z  P   1    616 49.45                                    0.10      9 353 
 CCHO  N  S   2    616 50.90                                   -0.10      9 353 
 CCAN  Z  P   1    616 49.53                                    0.00     10  33 
 CCAN  N  S   2    616 51.32                                   -0.00     10  33 
 GUIA  Z  P   1    616 50.22                                    0.30     12 332 
 GUIA  N  S   2    616 52.18                                    0.20     12 332 
 CRAJ  N  S   2    616 52.73                                    0.20     14  26 
 CDIE  Z  P   1    616 50.87                                    0.10     18  34 
 CDIE  N  S   2    616 53.72                                    0.20     18  34 
 CREA  N  S   2    616 54.13                                   -1.00     24  19 
                                                                                
 2020  314  659 22.0 L  28.154 -16.650  9.6  IGN  80.23 0.6GIGN                1
 ACTION:                   OP:     STATUS:               ID:20200314065922 L   I
 STAT SP IPHASW D HRMM SECON CODA AMPLIT PERI AZIMU VELO AIN AR TRES W  DIS CAZ7
 CVIL  N  S   2    659 25.36                                    0.10      1  49 
 CLAJ  Z  P   1    659 24.11                                    0.20      2 275 
 CLAJ  N  S   2    659 25.35                                    0.00      2 275 
 CCHO  Z  P   1    659 24.55                                    0.10      8 344 
 CCHO  N  S   2    659 26.17                                   -0.10      8 344 
 CCAN  Z  P   1    659 24.57                                    0.10      9  29 
 CCAN  N  S   2    659 26.17                                   -0.20      9  29 
 CADE  Z  P   1    659 24.56                                    0.00      9 275 
 CADE  N  S   2    659 26.05                                   -0.40      9 275 
 CPVI  N  S   2    659 27.58                                    0.50     12 355 
 GUIA  N  S   2    659 27.09                                   -0.10     12 326 
 CDIE  N  S   2    659 27.92                                   -0.40     17  31 
                                                                                
 2020  314 1831  2.1 L  28.095 -16.300 40.1  IGN  60.28 1.0GIGN                1
 ACTION:                   OP:     STATUS:               ID:20200314183102 L   I
 STAT SP IPHASW D HRMM SECON CODA AMPLIT PERI AZIMU VELO AIN AR TRES W  DIS CAZ7
 MACI  Z  P   1   1831  9.24                                    0.20     27 310 
 MACI  N  S   2   1831 14.52                                    0.40     27 310 
 CGUI  Z  P   1   1831  8.93                                   -0.20     29 331 
 CGUI  N  S   2   1831 14.20                                   -0.20     29 331 
 CCAN  N  S   2   1831 14.84                                   -0.30     33 295 
 CLAJ  Z  P   1   1831  9.94                                    0.00     38 280 
 CLAJ  N  S   2   1831 15.79                                    0.00     38 280 
 CNOR  N  S   2   1831 17.10                                    0.50     43 304 
 GUIA  N  S   2   1831 16.58                                   -0.40     44 292 
                                                                                
 2020  314 1848 10.2 L  27.962 -16.318  6.2  IGN  80.61 1.3GIGN                1
 ACTION:                   OP:     STATUS:               ID:20200314184810 L   I
 STAT SP IPHASW D HRMM SECON CODA AMPLIT PERI AZIMU VELO AIN AR TRES W  DIS CAZ7
 MACI  Z  P   1   1848 17.78                                    1.00     37 330 
 MACI  N  S   2   1848 22.46                                    0.70     37 330 
 CCAN  N  S   2   1848 23.19                                    0.40     41 316 
 CLAJ  N  S   2   1848 21.97                                   -0.90     41 302 
 CGUI  N  S   2   1848 22.44                                   -0.60     42 343 
 CDIE  N  S   2   1848 22.80                                   -0.60     43 327 
 GUIA  N  S   2   1848 25.79                                    0.30     51 309 
 CNOR  N  S   2   1848 25.60                                   -0.10     51 319 
 CLUM  N  S   2   1848 29.21                                   -0.20     68 104 
                                                                                
 2020  315  034  8.0 L  28.146 -16.659  2.6  IGN  60.16 0.2GIGN                1
 ACTION:                   OP:     STATUS:               ID:20200315003408 L   I
 STAT SP IPHASW D HRMM SECON CODA AMPLIT PERI AZIMU VELO AIN AR TRES W  DIS CAZ7
 CLAJ  N  S   2    034  9.46                                    0.10      2 307 
 CTFS  Z  P   1    034  9.79                                   -0.00      7 159 
 CTFS  N  S   2    034 11.27                                    0.10      7 159 
 CADE  N  S   2    034 11.41                                   -0.20      9 282 
 CCHO  Z  P   1    034 10.16                                   -0.00      9 351 
 CCHO  N  S   2    034 12.00                                    0.20      9 351 
 CCAN  N  S   2    034 11.93                                   -0.30     10  31 
 CPVI  N  S   2    034 13.47                                    0.20     13 359 
                                                                                
 2020  315  8 9 52.6 L  27.663 -18.033 10.8  IGN  60.23 1.4GIGN                1
 ACTION:                   OP:     STATUS:               ID:20200315080952 L   I
 STAT SP IPHASW D HRMM SECON CODA AMPLIT PERI AZIMU VELO AIN AR TRES W  DIS CAZ7
 CTAC  Z  P   1    8 9 54.97                                    0.30      2  45 
 CTAC  N  S   2    8 9 56.25                                    0.00      2  45 
 CNAO  Z  P   1    8 9 54.78                                   -0.00      4 112 
 CNAO  N  S   2    8 9 56.13                                   -0.30      4 112 
 CMCL  Z  P   1    8 9 54.96                                    0.10      6  14 
 CMCL  N  S   2    8 9 57.07                                    0.50      6  14 
 CCUM  Z  P   1    8 9 55.17                                   -0.10      9   2 
 CCUM  N  S   2    8 9 57.09                                   -0.10      9   2 
 CTAN  N  S   2    8 9 57.28                                   -0.20     10 349 
 CTAB  N  S   2    8 9 57.39                                   -0.20     11 332 
                                                                                
 2020  315 1738 54.0 L  28.277 -13.074  0.0  IGN  50.25 2.0GIGN                1
 ACTION:                   OP:     STATUS:               ID:20200315173853 L   I
 STAT SP IPHASW D HRMM SECON CODA AMPLIT PERI AZIMU VELO AIN AR TRES W  DIS CAZ7
 CFUE  Z  P   1   1739  8.90                                   -0.50     93 296 
 CFUE  N  S   2   1739 21.00                                   -0.00     93 296 
 CGIN  Z  P   1   1739 10.36                                    0.20     99 266 
 CGIN  N  S   2   1739 13.84                                   -8.40     99 266 
 CFTV  Z  P   1   1739 10.46                                    0.20    100 279 
 CFTV  N  S   2   1739 22.49                                    0.00    100 279 
 EFAM  Z  P   1   1739 10.51                                   -0.20    104 335 
 CDLV  Z  P   1   1739 10.88                                    0.10    104 340 
 CDLV  N  S   2   1739 23.61                                    0.20    104 340 
                                                                                
