 2020  310 2344 11.1 L  28.142 -16.670  9.4  IGN 120.23 0.8GIGN                1
 ACTION:                   OP:     STATUS:               ID:20200310234411 L   I
 STAT SP IPHASW D HRMM SECON CODA AMPLIT PERI AZIMU VELO AIN AR TRES W  DIS CAZ7
 CLAJ  Z  P   1   2344 13.09                                    0.10      1 342 
 CLAJ  N  S   2   2344 14.56                                    0.20      1 342 
 CVIL  Z  P   1   2344 13.06                                    0.00      3  54 
 CVIL  N  S   2   2344 14.48                                    0.00      3  54 
 CTFS  Z  P   1   2344 13.43                                    0.10      8 150 
 CTFS  N  S   2   2344 14.84                                   -0.20      8 150 
 CADE  Z  P   1   2344 13.44                                    0.10      8 286 
 CADE  N  S   2   2344 14.89                                   -0.20      8 286 
 CCHO  Z  P   1   2344 13.68                                    0.10      9 358 
 CCHO  N  S   2   2344 15.46                                   -0.00      9 358 
 CCAN  Z  P   1   2344 13.74                                   -0.10     11  34 
 CCAN  N  S   2   2344 15.39                                   -0.50     11  34 
 GUIA  Z  P   1   2344 14.45                                    0.40     12 337 
 GUIA  N  S   2   2344 16.41                                    0.10     12 337 
 CPVI  N  S   2   2344 16.89                                    0.50     13   4 
 CRAJ  N  S   2   2344 16.77                                   -0.20     16  28 
 CDOS  Z  P   1   2344 14.58                                   -0.30     18 338 
 CDOS  N  S   2   2344 17.36                                   -0.30     18 338 
 CDIE  N  S   2   2344 17.83                                   -0.10     19  34 
 MACI  Z  P   1   2344 15.18                                    0.10     20  53 
 MACI  N  S   2   2344 18.41                                    0.30     20  53 
                                                                                
 2020  311  252 10.0 L  28.369 -16.677 12.9  IGN  60.21 0.8GIGN                1
 ACTION:                   OP:     STATUS:               ID:20200311025209 L   I
 STAT SP IPHASW D HRMM SECON CODA AMPLIT PERI AZIMU VELO AIN AR TRES W  DIS CAZ7
 CNOR  Z  P   1    252 12.44                                   -0.20      7 165 
 CNOR  N  S   2    252 14.34                                   -0.20      7 165 
 CREA  Z  P   1    252 12.95                                    0.10     10 101 
 CDOS  Z  P   1    252 12.99                                    0.00     10 217 
 CDOS  N  S   2    252 15.21                                    0.00     10 217 
 CPVI  Z  P   1    252 13.25                                    0.10     12 173 
 CPVI  N  S   2    252 16.01                                    0.50     12 173 
 CDIE  Z  P   1    252 13.67                                    0.20     14 129 
 CDIE  N  S   2    252 15.96                                   -0.10     14 129 
 CCHO  Z  P   1    252 13.42                                   -0.20     16 179 
 CCHO  N  S   2    252 16.09                                   -0.30     16 179 
                                                                                
 2020  311 1216 40.2 L  28.143 -16.733  7.5  IGN  70.18 0.9GIGN                1
 ACTION:                   OP:     STATUS:               ID:20200311121640 L   I
 STAT SP IPHASW D HRMM SECON CODA AMPLIT PERI AZIMU VELO AIN AR TRES W  DIS CAZ7
 CADE  Z  P   1   1216 41.72                                   -0.10      2 334 
 CADE  N  S   2   1216 42.77                                   -0.20      2 334 
 CLAJ  Z  P   1   1216 42.42                                    0.30      6  77 
 CLAJ  N  S   2   1216 43.85                                    0.30      6  77 
 CCHO  N  S   2   1216 44.77                                    0.10     11  33 
 GUIA  Z  P   1   1216 42.91                                   -0.00     11   6 
 GUIA  N  S   2   1216 44.96                                    0.00     11   6 
 CCAN  Z  P   1   1216 43.38                                   -0.10     16  54 
 CCAN  N  S   2   1216 45.58                                   -0.30     16  54 
 CDOS  N  S   2   1216 46.43                                    0.20     17 358 
 CDIE  N  S   2   1216 47.87                                   -0.10     23  47 
                                                                                
 2020  311 2311  5.6 L  27.986 -16.257  8.6  IGN 160.28 1.5GIGN                1
 ACTION:                   OP:     STATUS:               ID:20200311231105 L   I
 STAT SP IPHASW D HRMM SECON CODA AMPLIT PERI AZIMU VELO AIN AR TRES W  DIS CAZ7
 MACI  Z  P   1   2311 12.58                                    0.20     38 320 
 MACI  N  S   2   2311 17.53                                    0.00     38 320 
 CTFS  N  S   2   2311 17.45                                   -0.10     39 287 
 CGUI  Z  P   1   2311 12.63                                   -0.20     41 334 
 CGUI  N  S   2   2311 18.00                                   -0.30     41 334 
 CCAN  Z  P   1   2311 13.06                                   -0.10     43 308 
 CCAN  N  S   2   2311 18.47                                   -0.30     43 308 
 CDIE  Z  P   1   2311 13.07                                   -0.20     44 318 
 CLAJ  Z  P   1   2311 13.60                                    0.20     46 295 
 CLAJ  N  S   2   2311 19.29                                    0.10     46 295 
 CRAJ  N  S   2   2311 19.50                                    0.20     46 313 
 CCHO  Z  P   1   2311 13.88                                    0.00     49 303 
 CCHO  N  S   2   2311 20.51                                    0.50     49 303 
 CPVI  N  S   2   2311 20.82                                    0.50     50 308 
 CADE  Z  P   1   2311 14.37                                    0.20     51 292 
 CADE  N  S   2   2311 19.89                                   -0.80     51 292 
 CNOR  N  S   2   2311 21.07                                   -0.10     53 313 
 GUIA  N  S   2   2311 21.60                                    0.30     54 303 
 CDOS  N  S   2   2311 22.09                                   -0.20     58 306 
 CLUM  Z  P   1   2311 15.80                                    0.10     62 107 
 CLUM  N  S   2   2311 23.03                                   -0.20     62 107 
 GGC   N  S   2   2311 23.52                                    0.20     62  76 
 CBOL  N  S   2   2311 24.49                                    0.20     67 303 
                                                                                
 2020  312  032 59.5 L  28.143 -16.670  8.9  IGN 120.16 0.9GIGN                1
 ACTION:                   OP:     STATUS:               ID:20200312003259 L   I
 STAT SP IPHASW D HRMM SECON CODA AMPLIT PERI AZIMU VELO AIN AR TRES W  DIS CAZ7
 CLAJ  Z  P   1    033  1.32                                    0.10      1 340 
 CLAJ  N  S   2    033  2.79                                    0.20      1 340 
 CVIL  Z  P   1    033  1.36                                    0.00      3  57 
 CVIL  N  S   2    033  2.79                                    0.10      3  57 
 CADE  Z  P   1    033  1.65                                   -0.10      8 285 
 CADE  N  S   2    033  3.15                                   -0.20      8 285 
 CTFS  Z  P   1    033  1.64                                   -0.10      8 151 
 CTFS  N  S   2    033  3.26                                   -0.10      8 151 
 CCHO  Z  P   1    033  1.96                                    0.00      9 358 
 CCHO  N  S   2    033  3.77                                    0.00      9 358 
 CCAN  Z  P   1    033  1.94                                   -0.20     11  35 
 CCAN  N  S   2    033  3.81                                   -0.30     11  35 
 GUIA  N  S   2    033  4.69                                    0.10     12 337 
 CGRA  N  S   2    033  5.11                                    0.20     14 109 
 CDOS  N  S   2    033  5.71                                   -0.30     18 338 
 CDIE  Z  P   1    033  3.40                                    0.00     19  35 
 CDIE  N  S   2    033  6.20                                   -0.00     19  35 
 MACI  Z  P   1    033  3.58                                    0.10     20  53 
 MACI  N  S   2    033  6.52                                    0.10     20  53 
 CBOL  N  S   2    033  8.08                                    0.30     24 320 
                                                                                
 2020  312  033 54.4 L  28.150 -16.676  9.6  IGN  50.11 0.4GIGN                1
 ACTION:                   OP:     STATUS:               ID:20200312003354 L   I
 STAT SP IPHASW D HRMM SECON CODA AMPLIT PERI AZIMU VELO AIN AR TRES W  DIS CAZ7
 CLAJ  Z  P   1    033 56.34                                    0.10      1  11 
 CLAJ  N  S   2    033 57.70                                    0.10      1  11 
 CVIL  Z  P   1    033 56.38                                    0.00      3  73 
 CVIL  N  S   2    033 57.80                                   -0.00      3  73 
 CADE  Z  P   1    033 56.63                                    0.00      7 280 
 CADE  N  S   2    033 58.12                                   -0.20      7 280 
 CCHO  N  S   2    033 58.78                                    0.20      9   2 
 CCAN  Z  P   1    033 57.07                                   -0.00     11  40 
 CCAN  N  S   2    033 58.92                                   -0.20     11  40 
                                                                                
 2020  312  034 10.0 L  28.143 -16.671  9.5  IGN  60.13 0.5GIGN                1
 ACTION:                   OP:     STATUS:               ID:20200312003410 L   I
 STAT SP IPHASW D HRMM SECON CODA AMPLIT PERI AZIMU VELO AIN AR TRES W  DIS CAZ7
 CLAJ  Z  P   1    034 11.97                                    0.10      1 344 
 CLAJ  N  S   2    034 13.37                                    0.10      1 344 
 CVIL  Z  P   1    034 12.05                                    0.10      3  56 
 CVIL  N  S   2    034 13.44                                    0.00      3  56 
 CADE  Z  P   1    034 12.30                                   -0.00      8 286 
 CADE  N  S   2    034 13.79                                   -0.20      8 286 
 CCHO  N  S   2    034 14.47                                    0.10      9 358 
 CCAN  Z  P   1    034 12.69                                   -0.10     11  35 
 CCAN  N  S   2    034 14.56                                   -0.20     11  35 
 CDOS  N  S   2    034 16.72                                    0.10     18 338 
                                                                                
 2020  312  158 46.9 L  28.115 -16.277 39.3  IGN 140.28 1.4GIGN                1
 ACTION:                   OP:     STATUS:               ID:20200312015846 L   I
 STAT SP IPHASW D HRMM SECON CODA AMPLIT PERI AZIMU VELO AIN AR TRES W  DIS CAZ7
 CGRA  Z  P   1    158 53.94                                    0.30     26 267 
 CGRA  N  S   2    158 58.94                                    0.30     26 267 
 MACI  Z  P   1    158 53.95                                    0.20     27 304 
 MACI  N  S   2    158 59.22                                    0.30     27 304 
 CGUI  Z  P   1    158 53.70                                   -0.10     28 325 
 CGUI  N  S   2    158 58.82                                   -0.20     28 325 
 CDIE  Z  P   1    158 54.04                                   -0.20     33 304 
 CDIE  N  S   2    158 59.85                                    0.00     33 304 
 CCAN  Z  P   1    158 54.17                                   -0.20     34 291 
 CCAN  N  S   2    158 59.51                                   -0.50     34 291 
 CTFS  Z  P   1    158 54.38                                   -0.10     36 265 
 CTFS  N  S   2    159  0.19                                    0.10     36 265 
 CLAJ  Z  P   1    158 54.65                                   -0.20     39 277 
 CLAJ  N  S   2    159  0.39                                   -0.40     39 277 
 CREA  Z  P   1    158 54.78                                   -0.10     40 312 
 CREA  N  S   2    159  0.73                                   -0.10     40 312 
 CCHO  Z  P   1    158 54.69                                   -0.30     41 288 
 CCHO  N  S   2    159  0.68                                   -0.30     41 288 
 CNOR  N  S   2    159  1.88                                    0.40     43 300 
 CADE  Z  P   1    158 55.04                                   -0.40     46 276 
 CADE  N  S   2    159  0.95                                   -1.00     46 276 
 CDOS  Z  P   1    158 56.21                                    0.40     50 294 
 CDOS  N  S   2    159  2.93                                    0.40     50 294 
 CBOL  Z  P   1    158 57.35                                    0.50     59 292 
 CLUM  Z  P   1    158 58.08                                    0.00     70 118 
 CLUM  N  S   2    159  6.48                                    0.00     70 118 
                                                                                
 2020  312  953 59.1 L  28.104 -16.189  7.7  IGN 120.72 1.8GIGN                1
 ACTION:                   OP:     STATUS:               ID:20200312095359 L   I
 STAT SP IPHASW D HRMM SECON CODA AMPLIT PERI AZIMU VELO AIN AR TRES W  DIS CAZ7
 CGUI  Z  P   1    954  5.93                                    0.60     34 314 
 CGUI  N  S   2    954 10.69                                    0.60     34 314 
 MACI  Z  P   1    954  6.72                                    1.30     36 297 
 MACI  N  S   2    954  9.51                                   -0.70     36 297 
 CDIE  Z  P   1    954  8.01                                    1.60     41 299 
 CDIE  N  S   2    954 11.41                                   -0.50     41 299 
 CCAN  Z  P   1    954  7.00                                    0.30     43 288 
 CCAN  N  S   2    954 10.96                                   -1.40     43 288 
 CFOR  Z  P   1    954  6.96                                   -0.10     46 301 
 CFOR  N  S   2    954 12.92                                   -0.10     46 301 
 CLAJ  Z  P   1    954  8.15                                    0.80     48 277 
 CLAJ  N  S   2    954 14.37                                    0.80     48 277 
 CCHO  Z  P   1    954  7.51                                   -0.10     49 286 
 CCHO  N  S   2    954 13.75                                   -0.10     49 286 
 EBAJ  N  S   2    954 13.86                                   -0.30     50 343 
 GUIA  N  S   2    954 13.75                                   -1.30     54 287 
 CDOS  Z  P   1    954  9.85                                    1.10     58 291 
 CDOS  N  S   2    954 16.93                                    1.10     58 291 
 CLUM  Z  P   1    954  9.53                                    0.30     62 121 
 CLUM  N  S   2    954 15.82                                   -0.90     62 121 
 CBOL  Z  P   1    954 10.29                                    0.40     67 290 
 CBOL  N  S   2    954 17.71                                   -0.30     67 290 
                                                                                
 2020  313  746 32.3 L  28.386 -16.692 12.2  IGN  70.25 1.3GIGN                1
 ACTION:                   OP:     STATUS:               ID:20200313074632 L   I
 STAT SP IPHASW D HRMM SECON CODA AMPLIT PERI AZIMU VELO AIN AR TRES W  DIS CAZ7
 CNOR  Z  P   1    746 34.79                                   -0.20      9 159 
 CNOR  N  S   2    746 36.69                                   -0.40      9 159 
 CDOS  Z  P   1    746 35.15                                   -0.10     11 205 
 CDOS  N  S   2    746 37.73                                    0.20     11 205 
 CFOR  Z  P   1    746 35.62                                    0.20     12 129 
 CFOR  N  S   2    746 38.37                                    0.50     12 129 
 CPVI  Z  P   1    746 35.84                                    0.20     14 168 
 CPVI  N  S   2    746 38.08                                   -0.10     14 168 
 GUIA  Z  P   1    746 36.16                                    0.30     16 191 
 GUIA  N  S   2    746 38.51                                    0.00     16 191 
 CDIE  Z  P   1    746 35.94                                   -0.10     17 131 
 CDIE  N  S   2    746 38.59                                   -0.30     17 131 
 CCHO  Z  P   1    746 35.81                                   -0.30     18 174 
 CCHO  N  S   2    746 39.10                                    0.10     18 174 
                                                                                
 2020  313  759 57.1 L  28.364 -16.691 13.3  IGN 130.22 1.5GIGN                1
 ACTION:                   OP:     STATUS:               ID:20200313075957 L   I
 STAT SP IPHASW D HRMM SECON CODA AMPLIT PERI AZIMU VELO AIN AR TRES W  DIS CAZ7
 CNOR  Z  P   1    759 59.48                                   -0.30      7 152 
 CNOR  N  S   2    8 0  1.38                                   -0.40      7 152 
 CDOS  Z  P   1    8 0  0.05                                    0.00      9 212 
 CDOS  N  S   2    8 0  2.21                                    0.00      9 212 
 CFOR  Z  P   1    8 0  0.30                                    0.10     11 120 
 CFOR  N  S   2    8 0  3.13                                    0.60     11 120 
 CPVI  Z  P   1    8 0  0.30                                    0.00     11 165 
 CPVI  N  S   2    8 0  2.82                                    0.20     11 165 
 GUIA  Z  P   1    8 0  0.41                                   -0.00     13 193 
 GUIA  N  S   2    8 0  3.21                                    0.30     13 193 
 CRAJ  Z  P   1    8 0  0.73                                    0.20     14 140 
 CRAJ  N  S   2    8 0  2.74                                   -0.40     14 140 
 CBOL  Z  P   1    8 0  0.82                                    0.20     14 248 
 CBOL  N  S   2    8 0  3.12                                   -0.20     14 248 
 CCHO  Z  P   1    8 0  0.62                                   -0.10     16 174 
 CCHO  N  S   2    8 0  3.55                                    0.10     16 174 
 CDIE  Z  P   1    8 0  0.69                                   -0.00     16 124 
 CDIE  N  S   2    8 0  3.34                                   -0.10     16 124 
 CCAN  Z  P   1    8 0  0.86                                   -0.10     18 152 
 CCAN  N  S   2    8 0  3.78                                   -0.10     18 152 
 MACI  Z  P   1    8 0  1.46                                   -0.10     22 125 
 MACI  N  S   2    8 0  4.85                                   -0.00     22 125 
 CADE  Z  P   1    8 0  1.65                                   -0.10     23 193 
 CADE  N  S   2    8 0  4.89                                   -0.20     23 193 
 CLAJ  Z  P   1    8 0  2.01                                    0.30     23 176 
 CLAJ  N  S   2    8 0  5.22                                    0.10     23 176 
                                                                                
