 2020  315 2249 53.4 L  28.141 -16.215  0.0  IGN 120.85 2.0GIGN                1
 ACTION:                   OP:     STATUS:               ID:20200315224953 L   I
 STAT SP IPHASW D HRMM SECON CODA AMPLIT PERI AZIMU VELO AIN AR TRES W  DIS CAZ7
 CGUI  Z  P   1   2250  0.79                                    1.20     30 312 
 CGUI  N  S   2   2250  3.31                                   -1.00     30 312 
 MACI  Z  P   1   2250  1.21                                    1.40     31 293 
 MACI  N  S   2   2250  5.10                                    0.50     31 293 
 CDIE  Z  P   1   2250  1.41                                    0.60     38 295 
 CDIE  N  S   2   2250  6.06                                   -0.20     38 295 
 CCAN  Z  P   1   2250  1.67                                    0.50     40 284 
 CCAN  N  S   2   2250  6.77                                   -0.10     40 284 
 CTFS  Z  P   1   2250  2.29                                    0.80     41 262 
 CTFS  N  S   2   2250  5.24                                   -2.20     41 262 
 CFOR  Z  P   1   2250  2.03                                    0.60     42 298 
 CREA  Z  P   1   2250  2.09                                    0.40     43 303 
 CREA  N  S   2   2250  7.14                                   -0.70     43 303 
 CLAJ  Z  P   1   2250  2.55                                    0.50     46 272 
 EBAJ  Z  P   1   2250  2.23                                    0.10     46 344 
 EBAJ  N  S   2   2250  7.65                                   -1.00     46 344 
 CCHO  Z  P   1   2250  2.38                                    0.20     46 282 
 CNOR  Z  P   1   2250  2.57                                    0.20     48 294 
 CNOR  N  S   2   2250  8.61                                   -0.60     48 294 
 CLUM  Z  P   1   2250  5.21                                    0.00     66 123 
 CLUM  N  S   2   2250 12.78                                   -1.20     66 123 
                                                                                
 2020  316  126  3.7 L  28.183 -16.181 27.3  IGN 100.41 1.4GIGN                1
 ACTION:                   OP:     STATUS:               ID:20200316012603 L   I
 STAT SP IPHASW D HRMM SECON CODA AMPLIT PERI AZIMU VELO AIN AR TRES W  DIS CAZ7
 CGUI  Z  P   1    126 10.40                                    0.60     30 301 
 CGUI  N  S   2    126 14.58                                    0.20     30 301 
 MACI  Z  P   1    126 10.43                                    0.30     33 283 
 MACI  N  S   2    126 15.19                                    0.30     33 283 
 CDIE  N  S   2    126 15.98                                   -0.10     39 287 
 CCAN  Z  P   1    126 11.11                                   -0.00     42 276 
 CCAN  N  S   2    126 16.09                                   -0.60     42 276 
 CFOR  N  S   2    126 16.84                                   -0.00     43 290 
 CREA  N  S   2    126 15.92                                   -1.10     43 296 
 CTFS  Z  P   1    126 11.61                                    0.10     46 256 
 CTFS  N  S   2    126 17.78                                    0.40     46 256 
 CCHO  N  S   2    126 17.80                                   -0.20     49 276 
 CNOR  N  S   2    126 18.54                                    0.40     49 287 
 CLUM  Z  P   1    126 14.09                                    0.10     66 128 
 CLUM  N  S   2    126 21.30                                   -0.40     66 128 
                                                                                
 2020  316 1817 54.3 L  28.102 -16.310  3.4  IGN  70.25 1.2GIGN                1
 ACTION:                   OP:     STATUS:               ID:20200316181754 L   I
 STAT SP IPHASW D HRMM SECON CODA AMPLIT PERI AZIMU VELO AIN AR TRES W  DIS CAZ7
 MACI  Z  P   1   1817 59.67                                    0.50     26 310 
 CCAN  Z  P   1   1818  0.26                                    0.00     32 295 
 CCAN  N  S   2   1818  4.82                                    0.20     32 295 
 CLAJ  Z  P   1   1818  1.01                                    0.10     37 279 
 CLAJ  N  S   2   1818  5.90                                    0.10     37 279 
 CFOR  Z  P   1   1818  0.39                                   -0.50     37 310 
 CCHO  Z  P   1   1818  1.03                                   -0.20     38 291 
 CCHO  N  S   2   1818  6.05                                   -0.30     38 291 
 CPVI  Z  P   1   1818  1.34                                    0.10     39 297 
 CPVI  N  S   2   1818  6.60                                    0.10     39 297 
 CLUM  N  S   2   1818 15.12                                   -0.00     72 116 
                                                                                
 2020  316 1849 25.9 L  28.143 -16.669  9.4  IGN  70.17 0.5GIGN                1
 ACTION:                   OP:     STATUS:               ID:20200316184925 L   I
 STAT SP IPHASW D HRMM SECON CODA AMPLIT PERI AZIMU VELO AIN AR TRES W  DIS CAZ7
 CLAJ  Z  P   1   1849 27.90                                    0.10      1 338 
 CLAJ  N  S   2   1849 29.13                                   -0.00      1 338 
 CVIL  Z  P   1   1849 27.51                                   -0.30      3  56 
 CVIL  N  S   2   1849 29.54                                    0.30      3  56 
 CTFS  Z  P   1   1849 28.30                                    0.10      8 151 
 CTFS  N  S   2   1849 29.84                                   -0.10      8 151 
 CADE  Z  P   1   1849 28.23                                    0.00      8 285 
 CADE  N  S   2   1849 29.67                                   -0.20      8 285 
 CCHO  Z  P   1   1849 28.53                                    0.10      9 357 
 CCHO  N  S   2   1849 30.23                                   -0.00      9 357 
 CCAN  Z  P   1   1849 28.61                                    0.00     11  35 
 CCAN  N  S   2   1849 30.37                                   -0.30     11  35 
 GUIA  N  S   2   1849 31.22                                    0.20     12 336 
                                                                                
 2020  317  110 33.6 L  28.139 -16.661  8.3  IGN  60.14 1.0GIGN                1
 ACTION:                   OP:     STATUS:               ID:20200317011033 L   I
 STAT SP IPHASW D HRMM SECON CODA AMPLIT PERI AZIMU VELO AIN AR TRES W  DIS CAZ7
 CLAJ  Z  P   1    110 35.49                                    0.20      2 323 
 CLAJ  N  S   2    110 36.70                                    0.10      2 323 
 CVIL  Z  P   1    110 35.46                                    0.10      3  38 
 CVIL  N  S   2    110 36.66                                    0.00      3  38 
 CTFS  Z  P   1    110 35.79                                    0.10      7 156 
 CTFS  N  S   2    110 37.00                                   -0.20      7 156 
 CADE  Z  P   1    110 35.85                                   -0.00      9 287 
 CADE  N  S   2    110 37.38                                   -0.20      9 287 
 CCHO  Z  P   1    110 36.17                                    0.10     10 352 
 CCHO  N  S   2    110 37.90                                    0.00     10 352 
 CCAN  Z  P   1    110 36.15                                   -0.10     11  29 
 CCAN  N  S   2    110 37.94                                   -0.20     11  29 
                                                                                
 2020  317  117 37.0 L  28.251 -16.658 17.5  IGN  80.26 0.5GIGN                1
 ACTION:                   OP:     STATUS:               ID:20200317011736 L   I
 STAT SP IPHASW D HRMM SECON CODA AMPLIT PERI AZIMU VELO AIN AR TRES W  DIS CAZ7
 CCHO  N  S   2    117 42.40                                    0.20      3 209 
 CCAN  Z  P   1    117 40.22                                    0.10      6 121 
 CCAN  N  S   2    117 42.12                                   -0.30      6 121 
 GUIA  N  S   2    117 42.93                                    0.50      7 267 
 CNOR  Z  P   1    117 40.24                                    0.10      7 358 
 CNOR  N  S   2    117 42.32                                   -0.20      7 358 
 CVIL  N  S   2    117 42.91                                   -0.00     10 171 
 CLAJ  N  S   2    117 42.92                                   -0.10     11 189 
 CADE  Z  P   1    117 40.43                                   -0.20     13 220 
 CADE  N  S   2    117 42.93                                   -0.40     13 220 
 CTFS  N  S   2    117 44.69                                    0.30     19 172 
                                                                                
 2020  317 1228 58.3 L  28.132 -16.174 16.1  IGN 150.48 1.9GIGN                1
 ACTION:                   OP:     STATUS:               ID:20200317122858 L   I
 STAT SP IPHASW D HRMM SECON CODA AMPLIT PERI AZIMU VELO AIN AR TRES W  DIS CAZ7
 CGUI  Z  P   1   1229  4.30                                   -0.00     33 309 
 CGUI  N  S   2   1229  8.89                                    0.00     33 309 
 MACI  Z  P   1   1229  5.02                                    0.50     36 292 
 MACI  N  S   2   1229  9.68                                    0.50     36 292 
 CDIE  Z  P   1   1229  5.55                                    0.20     41 294 
 CDIE  N  S   2   1229  9.73                                   -0.90     41 294 
 CCAN  Z  P   1   1229  4.99                                   -0.70     43 284 
 CCAN  N  S   2   1229  9.17                                   -2.00     43 284 
 CTFS  Z  P   1   1229  6.36                                    0.50     46 264 
 CTFS  N  S   2   1229 10.58                                   -1.00     46 264 
 CFOR  Z  P   1   1229  6.01                                    0.10     46 296 
 CFOR  N  S   2   1229  9.68                                   -1.90     46 296 
 CREA  N  S   2   1229 10.21                                   -1.60     47 302 
 EBAJ  N  S   2   1229 11.98                                   -0.20     48 340 
 CLAJ  Z  P   1   1229  5.99                                   -0.40     49 273 
 CLAJ  N  S   2   1229 13.00                                    0.60     49 273 
 CPVI  Z  P   1   1229  6.60                                    0.10     50 287 
 CPVI  N  S   2   1229 12.70                                    0.10     50 287 
 CCHO  Z  P   1   1229  5.82                                   -0.70     50 282 
 CCHO  N  S   2   1229 12.13                                   -0.50     50 282 
 CNOR  Z  P   1   1229  6.58                                   -0.10     52 293 
 CNOR  N  S   2   1229 12.13                                   -0.90     52 293 
 GUIA  Z  P   1   1229  7.70                                    0.50     56 284 
 GUIA  N  S   2   1229 14.44                                    0.70     56 284 
 CADE  N  S   2   1229 13.93                                   -0.00     56 273 
 CDOS  N  S   2   1229 14.69                                    0.20     58 288 
 CLUM  Z  P   1   1229  7.78                                   -0.30     62 124 
 CLUM  N  S   2   1229 15.32                                   -0.00     62 124 
                                                                                
 2020  317 15 8 19.3 L  28.322 -16.621 13.0  IGN  60.54 0.9GIGN                1
 ACTION:                   OP:     STATUS:               ID:20200317150819 L   I
 STAT SP IPHASW D HRMM SECON CODA AMPLIT PERI AZIMU VELO AIN AR TRES W  DIS CAZ7
 CFOR  Z  P   1   15 8 21.51                                   -0.20      3 107 
 CFOR  N  S   2   15 8 24.13                                    0.60      3 107 
 CNOR  Z  P   1   15 8 21.50                                   -0.30      4 256 
 CNOR  N  S   2   15 8 23.48                                   -0.10      4 256 
 CPVI  N  S   2   15 8 22.89                                   -1.20      8 210 
 CCAN  Z  P   1   15 8 22.06                                   -0.30     11 173 
 CCAN  N  S   2   15 8 25.16                                    0.50     11 173 
 CDOS  N  S   2   15 8 25.26                                    0.40     12 255 
 GUIA  N  S   2   15 8 25.43                                    0.40     12 230 
                                                                                
 2020  317 1655 58.3 L  29.015 -14.364 33.0  IGN 120.38 2.3GIGN                1
 ACTION:                   OP:     STATUS:               ID:20200317165558 L   I
 STAT SP IPHASW D HRMM SECON CODA AMPLIT PERI AZIMU VELO AIN AR TRES W  DIS CAZ7
 CFUE  Z  P   1   1656  7.77                                   -0.10     58 134 
 CFUE  N  S   2   1656 14.55                                   -0.50     58 134 
 CTIM  Z  P   1   1656  8.43                                    0.40     60  92 
 CTIM  N  S   2   1656 15.85                                    0.50     60  92 
 EFAM  Z  P   1   1656 10.74                                    0.00     82  81 
 EFAM  N  S   2   1656 19.92                                   -0.10     82  81 
 CDLV  Z  P   1   1656 12.05                                    0.30     91  79 
 CDLV  N  S   2   1656 21.31                                   -0.50     91  79 
 CGIN  Z  P   1   1656 12.16                                    0.10     93 163 
 CGIN  N  S   2   1656 22.27                                   -0.20     93 163 
 CLUM  Z  P   1   1656 23.84                                    0.70    182 224 
 CLUM  N  S   2   1656 42.12                                    0.50    182 224 
 MACI  Z  P   1   1656 28.49                                    0.00    226 249 
 MACI  N  S   2   1656 51.38                                    0.40    226 249 
 CFOR  Z  P   1   1656 29.20                                    0.10    231 251 
 CFOR  N  S   2   1656 52.65                                    0.50    231 251 
 CCAN  Z  P   1   1656 29.30                                   -0.40    236 249 
 CCAN  N  S   2   1656 53.19                                    0.00    236 249 
 CNOR  Z  P   1   1656 29.75                                   -0.10    238 251 
 CNOR  N  S   2   1656 52.95                                   -0.50    238 251 
 CCHO  Z  P   1   1656 30.31                                   -0.10    242 249 
 CCHO  N  S   2   1656 53.82                                   -0.70    242 249 
 CLAJ  Z  P   1   1656 30.36                                   -0.50    246 248 
                                                                                
 2020  317 1724 53.6 L  28.153 -16.663  7.4  IGN 120.17 1.1GIGN                1
 ACTION:                   OP:     STATUS:               ID:20200317172453 L   I
 STAT SP IPHASW D HRMM SECON CODA AMPLIT PERI AZIMU VELO AIN AR TRES W  DIS CAZ7
 CLAJ  Z  P   1   1724 55.22                                    0.10      1 282 
 CLAJ  N  S   2   1724 56.27                                    0.00      1 282 
 CVIL  Z  P   1   1724 55.36                                    0.20      2  72 
 CVIL  N  S   2   1724 56.43                                    0.10      2  72 
 CADE  Z  P   1   1724 55.65                                   -0.10      8 276 
 CADE  N  S   2   1724 57.03                                   -0.30      8 276 
 CCHO  Z  P   1   1724 55.88                                    0.10      8 352 
 CCHO  N  S   2   1724 57.17                                   -0.20      8 352 
 CTFS  Z  P   1   1724 55.79                                    0.00      8 159 
 CTFS  N  S   2   1724 57.38                                   -0.00      8 159 
 CCAN  Z  P   1   1724 55.90                                   -0.10     10  35 
 CCAN  N  S   2   1724 57.60                                   -0.10     10  35 
 GUIA  Z  P   1   1724 56.37                                    0.10     12 331 
 GUIA  N  S   2   1724 58.51                                    0.20     12 331 
 CPVI  N  S   2   1724 59.07                                    0.70     12   1 
 CDOS  Z  P   1   1724 57.00                                   -0.10     18 334 
 CDOS  N  S   2   1724 59.76                                   -0.00     18 334 
 CNOR  Z  P   1   1724 57.34                                    0.20     18   1 
 CNOR  N  S   2   1724 59.74                                   -0.10     18   1 
 MACI  Z  P   1   1724 57.41                                    0.10     19  55 
 MACI  N  S   2   1724 59.67                                   -0.40     19  55 
 CFOR  N  S   2   1725  0.58                                    0.30     19  21 
 CREA  N  S   2   1725  1.55                                    0.10     23  20 
                                                                                
 2020  317 1747 21.8 L  28.156 -16.670  8.6  IGN  70.12 0.3GIGN                1
 ACTION:                   OP:     STATUS:               ID:20200317174721 L   I
 STAT SP IPHASW D HRMM SECON CODA AMPLIT PERI AZIMU VELO AIN AR TRES W  DIS CAZ7
 CLAJ  Z  P   1   1747 23.56                                    0.10      0 262 
 CLAJ  N  S   2   1747 24.83                                    0.10      0 262 
 CVIL  Z  P   1   1747 23.65                                    0.10      2  83 
 CVIL  N  S   2   1747 24.97                                    0.10      2  83 
 CADE  Z  P   1   1747 23.92                                   -0.00      7 274 
 CADE  N  S   2   1747 25.34                                   -0.20      7 274 
 CCHO  Z  P   1   1747 24.18                                    0.20      8 357 
 CCHO  N  S   2   1747 25.70                                    0.00      8 357 
 CTFS  Z  P   1   1747 24.17                                    0.00      9 155 
 CTFS  N  S   2   1747 25.86                                   -0.10      9 155 
 CCAN  Z  P   1   1747 24.24                                   -0.00     10  40 
 CCAN  N  S   2   1747 25.86                                   -0.30     10  40 
 GUIA  N  S   2   1747 26.62                                    0.10     11 334 
                                                                                
 2020  317 1830 47.3 L  28.153 -16.669  8.8  IGN  70.14 0.7GIGN                1
 ACTION:                   OP:     STATUS:               ID:20200317183047 L   I
 STAT SP IPHASW D HRMM SECON CODA AMPLIT PERI AZIMU VELO AIN AR TRES W  DIS CAZ7
 CLAJ  Z  P   1   1830 49.10                                    0.10      1 298 
 CLAJ  N  S   2   1830 50.34                                    0.00      1 298 
 CVIL  Z  P   1   1830 49.19                                    0.10      2  75 
 CVIL  N  S   2   1830 50.58                                    0.20      2  75 
 CADE  Z  P   1   1830 49.43                                   -0.00      8 277 
 CADE  N  S   2   1830 50.91                                   -0.20      8 277 
 CCHO  Z  P   1   1830 49.70                                    0.10      8 357 
 CCHO  N  S   2   1830 51.14                                   -0.10      8 357 
 CTFS  Z  P   1   1830 49.64                                    0.00      8 155 
 CTFS  N  S   2   1830 51.25                                   -0.10      8 155 
 CCAN  Z  P   1   1830 49.72                                   -0.10     10  38 
 CCAN  N  S   2   1830 51.48                                   -0.20     10  38 
 GUIA  N  S   2   1830 52.32                                    0.20     11 334 
                                                                                
