 2020  3 3  1 4 28.3 L  28.132 -16.250 38.5  IGN 210.27 1.9GIGN                1
 ACTION:                   OP:     STATUS:               ID:20200303010428 L   I
 STAT SP IPHASW D HRMM SECON CODA AMPLIT PERI AZIMU VELO AIN AR TRES W  DIS CAZ7
 CGRA  Z  P   1    1 4 35.07                                   -0.10     28 263 
 CGRA  N  S   2    1 4 40.33                                    0.00     28 263 
 CGUI  Z  P   1    1 4 35.22                                    0.10     28 318 
 CGUI  N  S   2    1 4 40.25                                   -0.00     28 318 
 MACI  Z  P   1    1 4 35.38                                    0.20     29 297 
 MACI  N  S   2    1 4 40.65                                    0.30     29 297 
 CDIE  Z  P   1    1 4 35.67                                   -0.00     34 299 
 CDIE  N  S   2    1 4 41.57                                    0.30     34 299 
 CCAN  Z  P   1    1 4 35.64                                   -0.20     37 286 
 CCAN  N  S   2    1 4 41.16                                   -0.40     37 286 
 CRAJ  Z  P   1    1 4 35.86                                   -0.10     37 293 
 CRAJ  N  S   2    1 4 41.62                                   -0.00     37 293 
 CTFS  Z  P   1    1 4 36.00                                   -0.00     38 262 
 CTFS  N  S   2    1 4 41.55                                   -0.30     38 262 
 CVIL  Z  P   1    1 4 36.03                                   -0.10     39 275 
 CVIL  N  S   2    1 4 41.85                                   -0.10     39 275 
 CFOR  Z  P   1    1 4 36.21                                    0.10     39 301 
 CFOR  N  S   2    1 4 42.37                                    0.40     39 301 
 CREA  Z  P   1    1 4 36.27                                    0.00     41 307 
 CREA  N  S   2    1 4 42.16                                   -0.10     41 307 
 CLAJ  Z  P   1    1 4 36.17                                   -0.20     42 274 
 CLAJ  N  S   2    1 4 42.39                                   -0.10     42 274 
 CPVI  Z  P   1    1 4 36.60                                    0.10     43 290 
 CPVI  N  S   2    1 4 42.92                                    0.30     43 290 
 CCHO  Z  P   1    1 4 36.31                                   -0.20     43 284 
 CCHO  N  S   2    1 4 42.24                                   -0.40     43 284 
 CNOR  Z  P   1    1 4 36.89                                    0.20     44 297 
 CNOR  N  S   2    1 4 43.12                                    0.10     44 297 
 EBAJ  Z  P   1    1 4 36.55                                   -0.30     46 349 
 EBAJ  N  S   2    1 4 42.64                                   -0.60     46 349 
 GUIA  Z  P   1    1 4 37.06                                    0.10     48 286 
 GUIA  N  S   2    1 4 43.84                                    0.30     48 286 
 CADE  Z  P   1    1 4 36.61                                   -0.50     49 274 
 CADE  N  S   2    1 4 42.98                                   -0.70     49 274 
 CDOS  Z  P   1    1 4 37.75                                    0.40     51 291 
 CDOS  N  S   2    1 4 44.60                                    0.40     51 291 
 CBOL  Z  P   1    1 4 38.85                                    0.50     60 290 
 CBOL  N  S   2    1 4 46.36                                    0.50     60 290 
 CLUM  Z  P   1    1 4 39.58                                    0.30     69 120 
 CLUM  N  S   2    1 4 47.49                                    0.00     69 120 
 CMIR  Z  P   1    1 4 51.29                                   -0.20    170 292 
 CMIR  N  S   2    1 5  8.77                                   -0.10    170 292 
                                                                                
 2020  3 3  258  7.1 L  28.162 -16.546  9.9  IGN  80.21 0.4GIGN                1
 ACTION:                   OP:     STATUS:               ID:20200303025807 L   I
 STAT SP IPHASW D HRMM SECON CODA AMPLIT PERI AZIMU VELO AIN AR TRES W  DIS CAZ7
 CGRA  N  S   2    258 11.17                                    0.10      7 171 
 CCAN  Z  P   1    258  9.41                                   -0.30      9 319 
 CCAN  N  S   2    258 11.09                                   -0.50      9 319 
 CVIL  N  S   2    258 11.73                                    0.10     10 268 
 MACI  Z  P   1    258  9.77                                   -0.10     10  21 
 MACI  N  S   2    258 12.09                                    0.20     10  21 
 CRAJ  N  S   2    258 12.19                                   -0.10     12 336 
 CDIE  Z  P   1    258 10.24                                   -0.00     13 354 
 CDIE  N  S   2    258 12.67                                    0.10     13 354 
 CCHO  Z  P   1    258 10.28                                   -0.10     14 299 
 CCHO  N  S   2    258 12.96                                    0.20     14 299 
 CPVI  Z  P   1    258 10.57                                    0.00     16 314 
 CPVI  N  S   2    258 13.51                                    0.40     16 314 
                                                                                
 2020  3 3  531 44.9 L  28.022 -16.224 17.8  IGN  80.20 1.0GIGN                1
 ACTION:                   OP:     STATUS:               ID:20200303053144 L   I
 STAT SP IPHASW D HRMM SECON CODA AMPLIT PERI AZIMU VELO AIN AR TRES W  DIS CAZ7
 MACI  Z  P   1    531 51.70                                    0.20     38 312 
 MACI  N  S   2    531 56.22                                   -0.20     38 312 
 CGUI  Z  P   1    531 51.69                                   -0.00     40 327 
 CTFS  N  S   2    531 57.18                                    0.10     41 280 
 CCAN  Z  P   1    531 52.19                                   -0.00     43 301 
 CCAN  N  S   2    531 57.66                                   -0.10     43 301 
 CDIE  Z  P   1    531 52.17                                   -0.10     44 312 
 CDIE  N  S   2    531 57.87                                    0.10     44 312 
 CCHO  Z  P   1    531 52.90                                   -0.10     50 297 
 CCHO  N  S   2    531 58.53                                   -0.50     50 297 
 CPVI  Z  P   1    531 53.26                                    0.20     50 302 
 CPVI  N  S   2    531 59.65                                    0.40     50 302 
 CLUM  Z  P   1    531 54.40                                    0.00     61 112 
 CLUM  N  S   2    532  1.44                                   -0.10     61 112 
                                                                                
 2020  3 4  233  8.1 L  28.234 -16.705 12.2  IGN 130.18 0.5GIGN                1
 ACTION:                   OP:     STATUS:               ID:20200304023308 L   I
 STAT SP IPHASW D HRMM SECON CODA AMPLIT PERI AZIMU VELO AIN AR TRES W  DIS CAZ7
 GUIA  N  S   2    233 12.31                                    0.20      2 315 
 CCHO  Z  P   1    233 10.27                                   -0.10      3 107 
 CCHO  N  S   2    233 12.06                                   -0.10      3 107 
 CPVI  Z  P   1    233 10.49                                   -0.00      6  55 
 CPVI  N  S   2    233 12.41                                    0.10      6  55 
 CDOS  Z  P   1    233 10.65                                   -0.00      8 334 
 CDOS  N  S   2    233 12.59                                   -0.10      8 334 
 CADE  Z  P   1    233 10.77                                   -0.10      9 204 
 CADE  N  S   2    233 12.66                                   -0.20      9 204 
 CLAJ  N  S   2    233 13.12                                    0.20      9 161 
 CCAN  Z  P   1    233 10.55                                   -0.40     10  97 
 CCAN  N  S   2    233 13.31                                    0.30     10  97 
 CNOR  N  S   2    233 12.85                                   -0.20     10  27 
 CVIL  N  S   2    233 13.04                                   -0.10     10 143 
 CBOL  N  S   2    233 14.49                                    0.30     16 306 
 CDIE  Z  P   1    233 11.52                                   -0.10     16  69 
 CDIE  N  S   2    233 14.40                                    0.10     16  69 
 CTFS  N  S   2    233 15.06                                    0.20     18 157 
 MACI  N  S   2    233 15.27                                    0.10     19  85 
                                                                                
 2020  3 4  729 22.7 L  28.134 -16.664  8.3  IGN 100.22 0.8GIGN                1
 ACTION:                   OP:     STATUS:               ID:20200304072922 L   I
 STAT SP IPHASW D HRMM SECON CODA AMPLIT PERI AZIMU VELO AIN AR TRES W  DIS CAZ7
 CLAJ  Z  P   1    729 24.56                                    0.10      2 336 
 CLAJ  N  S   2    729 25.97                                    0.20      2 336 
 CVIL  N  S   2    729 25.88                                    0.10      3  37 
 CTFS  Z  P   1    729 24.79                                    0.00      7 151 
 CTFS  N  S   2    729 26.31                                    0.00      7 151 
 CADE  Z  P   1    729 24.82                                   -0.20      8 291 
 CADE  N  S   2    729 26.33                                   -0.40      8 291 
 CCHO  Z  P   1    729 25.17                                   -0.10     10 355 
 CCHO  N  S   2    729 26.99                                   -0.10     10 355 
 CCAN  Z  P   1    729 25.13                                   -0.30     11  29 
 CCAN  N  S   2    729 26.94                                   -0.50     11  29 
 GUIA  Z  P   1    729 26.01                                    0.30     13 336 
 GUIA  N  S   2    729 28.32                                    0.30     13 336 
 CPVI  Z  P   1    729 26.10                                    0.30     14   1 
 CPVI  N  S   2    729 28.15                                    0.00     14   1 
 CRAJ  N  S   2    729 28.80                                    0.20     16  24 
 CBOL  N  S   2    729 31.22                                   -0.00     26 321 
                                                                                
 2020  3 4 1336 11.1 L  28.103 -16.190 27.6  IGN  60.27 1.3GIGN                1
 ACTION:                   OP:     STATUS:               ID:20200304133611 L   I
 STAT SP IPHASW D HRMM SECON CODA AMPLIT PERI AZIMU VELO AIN AR TRES W  DIS CAZ7
 CGRA  N  S   2   1336 22.93                                    0.40     33 270 
 CGUI  Z  P   1   1336 17.99                                    0.20     34 314 
 CGUI  N  S   2   1336 22.89                                    0.20     34 314 
 MACI  Z  P   1   1336 18.01                                    0.20     36 298 
 MACI  N  S   2   1336 22.49                                   -0.30     36 298 
 CCAN  Z  P   1   1336 18.42                                   -0.30     43 288 
 CCAN  N  S   2   1336 23.89                                   -0.50     43 288 
 CLAJ  Z  P   1   1336 19.41                                    0.10     48 277 
 CLUM  Z  P   1   1336 21.03                                    0.10     61 121 
 CLUM  N  S   2   1336 28.00                                   -0.20     61 121 
                                                                                
 2020  3 4 1645 39.7 L  28.157 -16.670  9.5  IGN  50.14 0.5GIGN                1
 ACTION:                   OP:     STATUS:               ID:20200304164539 L   I
 STAT SP IPHASW D HRMM SECON CODA AMPLIT PERI AZIMU VELO AIN AR TRES W  DIS CAZ7
 CLAJ  Z  P   1   1645 41.61                                    0.10      0 250 
 CLAJ  N  S   2   1645 43.01                                    0.10      0 250 
 CADE  Z  P   1   1645 41.88                                   -0.00      7 273 
 CADE  N  S   2   1645 43.43                                   -0.20      7 273 
 CCHO  N  S   2   1645 43.53                                   -0.20      8 357 
 CCAN  Z  P   1   1645 42.21                                   -0.00     10  40 
 CCAN  N  S   2   1645 44.05                                   -0.10     10  40 
 GUIA  N  S   2   1645 44.72                                    0.20     11 333 
                                                                                
 2020  3 4 17 3  8.6 L  28.139 -16.666  9.6  IGN  90.16 0.7GIGN                1
 ACTION:                   OP:     STATUS:               ID:20200304170308 L   I
 STAT SP IPHASW D HRMM SECON CODA AMPLIT PERI AZIMU VELO AIN AR TRES W  DIS CAZ7
 CLAJ  Z  P   1   17 3 10.59                                    0.10      2 333 
 CLAJ  N  S   2   17 3 12.01                                    0.10      2 333 
 CVIL  Z  P   1   17 3 10.57                                    0.10      3  46 
 CVIL  N  S   2   17 3 11.98                                    0.00      3  46 
 CTFS  Z  P   1   17 3 10.85                                    0.00      7 152 
 CTFS  N  S   2   17 3 12.41                                   -0.10      7 152 
 CADE  Z  P   1   17 3 10.91                                   -0.00      8 287 
 CADE  N  S   2   17 3 12.43                                   -0.30      8 287 
 CCHO  Z  P   1   17 3 11.18                                    0.10     10 355 
 CCHO  N  S   2   17 3 12.99                                   -0.00     10 355 
 CCAN  Z  P   1   17 3 11.23                                   -0.10     11  32 
 CCAN  N  S   2   17 3 12.98                                   -0.40     11  32 
 GUIA  N  S   2   17 3 13.97                                    0.10     13 336 
 CPVI  N  S   2   17 3 14.27                                    0.30     13   2 
 CDOS  N  S   2   17 3 15.16                                   -0.10     19 337 
                                                                                
 2020  3 4 17 5 12.8 L  28.140 -16.665  9.8  IGN  50.16 0.3GIGN                1
 ACTION:                   OP:     STATUS:               ID:20200304170512 L   I
 STAT SP IPHASW D HRMM SECON CODA AMPLIT PERI AZIMU VELO AIN AR TRES W  DIS CAZ7
 CLAJ  Z  P   1   17 5 14.88                                    0.20      2 331 
 CLAJ  N  S   2   17 5 16.35                                    0.20      2 331 
 CTFS  Z  P   1   17 5 14.97                                   -0.10      7 153 
 CTFS  N  S   2   17 5 16.59                                   -0.10      7 153 
 CADE  Z  P   1   17 5 15.20                                    0.10      8 287 
 CADE  N  S   2   17 5 16.72                                   -0.20      8 287 
 CCHO  N  S   2   17 5 17.25                                   -0.00     10 355 
 CCAN  Z  P   1   17 5 15.64                                    0.10     11  31 
 CCAN  N  S   2   17 5 17.35                                   -0.20     11  31 
                                                                                
 2020  3 4 1711 11.2 L  28.141 -16.664  9.9  IGN  50.15 0.3GIGN                1
 ACTION:                   OP:     STATUS:               ID:20200304171111 L   I
 STAT SP IPHASW D HRMM SECON CODA AMPLIT PERI AZIMU VELO AIN AR TRES W  DIS CAZ7
 CLAJ  Z  P   1   1711 13.25                                    0.10      2 328 
 CLAJ  N  S   2   1711 14.78                                    0.20      2 328 
 CTFS  N  S   2   1711 15.06                                   -0.10      7 154 
 CADE  N  S   2   1711 15.19                                   -0.20      8 286 
 CCHO  Z  P   1   1711 13.85                                    0.10      9 355 
 CCHO  N  S   2   1711 15.67                                    0.00      9 355 
 CCAN  Z  P   1   1711 13.99                                    0.10     11  32 
 CCAN  N  S   2   1711 15.77                                   -0.20     11  32 
                                                                                
 2020  3 4 20 3 37.7 L  28.078 -16.271 20.0  IGN  60.24 0.5GIGN                1
 ACTION:                   OP:     STATUS:               ID:20200304200337 L   I
 STAT SP IPHASW D HRMM SECON CODA AMPLIT PERI AZIMU VELO AIN AR TRES W  DIS CAZ7
 MACI  Z  P   1   20 3 43.50                                    0.10     30 309 
 MACI  N  S   2   20 3 47.97                                    0.30     30 309 
 CGUI  N  S   2   20 3 47.81                                   -0.20     32 328 
 CCAN  Z  P   1   20 3 43.87                                   -0.30     37 296 
 CCAN  N  S   2   20 3 48.80                                   -0.30     37 296 
 CCHO  Z  P   1   20 3 45.13                                    0.20     42 293 
 CCHO  N  S   2   20 3 50.11                                   -0.30     42 293 
 CPVI  Z  P   1   20 3 45.45                                    0.40     43 298 
 CPVI  N  S   2   20 3 50.54                                    0.10     43 298 
 CLUM  Z  P   1   20 3 47.92                                   -0.10     68 115 
 CLUM  N  S   2   20 3 55.76                                   -0.00     68 115 
                                                                                
 2020  3 4 2355 51.8 L  27.685 -18.082 19.1  IGN  70.18 1.7GIGN                1
 ACTION:                   OP:     STATUS:               ID:20200304235551 L   I
 STAT SP IPHASW D HRMM SECON CODA AMPLIT PERI AZIMU VELO AIN AR TRES W  DIS CAZ7
 CJUL  Z  P   1   2355 55.05                                    0.00      4 359 
 CJUL  N  S   2   2355 57.74                                    0.30      4 359 
 CTAC  Z  P   1   2355 54.89                                   -0.20      7 101 
 CTAC  N  S   2   2355 57.49                                   -0.10      7 101 
 CMCL  Z  P   1   2355 55.31                                    0.20      7  63 
 CMCL  N  S   2   2355 57.87                                    0.20      7  63 
 CTAB  N  S   2   2355 57.38                                   -0.30      7 357 
 CCUM  N  S   2   2355 57.62                                   -0.20      9  37 
 CNAO  N  S   2   2355 57.95                                   -0.00     10 115 
 CMIR  N  S   2   2356 20.02                                    0.00    114  11 
                                                                                
 2020  3 4 2357 26.8 L  28.130 -16.666  9.8  IGN  80.15 0.3GIGN                1
 ACTION:                   OP:     STATUS:               ID:20200304235726 L   I
 STAT SP IPHASW D HRMM SECON CODA AMPLIT PERI AZIMU VELO AIN AR TRES W  DIS CAZ7
 CLAJ  Z  P   1   2357 28.84                                    0.10      3 343 
 CLAJ  N  S   2   2357 30.34                                    0.10      3 343 
 CVIL  N  S   2   2357 30.41                                    0.10      4  36 
 CTFS  N  S   2   2357 30.57                                   -0.00      6 147 
 CADE  Z  P   1   2357 29.26                                    0.10      8 294 
 CADE  N  S   2   2357 30.80                                   -0.20      8 294 
 CCHO  Z  P   1   2357 29.50                                    0.00     10 356 
 CCHO  N  S   2   2357 31.38                                   -0.10     10 356 
 CCAN  Z  P   1   2357 29.67                                    0.00     12  29 
 CCAN  N  S   2   2357 31.52                                   -0.30     12  29 
 GUIA  N  S   2   2357 32.38                                    0.00     14 338 
 CPVI  N  S   2   2357 32.72                                    0.20     14   2 
                                                                                
