 2020  3 5  047  8.1 L  28.138 -16.668  9.9  IGN  80.16 0.3GIGN                1
 ACTION:                   OP:     STATUS:               ID:20200305004708 L   I
 STAT SP IPHASW D HRMM SECON CODA AMPLIT PERI AZIMU VELO AIN AR TRES W  DIS CAZ7
 CLAJ  Z  P   1    047 10.13                                    0.10      2 340 
 CLAJ  N  S   2    047 11.62                                    0.20      2 340 
 CVIL  Z  P   1    047 10.18                                    0.10      3  46 
 CVIL  N  S   2    047 11.64                                    0.10      3  46 
 CTFS  Z  P   1    047 10.38                                    0.00      7 150 
 CTFS  N  S   2    047 11.98                                   -0.10      7 150 
 CADE  Z  P   1    047 10.45                                   -0.00      8 289 
 CADE  N  S   2    047 11.99                                   -0.30      8 289 
 CCHO  Z  P   1    047 10.73                                    0.00     10 357 
 CCHO  N  S   2    047 12.57                                   -0.10     10 357 
 CCAN  Z  P   1    047 10.80                                   -0.10     11  32 
 CCAN  N  S   2    047 12.62                                   -0.40     11  32 
 GUIA  N  S   2    047 13.46                                    0.00     13 337 
 CPVI  N  S   2    047 13.87                                    0.30     13   3 
                                                                                
 2020  3 5 2154  7.7 L  28.129 -16.243 35.4  IGN 210.30 2.6GIGN                1
 ACTION:                   OP:     STATUS:               ID:20200305215407 L   I
 STAT SP IPHASW D HRMM SECON CODA AMPLIT PERI AZIMU VELO AIN AR TRES W  DIS CAZ7
 CGRA  Z  P   1   2154 14.55                                    0.20     29 264 
 CGRA  N  S   2   2154 19.78                                    0.40     29 264 
 CGUI  Z  P   1   2154 14.50                                    0.10     29 318 
 CGUI  N  S   2   2154 19.55                                    0.20     29 318 
 MACI  Z  P   1   2154 14.65                                    0.20     29 298 
 MACI  N  S   2   2154 19.88                                    0.50     29 298 
 CDIE  Z  P   1   2154 14.88                                   -0.10     36 299 
 CDIE  N  S   2   2154 20.47                                    0.10     36 299 
 CCAN  Z  P   1   2154 14.90                                   -0.30     37 287 
 CCAN  N  S   2   2154 20.13                                   -0.60     37 287 
 CRAJ  Z  P   1   2154 15.19                                   -0.00     38 294 
 CRAJ  N  S   2   2154 20.67                                   -0.10     38 294 
 CTFS  Z  P   1   2154 15.27                                   -0.00     39 263 
 CTFS  N  S   2   2154 20.87                                   -0.10     39 263 
 CVIL  Z  P   1   2154 15.21                                   -0.10     39 275 
 CVIL  N  S   2   2154 20.70                                   -0.40     39 275 
 CFOR  Z  P   1   2154 15.41                                   -0.00     40 301 
 CFOR  N  S   2   2154 21.35                                    0.20     40 301 
 CREA  Z  P   1   2154 15.59                                    0.00     41 307 
 CREA  N  S   2   2154 21.43                                   -0.00     41 307 
 CLAJ  Z  P   1   2154 15.39                                   -0.30     42 274 
 CLAJ  N  S   2   2154 21.12                                   -0.50     42 274 
 CPVI  Z  P   1   2154 15.94                                    0.10     43 290 
 CPVI  N  S   2   2154 21.99                                    0.20     43 290 
 CCHO  Z  P   1   2154 15.59                                   -0.20     43 284 
 CCHO  N  S   2   2154 21.30                                   -0.50     43 284 
 CNOR  Z  P   1   2154 16.22                                    0.20     46 297 
 CNOR  N  S   2   2154 22.40                                    0.20     46 297 
 EBAJ  Z  P   1   2154 15.82                                   -0.30     47 348 
 EBAJ  N  S   2   2154 22.12                                   -0.30     47 348 
 GUIA  Z  P   1   2154 16.29                                   -0.10     49 286 
 GUIA  N  S   2   2154 22.54                                   -0.20     49 286 
 CADE  Z  P   1   2154 15.93                                   -0.50     49 274 
 CADE  N  S   2   2154 21.80                                   -1.10     49 274 
 CDOS  Z  P   1   2154 16.88                                    0.20     52 291 
 CDOS  N  S   2   2154 24.00                                    0.60     52 291 
 GGC   N  S   2   2154 24.61                                   -0.30     60  91 
 CBOL  Z  P   1   2154 18.07                                    0.30     61 290 
 CBOL  N  S   2   2154 25.96                                    0.70     61 290 
 CLUM  Z  P   1   2154 18.83                                    0.30     68 120 
 CLUM  N  S   2   2154 26.72                                    0.20     68 120 
                                                                                
 2020  3 5 22 5 45.7 L  28.146 -16.240 29.9  IGN  70.13 1.0GIGN                1
 ACTION:                   OP:     STATUS:               ID:20200305220545 L   I
 STAT SP IPHASW D HRMM SECON CODA AMPLIT PERI AZIMU VELO AIN AR TRES W  DIS CAZ7
 CGUI  Z  P   1   22 5 51.74                                    0.00     28 314 
 CGUI  N  S   2   22 5 56.19                                   -0.10     28 314 
 MACI  N  S   2   22 5 56.71                                    0.30     29 294 
 CDIE  N  S   2   22 5 57.46                                   -0.10     34 296 
 CCAN  N  S   2   22 5 57.74                                   -0.20     37 284 
 CFOR  N  S   2   22 5 58.24                                   -0.10     39 298 
 CNOR  N  S   2   22 5 59.56                                    0.10     46 294 
 CLUM  Z  P   1   22 5 56.38                                    0.10     69 122 
 CLUM  N  S   2   22 6  4.17                                   -0.10     69 122 
                                                                                
 2020  3 6  4 4 10.2 L  28.154 -16.749  6.4  IGN  50.06 0.3GIGN                1
 ACTION:                   OP:     STATUS:               ID:20200306040410 L   I
 STAT SP IPHASW D HRMM SECON CODA AMPLIT PERI AZIMU VELO AIN AR TRES W  DIS CAZ7
 CADE  Z  P   1    4 4 11.56                                   -0.00      1  41 
 CADE  N  S   2    4 4 12.62                                   -0.00      1  41 
 CLAJ  Z  P   1    4 4 12.31                                    0.10      8  89 
 CLAJ  N  S   2    4 4 13.72                                    0.00      8  89 
 CVIL  N  S   2    4 4 14.46                                   -0.00     10  87 
 GUIA  N  S   2    4 4 14.62                                    0.10     11  15 
 CCHO  Z  P   1    4 4 12.65                                   -0.10     11  43 
 CCHO  N  S   2    4 4 14.56                                   -0.00     11  43 
                                                                                
 2020  3 6  416 36.7 L  28.226 -16.676 11.5  IGN  50.14 0.3GIGN                1
 ACTION:                   OP:     STATUS:               ID:20200306041636 L   I
 STAT SP IPHASW D HRMM SECON CODA AMPLIT PERI AZIMU VELO AIN AR TRES W  DIS CAZ7
 CCHO  Z  P   1    416 38.91                                    0.00      0 120 
 CCHO  N  S   2    416 40.44                                   -0.10      0 120 
 CPVI  N  S   2    416 40.88                                    0.10      4  21 
 CCAN  Z  P   1    416 39.25                                    0.00      7  92 
 CCAN  N  S   2    416 40.91                                   -0.20      7  92 
 CLAJ  N  S   2    416 41.49                                    0.20      8 179 
 CADE  N  S   2    416 41.47                                   -0.20     10 222 
                                                                                
 2020  3 6 1246 38.8 L  28.249 -16.409  3.0  IGN  30.05 0.4GIGN                1
 ACTION:                   OP:     STATUS:               ID:20200306124638 L   I
 STAT SP IPHASW D HRMM SECON CODA AMPLIT PERI AZIMU VELO AIN AR TRES W  DIS CAZ7
 CGUI  Z  P   1   1246 40.91                                    0.00      9 338 
 CGUI  N  S   2   1246 42.46                                   -0.00      9 338 
 MACI  Z  P   1   1246 41.14                                    0.10     10 271 
 MACI  N  S   2   1246 42.77                                   -0.00     10 271 
 CCAN  Z  P   1   1246 42.68                                   -0.10     20 262 
 CCAN  N  S   2   1246 45.82                                    0.00     20 262 
                                                                                
 2020  3 6 2047 55.1 L  28.152 -16.734  7.1  IGN  70.16 0.7GIGN                1
 ACTION:                   OP:     STATUS:               ID:20200306204755 L   I
 STAT SP IPHASW D HRMM SECON CODA AMPLIT PERI AZIMU VELO AIN AR TRES W  DIS CAZ7
 CADE  Z  P   1   2047 56.50                                   -0.10      1 318 
 CADE  N  S   2   2047 57.54                                   -0.20      1 318 
 CLAJ  Z  P   1   2047 57.17                                    0.20      6  86 
 CLAJ  N  S   2   2047 58.57                                    0.20      6  86 
 CCHO  Z  P   1   2047 57.43                                   -0.10     10  36 
 CCHO  N  S   2   2047 59.22                                   -0.10     10  36 
 GUIA  Z  P   1   2047 57.66                                    0.10     11   7 
 GUIA  N  S   2   2047 59.73                                    0.20     11   7 
 CCAN  Z  P   1   2047 58.15                                   -0.10     14  57 
 CCAN  N  S   2   2048  0.32                                   -0.30     14  57 
 CNOR  N  S   2   2048  1.86                                    0.10     19  22 
 CDIE  N  S   2   2048  2.67                                   -0.00     22  49 
                                                                                
 2020  3 7  622 42.7 L  28.133 -16.667  8.6  IGN  70.25 0.5GIGN                1
 ACTION:                   OP:     STATUS:               ID:20200307062242 L   I
 STAT SP IPHASW D HRMM SECON CODA AMPLIT PERI AZIMU VELO AIN AR TRES W  DIS CAZ7
 CLAJ  Z  P   1    622 44.57                                    0.10      2 342 
 CLAJ  N  S   2    622 46.03                                    0.20      2 342 
 CVIL  Z  P   1    622 44.60                                    0.00      3  40 
 CVIL  N  S   2    622 45.99                                    0.10      3  40 
 CADE  Z  P   1    622 44.87                                   -0.10      8 292 
 CADE  N  S   2    622 46.47                                   -0.20      8 292 
 CCHO  Z  P   1    622 45.17                                   -0.10     10 356 
 CCHO  N  S   2    622 47.08                                   -0.10     10 356 
 CCAN  Z  P   1    622 45.28                                   -0.20     11  31 
 CCAN  N  S   2    622 47.03                                   -0.50     11  31 
 GUIA  N  S   2    622 47.97                                   -0.10     13 337 
 CPVI  Z  P   1    622 46.36                                    0.50     14   2 
 CPVI  N  S   2    622 48.57                                    0.40     14   2 
                                                                                
 2020  3 7  918  0.1 L  28.203 -16.509 13.2  IGN 180.48 1.8GIGN                1
 ACTION:                   OP:     STATUS:               ID:20200307091800 L   I
 STAT SP IPHASW D HRMM SECON CODA AMPLIT PERI AZIMU VELO AIN AR TRES W  DIS CAZ7
 MACI  Z  P   1    918  2.95                                    0.30      6   1 
 MACI  N  S   2    918  4.91                                    0.30      6   1 
 CCAN  Z  P   1    918  3.45                                    0.40     10 283 
 CCAN  N  S   2    918  5.50                                    0.20     10 283 
 CDIE  Z  P   1    918  3.34                                    0.20     10 331 
 CDIE  N  S   2    918  5.27                                   -0.10     10 331 
 CRAJ  Z  P   1    918  3.63                                    0.40     11 309 
 CRAJ  N  S   2    918  5.82                                    0.30     11 309 
 CGRA  Z  P   1    918  3.27                                    0.00     11 193 
 CGRA  N  S   2    918  5.16                                   -0.40     11 193 
 CVIL  Z  P   1    918  3.86                                    0.30     14 250 
 CVIL  N  S   2    918  6.36                                    0.30     14 250 
 CGUI  Z  P   1    918  2.89                                   -0.70     14  26 
 CGUI  N  S   2    918  5.54                                   -0.70     14  26 
 CFOR  Z  P   1    918  4.11                                    0.50     14 326 
 CFOR  N  S   2    918  5.94                                   -0.30     14 326 
 CPVI  Z  P   1    918  4.51                                    0.70     17 294 
 CPVI  N  S   2    918  6.94                                    0.40     17 294 
 CCHO  Z  P   1    918  4.08                                    0.30     17 279 
 CCHO  N  S   2    918  6.36                                   -0.20     17 279 
 CLAJ  Z  P   1    918  3.97                                    0.10     17 252 
 CLAJ  N  S   2    918  6.27                                   -0.50     17 252 
 CTFS  Z  P   1    918  3.59                                   -0.40     18 223 
 CTFS  N  S   2    918  6.11                                   -0.80     18 223 
 CREA  Z  P   1    918  4.05                                    0.00     18 337 
 CREA  N  S   2    918  6.12                                   -0.80     18 337 
 CNOR  Z  P   1    918  4.62                                    0.40     19 310 
 CNOR  N  S   2    918  6.58                                   -0.70     19 310 
 GUIA  Z  P   1    918  5.07                                    0.60     21 283 
 GUIA  N  S   2    918  7.21                                   -0.50     21 283 
 CADE  Z  P   1    918  4.47                                   -0.30     23 259 
 CADE  N  S   2    918  6.52                                   -1.70     23 259 
 CDOS  Z  P   1    918  5.41                                    0.50     24 294 
 CDOS  N  S   2    918  7.64                                   -0.90     24 294 
 CBOL  Z  P   1    918  6.65                                    0.50     33 291 
 CBOL  N  S   2    918  9.02                                   -1.60     33 291 
 CLUM  Z  P   1    918  7.88                                   -6.10     94 117 
 CLUM  N  S   2    918 15.93                                   -8.50     94 117 
                                                                                
 2020  3 7 1055 57.7 L  28.146 -16.677  7.5  IGN 130.28 1.5GIGN                1
 ACTION:                   OP:     STATUS:               ID:20200307105557 L   I
 STAT SP IPHASW D HRMM SECON CODA AMPLIT PERI AZIMU VELO AIN AR TRES W  DIS CAZ7
 CLAJ  Z  P   1   1055 59.50                                    0.30      1  12 
 CLAJ  N  S   2   1056  0.40                                    0.00      1  12 
 CVIL  Z  P   1   1055 59.50                                    0.20      3  66 
 CVIL  N  S   2   1056  0.88                                    0.30      3  66 
 CADE  Z  P   1   1055 59.81                                    0.20      7 285 
 CADE  N  S   2   1056  0.88                                   -0.30      7 285 
 CTFS  Z  P   1   1055 59.75                                   -0.10      8 147 
 CTFS  N  S   2   1056  1.12                                   -0.30      8 147 
 CCHO  Z  P   1   1056  0.10                                    0.20      9   2 
 CCHO  N  S   2   1056  1.38                                   -0.30      9   2 
 CCAN  Z  P   1   1056  0.18                                   -0.10     11  39 
 CCAN  N  S   2   1056  1.94                                   -0.30     11  39 
 GUIA  Z  P   1   1056  0.86                                    0.50     12 339 
 GUIA  N  S   2   1056  2.74                                    0.30     12 339 
 CPVI  Z  P   1   1056  0.25                                   -0.30     13   7 
 CPVI  N  S   2   1056  2.19                                   -0.50     13   7 
 CRAJ  Z  P   1   1056  0.79                                   -0.10     16  31 
 CRAJ  N  S   2   1056  3.48                                    0.20     16  31 
 CDOS  Z  P   1   1056  0.71                                   -0.50     18 340 
 CDOS  N  S   2   1056  3.70                                   -0.20     18 340 
 CNOR  Z  P   1   1056  1.92                                    0.50     19   5 
 CNOR  N  S   2   1056  4.52                                    0.30     19   5 
 MACI  Z  P   1   1056  1.68                                    0.00     20  55 
 MACI  N  S   2   1056  4.56                                   -0.10     20  55 
 CBOL  Z  P   1   1056  2.53                                    0.30     24 321 
 CBOL  N  S   2   1056  5.35                                   -0.30     24 321 
                                                                                
 2020  3 8  110 53.2 L  28.252 -16.685 12.7  IGN 140.22 0.8GIGN                1
 ACTION:                   OP:     STATUS:               ID:20200308011053 L   I
 STAT SP IPHASW D HRMM SECON CODA AMPLIT PERI AZIMU VELO AIN AR TRES W  DIS CAZ7
 CPVI  Z  P   1    110 55.78                                    0.20      2  66 
 CPVI  N  S   2    110 57.68                                    0.30      2  66 
 CCHO  Z  P   1    110 55.60                                    0.00      3 159 
 CCHO  N  S   2    110 57.43                                    0.10      3 159 
 GUIA  Z  P   1    110 55.70                                    0.10      3 262 
 GUIA  N  S   2    110 57.40                                    0.00      3 262 
 CDOS  Z  P   1    110 56.12                                    0.30      7 311 
 CDOS  N  S   2    110 57.84                                    0.00      7 311 
 CNOR  Z  P   1    110 55.81                                   -0.00      8  20 
 CNOR  N  S   2    110 57.82                                   -0.00      8  20 
 CCAN  Z  P   1    110 55.67                                   -0.30      8 112 
 CCAN  N  S   2    110 57.74                                   -0.30      8 112 
 CLAJ  N  S   2    110 58.25                                   -0.20     11 175 
 CFOR  N  S   2    110 58.44                                   -0.10     11  53 
 CADE  Z  P   1    110 56.16                                   -0.10     11 209 
 CADE  N  S   2    110 58.27                                   -0.30     11 209 
 CDIE  N  S   2    110 58.85                                   -0.00     13  74 
 CREA  N  S   2    110 58.98                                   -0.40     16  43 
 CBOL  N  S   2    110 59.53                                    0.00     16 296 
 MACI  N  S   2    111  0.30                                    0.40     18  91 
 CTFS  N  S   2    111  0.65                                    0.30     19 165 
 CGUI  N  S   2    111  1.33                                   -0.30     26  72 
                                                                                
