 2020  3 2  312  0.8 L  28.152 -16.251 26.0  IGN 100.25 0.8GIGN                1
 ACTION:                   OP:     STATUS:               ID:20200302031200 L   I
 STAT SP IPHASW D HRMM SECON CODA AMPLIT PERI AZIMU VELO AIN AR TRES W  DIS CAZ7
 CGUI  N  S   2    312 10.57                                   -0.10     27 315 
 MACI  Z  P   1    312  6.93                                    0.40     28 293 
 MACI  N  S   2    312 10.92                                    0.10     28 293 
 CDIE  Z  P   1    312  7.39                                    0.20     33 296 
 CDIE  N  S   2    312 11.97                                   -0.00     33 296 
 CCAN  Z  P   1    312  7.51                                    0.10     36 283 
 CCAN  N  S   2    312 12.24                                   -0.20     36 283 
 CPVI  N  S   2    312 14.09                                    0.40     42 287 
 CCHO  Z  P   1    312  8.01                                   -0.20     42 281 
 CCHO  N  S   2    312 13.45                                   -0.30     42 281 
 CNOR  N  S   2    312 13.91                                   -0.10     44 294 
 GUIA  N  S   2    312 15.12                                    0.40     48 283 
 CDOS  Z  P   1    312  9.23                                    0.10     50 288 
 CDOS  N  S   2    312 14.93                                   -0.50     50 288 
 CLUM  Z  P   1    312 11.35                                   -0.10     70 122 
                                                                                
 2020  3 2  527 56.8 L  28.084 -16.284 38.8  IGN 120.28 0.9GIGN                1
 ACTION:                   OP:     STATUS:               ID:20200302052756 L   I
 STAT SP IPHASW D HRMM SECON CODA AMPLIT PERI AZIMU VELO AIN AR TRES W  DIS CAZ7
 MACI  Z  P   1    528  3.88                                    0.20     29 310 
 MACI  N  S   2    528  9.21                                    0.30     29 310 
 CGUI  Z  P   1    528  4.02                                    0.10     31 330 
 CGUI  N  S   2    528  8.98                                   -0.20     31 330 
 CTFS  Z  P   1    528  4.41                                    0.20     34 270 
 CTFS  N  S   2    528 10.00                                    0.20     34 270 
 CDIE  Z  P   1    528  4.04                                   -0.20     34 310 
 CDIE  N  S   2    528  9.81                                   -0.10     34 310 
 CCAN  Z  P   1    528  4.21                                   -0.10     36 296 
 CCAN  N  S   2    528  9.58                                   -0.30     36 296 
 CLAJ  Z  P   1    528  4.37                                   -0.30     39 282 
 CLAJ  N  S   2    528 10.25                                   -0.30     39 282 
 CFOR  N  S   2    528 10.70                                    0.10     40 310 
 CCHO  Z  P   1    528  4.45                                   -0.40     41 292 
 CCHO  N  S   2    528 10.57                                   -0.30     41 292 
 CNOR  N  S   2    528 11.60                                    0.10     44 305 
 GUIA  N  S   2    528 12.02                                    0.20     47 293 
 CBOL  N  S   2    528 14.92                                    0.70     59 296 
 CLUM  N  S   2    528 16.23                                    0.10     69 115 
                                                                                
 2020  3 2  534 21.9 L  28.133 -16.245 36.5  IGN 210.28 1.6GIGN                1
 ACTION:                   OP:     STATUS:               ID:20200302053421 L   I
 STAT SP IPHASW D HRMM SECON CODA AMPLIT PERI AZIMU VELO AIN AR TRES W  DIS CAZ7
 CGUI  Z  P   1    534 28.81                                    0.20     29 317 
 CGUI  N  S   2    534 33.83                                    0.20     29 317 
 CGRA  N  S   2    534 33.83                                    0.20     29 263 
 MACI  Z  P   1    534 28.98                                    0.30     29 297 
 MACI  N  S   2    534 34.26                                    0.60     29 297 
 CDIE  Z  P   1    534 29.18                                   -0.00     36 299 
 CDIE  N  S   2    534 34.80                                    0.10     36 299 
 CCAN  Z  P   1    534 29.24                                   -0.20     37 286 
 CCAN  N  S   2    534 34.38                                   -0.60     37 286 
 CRAJ  Z  P   1    534 29.40                                   -0.10     38 293 
 CRAJ  N  S   2    534 34.83                                   -0.20     38 293 
 CTFS  Z  P   1    534 29.64                                    0.10     39 262 
 CTFS  N  S   2    534 35.04                                   -0.20     39 262 
 CVIL  N  S   2    534 35.42                                    0.10     39 274 
 CFOR  Z  P   1    534 29.61                                   -0.00     40 301 
 CFOR  N  S   2    534 35.47                                    0.00     40 301 
 CREA  Z  P   1    534 29.73                                   -0.10     41 307 
 CREA  N  S   2    534 35.72                                    0.00     41 307 
 CLAJ  Z  P   1    534 29.65                                   -0.30     42 274 
 CLAJ  N  S   2    534 35.32                                   -0.60     42 274 
 CPVI  Z  P   1    534 30.15                                    0.10     43 289 
 CPVI  N  S   2    534 35.85                                   -0.20     43 289 
 CCHO  Z  P   1    534 29.84                                   -0.20     43 284 
 CCHO  N  S   2    534 35.68                                   -0.40     43 284 
 CNOR  Z  P   1    534 30.36                                    0.10     46 296 
 CNOR  N  S   2    534 36.56                                    0.10     46 296 
 EBAJ  Z  P   1    534 30.11                                   -0.20     46 348 
 EBAJ  N  S   2    534 36.31                                   -0.30     46 348 
 GUIA  Z  P   1    534 30.66                                    0.10     49 285 
 GUIA  N  S   2    534 37.07                                    0.00     49 285 
 CADE  Z  P   1    534 30.14                                   -0.50     49 274 
 CADE  N  S   2    534 36.14                                   -1.00     49 274 
 CDOS  Z  P   1    534 31.12                                    0.20     51 290 
 CDOS  N  S   2    534 38.08                                    0.40     51 290 
 CBOL  Z  P   1    534 32.38                                    0.40     61 289 
 CBOL  N  S   2    534 40.06                                    0.60     61 289 
 CLUM  Z  P   1    534 33.19                                    0.40     68 121 
 CLUM  N  S   2    534 40.74                                   -0.10     68 121 
 CMIR  Z  P   1    534 44.96                                   -0.20    170 292 
 CMIR  N  S   2    535  2.36                                   -0.20    170 292 
 CGIN  N  S   2    535 11.47                                   -0.20    212  87 
                                                                                
 2020  3 2  620 34.1 L  27.970 -16.243 16.3  IGN 110.34 0.8GIGN                1
 ACTION:                   OP:     STATUS:               ID:20200302062034 L   I
 STAT SP IPHASW D HRMM SECON CODA AMPLIT PERI AZIMU VELO AIN AR TRES W  DIS CAZ7
 MACI  Z  P   1    620 41.53                                    0.50     40 320 
 MACI  N  S   2    620 46.89                                    0.60     40 320 
 CGUI  Z  P   1    620 41.28                                   -0.20     43 333 
 CGUI  N  S   2    620 46.49                                   -0.50     43 333 
 CCAN  Z  P   1    620 41.90                                    0.20     46 308 
 CCAN  N  S   2    620 46.97                                   -0.40     46 308 
 CDIE  Z  P   1    620 41.67                                   -0.20     47 318 
 CDIE  N  S   2    620 47.46                                   -0.20     47 318 
 CLAJ  N  S   2    620 48.02                                    0.20     47 296 
 CCHO  Z  P   1    620 41.98                                   -0.50     51 304 
 CCHO  N  S   2    620 48.28                                   -0.40     51 304 
 CPVI  N  S   2    620 48.98                                    0.00     52 308 
 CREA  Z  P   1    620 43.08                                    0.30     53 322 
 CREA  N  S   2    620 49.86                                    0.50     53 322 
 CNOR  N  S   2    620 49.63                                   -0.20     56 313 
 GUIA  Z  P   1    620 42.87                                   -0.20     56 303 
 GUIA  N  S   2    620 49.82                                   -0.00     56 303 
 CBOL  Z  P   1    620 44.98                                    0.20     69 304 
 CBOL  N  S   2    620 52.98                                    0.30     69 304 
                                                                                
 2020  3 2  627 54.2 L  28.533 -15.495 20.0  IGN 150.46 2.1GIGN                1
 ACTION:                   OP:     STATUS:               ID:20200302062754 L   I
 STAT SP IPHASW D HRMM SECON CODA AMPLIT PERI AZIMU VELO AIN AR TRES W  DIS CAZ7
 CLUM  Z  P   1    628  6.71                                    0.50     81 191 
 CLUM  N  S   2    628 15.49                                    0.40     81 191 
 EBAJ  Z  P   1    628  6.91                                    0.50     83 271 
 EBAJ  N  S   2    628 15.78                                    0.10     83 271 
 CGUI  Z  P   1    628  8.62                                    0.60     96 256 
 CGUI  N  S   2    628 18.55                                    0.10     96 256 
 MACI  Z  P   1    628  9.73                                    0.60    104 253 
 MACI  N  S   2    628 20.49                                    0.20    104 253 
 CDIE  Z  P   1    628  9.77                                    0.20    108 256 
 CDIE  N  S   2    628 20.48                                   -0.60    108 256 
 CREA  N  S   2    628 20.90                                   -0.30    108 260 
 CFOR  Z  P   1    628 10.33                                    0.50    110 258 
 CFOR  N  S   2    628 21.41                                   -0.20    110 258 
 CCAN  Z  P   1    628 10.55                                    0.20    114 253 
 CCAN  N  S   2    628 21.80                                   -0.70    114 253 
 CNOR  N  S   2    628 23.59                                    0.60    117 258 
 CCHO  Z  P   1    628 11.33                                    0.20    120 254 
 CCHO  N  S   2    628 23.21                                   -0.60    120 254 
 CTFS  N  S   2    628 23.62                                   -0.60    122 246 
 CLAJ  Z  P   1    628 11.45                                   -0.00    123 250 
 CLAJ  N  S   2    628 23.45                                   -0.90    123 250 
 GUIA  N  S   2    628 24.85                                    0.20    124 256 
 CBOL  Z  P   1    628 12.97                                    0.30    133 260 
 CBOL  N  S   2    628 25.79                                   -0.80    133 260 
 CFTV  Z  P   1    628 13.50                                    0.10    139  95 
 CFTV  N  S   2    628 27.17                                   -0.60    139  95 
 CGIN  Z  P   1    628 14.31                                    0.30    143 104 
 CGIN  N  S   2    628 28.49                                   -0.30    143 104 
 CFUE  Z  P   1    628 15.19                                   -0.00    153  85 
 CFUE  N  S   2    628 30.22                                   -0.70    153  85 
 CDLV  Z  P   1    628 22.70                                    0.10    212  70 
 CDLV  N  S   2    628 44.07                                    0.30    212  70 
                                                                                
 2020  3 2  925 25.0 L  28.078 -16.243 36.5  IGN 100.36 1.3GIGN                1
 ACTION:                   OP:     STATUS:               ID:20200302092524 L   I
 STAT SP IPHASW D HRMM SECON CODA AMPLIT PERI AZIMU VELO AIN AR TRES W  DIS CAZ7
 CGRA  N  S   2    925 37.35                                    0.60     29 275 
 MACI  Z  P   1    925 32.08                                    0.10     32 306 
 MACI  N  S   2    925 37.66                                    0.40     32 306 
 CGUI  N  S   2    925 37.22                                   -0.20     33 324 
 CCAN  Z  P   1    925 32.25                                   -0.40     39 294 
 CCAN  N  S   2    925 37.69                                   -0.70     39 294 
 CLAJ  Z  P   1    925 32.84                                   -0.20     43 282 
 CLAJ  N  S   2    925 38.57                                   -0.60     43 282 
 CCHO  Z  P   1    925 33.45                                    0.20     46 291 
 CPVI  N  S   2    925 39.79                                    0.20     46 297 
 CNOR  Z  P   1    925 33.68                                    0.10     49 303 
 CNOR  N  S   2    925 40.21                                    0.10     49 303 
 GUIA  Z  P   1    925 33.79                                   -0.00     50 292 
 GUIA  N  S   2    925 40.27                                   -0.20     50 292 
 CBOL  Z  P   1    925 35.58                                    0.30     63 295 
 CBOL  N  S   2    925 43.44                                    0.50     63 295 
                                                                                
 2020  3 2 1830 21.5 L  28.101 -16.234 10.4  IGN  80.22 1.1GIGN                1
 ACTION:                   OP:     STATUS:               ID:20200302183021 L   I
 STAT SP IPHASW D HRMM SECON CODA AMPLIT PERI AZIMU VELO AIN AR TRES W  DIS CAZ7
 MACI  N  S   2   1830 31.92                                    0.30     31 302 
 CGUI  Z  P   1   1830 27.20                                   -0.10     32 320 
 CGUI  N  S   2   1830 31.66                                   -0.10     32 320 
 CCAN  Z  P   1   1830 28.00                                   -0.30     39 290 
 CCAN  N  S   2   1830 33.21                                   -0.20     39 290 
 CCHO  N  S   2   1830 34.78                                   -0.10     46 288 
 CPVI  N  S   2   1830 35.33                                    0.40     46 293 
 CNOR  Z  P   1   1830 29.85                                    0.40     48 299 
 CNOR  N  S   2   1830 35.23                                   -0.30     48 299 
 CDOS  N  S   2   1830 36.90                                   -0.00     54 293 
 CLUM  Z  P   1   1830 31.80                                   -0.00     66 119 
 CLUM  N  S   2   1830 39.61                                    0.00     66 119 
                                                                                
 2020  3 2 2036 59.2 L  28.027 -16.260 27.4  IGN  80.27 0.9GIGN                1
 ACTION:                   OP:     STATUS:               ID:20200302203659 L   I
 STAT SP IPHASW D HRMM SECON CODA AMPLIT PERI AZIMU VELO AIN AR TRES W  DIS CAZ7
 MACI  Z  P   1   2037  5.95                                    0.20     34 316 
 MACI  N  S   2   2037 11.32                                    0.60     34 316 
 CGUI  Z  P   1   2037  5.78                                   -0.30     38 331 
 CGUI  N  S   2   2037 10.93                                   -0.30     38 331 
 CCAN  Z  P   1   2037  6.21                                   -0.20     40 303 
 CCAN  N  S   2   2037 11.45                                   -0.40     40 303 
 CDIE  Z  P   1   2037  6.52                                    0.00     41 314 
 CDIE  N  S   2   2037 11.92                                   -0.00     41 314 
 CLAJ  Z  P   1   2037  6.70                                   -0.00     43 289 
 CLAJ  N  S   2   2037 12.29                                   -0.10     43 289 
 CCHO  Z  P   1   2037  6.91                                   -0.20     47 299 
 CCHO  N  S   2   2037 12.79                                   -0.20     47 299 
 CPVI  Z  P   1   2037  7.76                                    0.60     47 304 
 CPVI  N  S   2   2037 13.42                                    0.20     47 304 
 CNOR  Z  P   1   2037  7.54                                   -0.00     50 309 
 CNOR  N  S   2   2037 13.92                                    0.10     50 309 
                                                                                
