 2020  3 9  352 35.0 L  28.536 -17.846 11.1  IGN  50.11 1.2GIGN                1
 ACTION:                   OP:     STATUS:               ID:20200309035234 L   I
 STAT SP IPHASW D HRMM SECON CODA AMPLIT PERI AZIMU VELO AIN AR TRES W  DIS CAZ7
 EHIG  N  S   2    352 38.90                                    0.00      4  59 
 CJED  Z  P   1    352 37.36                                    0.10      6 334 
 CJED  N  S   2    352 39.05                                    0.10      6 334 
 CVIE  Z  P   1    352 37.35                                   -0.00      7  20 
 CVIE  N  S   2    352 38.99                                   -0.20      7  20 
 CBRE  Z  P   1    352 37.82                                   -0.10     11  28 
 CBRE  N  S   2    352 40.29                                    0.20     11  28 
 TBT   N  S   2    352 41.49                                   -0.00     18 337 
                                                                                
 2020  3 9  438 33.3 L  28.035 -16.306 31.6  IGN  70.35 0.9GIGN                1
 ACTION:                   OP:     STATUS:               ID:20200309043833 L   I
 STAT SP IPHASW D HRMM SECON CODA AMPLIT PERI AZIMU VELO AIN AR TRES W  DIS CAZ7
 MACI  Z  P   1    438 39.94                                    0.10     31 320 
 MACI  N  S   2    438 45.32                                    0.60     31 320 
 CGUI  Z  P   1    438 39.73                                   -0.40     34 337 
 CGUI  N  S   2    438 44.88                                   -0.40     34 337 
 CCAN  Z  P   1    438 40.20                                   -0.10     37 305 
 CCAN  N  S   2    438 45.40                                   -0.20     37 305 
 CADE  N  S   2    438 46.90                                   -0.40     46 288 
 CNOR  N  S   2    438 47.94                                    0.40     47 312 
 CBOL  Z  P   1    438 43.31                                    0.30     60 301 
 CLUM  N  S   2    438 52.16                                    0.10     69 110 
                                                                                
 2020  310  0 3 29.9 L  28.138 -16.669  9.5  IGN  70.13 0.4GIGN                1
 ACTION:                   OP:     STATUS:               ID:20200310000329 L   I
 STAT SP IPHASW D HRMM SECON CODA AMPLIT PERI AZIMU VELO AIN AR TRES W  DIS CAZ7
 CLAJ  Z  P   1    0 3 31.94                                    0.20      2 343 
 CLAJ  N  S   2    0 3 33.33                                    0.10      2 343 
 CVIL  Z  P   1    0 3 31.95                                    0.10      3  48 
 CVIL  N  S   2    0 3 33.38                                    0.10      3  48 
 CTFS  Z  P   1    0 3 32.17                                    0.00      7 149 
 CTFS  N  S   2    0 3 33.69                                   -0.10      7 149 
 CADE  Z  P   1    0 3 32.27                                    0.00      8 289 
 CADE  N  S   2    0 3 33.71                                   -0.30      8 289 
 CCHO  Z  P   1    0 3 32.49                                    0.00     10 357 
 CCHO  N  S   2    0 3 34.36                                   -0.00     10 357 
 CCAN  Z  P   1    0 3 32.67                                   -0.00     11  33 
 CCAN  N  S   2    0 3 34.53                                   -0.20     11  33 
 GUIA  N  S   2    0 3 35.32                                    0.10     13 337 
                                                                                
 2020  310  325 44.3 L  28.143 -16.666  9.7  IGN  60.18 0.3GIGN                1
 ACTION:                   OP:     STATUS:               ID:20200310032544 L   I
 STAT SP IPHASW D HRMM SECON CODA AMPLIT PERI AZIMU VELO AIN AR TRES W  DIS CAZ7
 CLAJ  Z  P   1    325 46.41                                    0.20      1 327 
 CLAJ  N  S   2    325 47.75                                    0.10      1 327 
 CVIL  Z  P   1    325 46.46                                    0.20      3  52 
 CVIL  N  S   2    325 47.89                                    0.20      3  52 
 CTFS  Z  P   1    325 46.71                                    0.10      8 154 
 CTFS  N  S   2    325 48.10                                   -0.20      8 154 
 CADE  Z  P   1    325 46.67                                   -0.00      8 284 
 CADE  N  S   2    325 48.19                                   -0.30      8 284 
 CCHO  Z  P   1    325 46.92                                    0.10      9 355 
 CCHO  N  S   2    325 48.81                                    0.10      9 355 
 CCAN  Z  P   1    325 47.03                                   -0.00     11  33 
 CCAN  N  S   2    325 48.68                                   -0.40     11  33 
                                                                                
 2020  310  4 6 39.7 L  28.147 -16.662  9.3  IGN  70.16 0.4GIGN                1
 ACTION:                   OP:     STATUS:               ID:20200310040639 L   I
 STAT SP IPHASW D HRMM SECON CODA AMPLIT PERI AZIMU VELO AIN AR TRES W  DIS CAZ7
 CLAJ  Z  P   1    4 6 41.73                                    0.20      1 308 
 CLAJ  N  S   2    4 6 42.89                                   -0.00      1 308 
 CVIL  Z  P   1    4 6 41.77                                    0.20      2  55 
 CVIL  N  S   2    4 6 43.02                                    0.10      2  55 
 CTFS  Z  P   1    4 6 41.99                                    0.00      8 158 
 CTFS  N  S   2    4 6 43.51                                   -0.20      8 158 
 CADE  Z  P   1    4 6 42.05                                    0.00      8 281 
 CADE  N  S   2    4 6 43.60                                   -0.20      8 281 
 CCHO  Z  P   1    4 6 42.04                                   -0.10      9 353 
 CCHO  N  S   2    4 6 44.12                                    0.20      9 353 
 CCAN  Z  P   1    4 6 42.38                                    0.10     10  33 
 CCAN  N  S   2    4 6 43.88                                   -0.40     10  33 
 GUIA  Z  P   1    4 6 42.55                                   -0.10     12 333 
 GUIA  N  S   2    4 6 44.82                                    0.00     12 333 
                                                                                
 2020  310  634 35.5 L  28.054 -16.268 25.6  IGN 130.24 1.3GIGN                1
 ACTION:                   OP:     STATUS:               ID:20200310063435 L   I
 STAT SP IPHASW D HRMM SECON CODA AMPLIT PERI AZIMU VELO AIN AR TRES W  DIS CAZ7
 CGRA  Z  P   1    634 40.67                                   -0.40     27 282 
 CGRA  N  S   2    634 45.49                                    0.20     27 282 
 MACI  Z  P   1    634 41.92                                    0.20     32 313 
 MACI  N  S   2    634 46.86                                    0.50     32 313 
 CGUI  Z  P   1    634 41.69                                   -0.20     34 330 
 CGUI  N  S   2    634 46.51                                   -0.20     34 330 
 CCAN  Z  P   1    634 42.27                                   -0.10     38 300 
 CCAN  N  S   2    634 47.41                                   -0.10     38 300 
 CDIE  Z  P   1    634 42.20                                   -0.20     39 312 
 CDIE  N  S   2    634 47.68                                    0.10     39 312 
 CLAJ  Z  P   1    634 42.74                                   -0.00     41 286 
 CLAJ  N  S   2    634 48.02                                   -0.20     41 286 
 CCHO  Z  P   1    634 42.84                                   -0.20     44 296 
 CCHO  N  S   2    634 48.41                                   -0.30     44 296 
 CPVI  N  S   2    634 49.27                                    0.40     44 301 
 CNOR  Z  P   1    634 43.42                                   -0.10     48 307 
 CNOR  N  S   2    634 49.17                                   -0.40     48 307 
 GUIA  Z  P   1    634 43.97                                    0.30     49 296 
 GUIA  N  S   2    634 49.87                                    0.10     49 296 
 CDOS  Z  P   1    634 44.24                                    0.10     53 300 
 CDOS  N  S   2    634 50.66                                    0.00     53 300 
 CBOL  Z  P   1    634 45.36                                    0.10     62 298 
 CBOL  N  S   2    634 52.76                                    0.20     62 298 
 CLUM  Z  P   1    634 46.05                                    0.30     66 113 
 CLUM  N  S   2    634 53.24                                   -0.10     66 113 
                                                                                
 2020  310  928 11.4 L  28.151 -16.664  8.3  IGN 130.20 1.2GIGN                1
 ACTION:                   OP:     STATUS:               ID:20200310092811 L   I
 STAT SP IPHASW D HRMM SECON CODA AMPLIT PERI AZIMU VELO AIN AR TRES W  DIS CAZ7
 CLAJ  Z  P   1    928 13.24                                    0.10      1 294 
 CLAJ  N  S   2    928 14.14                                   -0.20      1 294 
 CVIL  Z  P   1    928 13.23                                    0.10      2  67 
 CVIL  N  S   2    928 14.49                                    0.10      2  67 
 CADE  Z  P   1    928 13.56                                   -0.10      8 278 
 CADE  N  S   2    928 15.14                                   -0.20      8 278 
 CTFS  Z  P   1    928 13.53                                   -0.10      8 158 
 CTFS  N  S   2    928 15.14                                   -0.20      8 158 
 CCHO  Z  P   1    928 13.83                                    0.10      8 353 
 CCHO  N  S   2    928 15.64                                    0.20      8 353 
 CCAN  Z  P   1    928 13.86                                   -0.00     10  35 
 CCAN  N  S   2    928 15.62                                   -0.10     10  35 
 GUIA  Z  P   1    928 14.43                                    0.20     12 332 
 GUIA  N  S   2    928 16.55                                    0.30     12 332 
 CGRA  N  S   2    928 17.07                                    0.30     13 113 
 CRAJ  N  S   2    928 16.97                                    0.10     14  28 
 CDOS  Z  P   1    928 15.26                                    0.20     18 335 
 CDOS  N  S   2    928 17.68                                   -0.00     18 335 
 CNOR  Z  P   1    928 14.89                                   -0.20     18   1 
 CNOR  N  S   2    928 17.52                                   -0.30     18   1 
 CDIE  Z  P   1    928 14.74                                   -0.30     18  35 
 CDIE  N  S   2    928 17.53                                   -0.30     18  35 
 MACI  Z  P   1    928 15.34                                    0.10     19  54 
 MACI  N  S   2    928 18.15                                    0.10     19  54 
                                                                                
 2020  310 17 9 14.5 L  28.093 -16.252 29.3  IGN 170.36 1.9GIGN                1
 ACTION:                   OP:     STATUS:               ID:20200310170914 L   I
 STAT SP IPHASW D HRMM SECON CODA AMPLIT PERI AZIMU VELO AIN AR TRES W  DIS CAZ7
 CGRA  N  S   2   17 9 24.88                                   -0.10     28 272 
 CGUI  Z  P   1   17 9 21.04                                    0.20     31 324 
 CGUI  N  S   2   17 9 26.30                                    0.60     31 324 
 CDIE  Z  P   1   17 9 21.52                                    0.10     37 305 
 CDIE  N  S   2   17 9 26.48                                   -0.20     37 305 
 CCAN  Z  P   1   17 9 21.44                                   -0.10     38 293 
 CCAN  N  S   2   17 9 26.19                                   -0.60     38 293 
 CRAJ  Z  P   1   17 9 21.91                                    0.30     39 299 
 CRAJ  N  S   2   17 9 26.94                                   -0.10     39 299 
 CFOR  Z  P   1   17 9 22.04                                    0.10     41 306 
 CFOR  N  S   2   17 9 27.51                                   -0.00     41 306 
 CLAJ  Z  P   1   17 9 22.02                                    0.00     42 280 
 CLAJ  N  S   2   17 9 27.71                                    0.10     42 280 
 CREA  Z  P   1   17 9 21.86                                   -0.30     43 312 
 CREA  N  S   2   17 9 28.15                                    0.30     43 312 
 CCHO  Z  P   1   17 9 22.10                                   -0.10     43 290 
 CCHO  N  S   2   17 9 27.36                                   -0.60     43 290 
 CPVI  Z  P   1   17 9 22.26                                    0.00     44 295 
 CPVI  N  S   2   17 9 28.26                                    0.20     44 295 
 CNOR  Z  P   1   17 9 22.74                                    0.20     47 302 
 CNOR  N  S   2   17 9 29.14                                    0.60     47 302 
 CADE  Z  P   1   17 9 22.41                                   -0.40     49 279 
 CADE  N  S   2   17 9 28.33                                   -0.60     49 279 
 GUIA  Z  P   1   17 9 22.71                                   -0.10     49 291 
 GUIA  N  S   2   17 9 29.32                                    0.30     49 291 
 EBAJ  Z  P   1   17 9 22.44                                   -0.50     50 350 
 EBAJ  N  S   2   17 9 28.69                                   -0.60     50 350 
 CDOS  Z  P   1   17 9 23.43                                    0.20     52 295 
 CDOS  N  S   2   17 9 29.81                                    0.00     52 295 
 CBOL  Z  P   1   17 9 24.69                                    0.40     62 294 
 CBOL  N  S   2   17 9 32.38                                    0.70     62 294 
 CLUM  Z  P   1   17 9 24.42                                   -0.50     67 117 
 CLUM  N  S   2   17 9 33.21                                    0.50     67 117 
                                                                                
 2020  310 19 0  9.6 L  28.118 -16.256 33.4  IGN 200.32 2.0GIGN                1
 ACTION:                   OP:     STATUS:               ID:20200310190009 L   I
 STAT SP IPHASW D HRMM SECON CODA AMPLIT PERI AZIMU VELO AIN AR TRES W  DIS CAZ7
 CGRA  Z  P   1   19 0 16.13                                    0.30     28 266 
 CGRA  N  S   2   19 0 19.98                                   -0.60     28 266 
 MACI  Z  P   1   19 0 16.13                                    0.10     29 301 
 MACI  N  S   2   19 0 21.20                                    0.40     29 301 
 CGUI  Z  P   1   19 0 15.99                                   -0.00     29 321 
 CGUI  N  S   2   19 0 20.79                                   -0.10     29 321 
 CDIE  Z  P   1   19 0 16.38                                   -0.20     34 302 
 CDIE  N  S   2   19 0 21.96                                    0.10     34 302 
 CCAN  Z  P   1   19 0 16.46                                   -0.30     37 289 
 CCAN  N  S   2   19 0 21.80                                   -0.30     37 289 
 CRAJ  Z  P   1   19 0 17.19                                    0.40     37 296 
 CRAJ  N  S   2   19 0 22.66                                    0.40     37 296 
 CTFS  Z  P   1   19 0 16.80                                   -0.00     37 264 
 CTFS  N  S   2   19 0 21.98                                   -0.30     37 264 
 CVIL  Z  P   1   19 0 17.03                                    0.10     38 277 
 CVIL  N  S   2   19 0 22.47                                    0.10     38 277 
 CFOR  Z  P   1   19 0 16.98                                   -0.10     40 303 
 CFOR  N  S   2   19 0 22.99                                    0.30     40 303 
 CREA  Z  P   1   19 0 17.04                                   -0.20     41 309 
 CREA  N  S   2   19 0 23.05                                    0.10     41 309 
 CLAJ  Z  P   1   19 0 16.94                                   -0.30     41 276 
 CLAJ  N  S   2   19 0 22.40                                   -0.60     41 276 
 CCHO  Z  P   1   19 0 17.04                                   -0.30     42 286 
 CCHO  N  S   2   19 0 23.07                                   -0.20     42 286 
 CPVI  Z  P   1   19 0 17.42                                    0.00     42 292 
 CPVI  N  S   2   19 0 23.59                                    0.30     42 292 
 CNOR  Z  P   1   19 0 17.64                                   -0.00     46 299 
 CNOR  N  S   2   19 0 24.04                                    0.30     46 299 
 EBAJ  Z  P   1   19 0 17.39                                   -0.50     48 350 
 EBAJ  N  S   2   19 0 23.65                                   -0.50     48 350 
 GUIA  Z  P   1   19 0 17.75                                   -0.20     48 288 
 GUIA  N  S   2   19 0 24.38                                    0.20     48 288 
 CADE  Z  P   1   19 0 17.37                                   -0.60     48 276 
 CADE  N  S   2   19 0 23.34                                   -0.90     48 276 
 CDOS  Z  P   1   19 0 18.49                                    0.20     51 293 
 CDOS  N  S   2   19 0 25.38                                    0.50     51 293 
 CBOL  Z  P   1   19 0 19.58                                    0.20     60 291 
 CBOL  N  S   2   19 0 27.28                                    0.60     60 291 
 CLUM  Z  P   1   19 0 20.51                                    0.20     68 119 
 CLUM  N  S   2   19 0 28.71                                    0.40     68 119 
                                                                                
 2020  310 2044 17.3 L  28.389 -16.670  9.0  IGN  60.21 0.5GIGN                1
 ACTION:                   OP:     STATUS:               ID:20200310204417 L   I
 STAT SP IPHASW D HRMM SECON CODA AMPLIT PERI AZIMU VELO AIN AR TRES W  DIS CAZ7
 CNOR  Z  P   1   2044 19.54                                   -0.10      9 173 
 CNOR  N  S   2   2044 21.35                                   -0.00      9 173 
 CDOS  Z  P   1   2044 20.03                                   -0.10     12 213 
 CDOS  N  S   2   2044 22.33                                   -0.00     12 213 
 CPVI  Z  P   1   2044 20.53                                    0.10     14 176 
 CPVI  N  S   2   2044 22.91                                    0.20     14 176 
 CDIE  Z  P   1   2044 20.77                                    0.10     16 137 
 GUIA  Z  P   1   2044 21.11                                    0.40     17 198 
 GUIA  N  S   2   2044 23.49                                    0.20     17 198 
 CCHO  Z  P   1   2044 20.58                                   -0.40     18 181 
 CCHO  N  S   2   2044 23.55                                   -0.20     18 181 
                                                                                
