 2007 0103 1200  0.0  E 28.170 -17.109  0.0                                    1
 2007 0103 1200  0.000  28.17020  -17.10940    0.038                           H
 STAT SP IPHASW D HRMM SECON CODA AMPLIT PERI AZIMU VELO AIN AR TRES W  DIS CAZ7
 TV013HZ  P   0   1200  8.64                                                    
                                                                                
 2007 0103 1200  0.0  E 28.171 -17.108  0.0                                    1
 2007 0103 1200  0.000  28.17072  -17.10801    0.040                           H
 STAT SP IPHASW D HRMM SECON CODA AMPLIT PERI AZIMU VELO AIN AR TRES W  DIS CAZ7
 TV003HZ  P   0   1200  8.11                                                    
 TV004HZ  P   0   1200  8.32                                                    
 TV006HZ  P   0   1200  8.71                                                    
 TV007HZ  P   0   1200  8.77                                                    
 TV055HZ  P   0   1200  8.92                                                    
 TV087HZ  P   0   1200  9.23                                                    
 TV075HZ  P   0   1200  9.55                                                    
 TV077HZ  P   0   1200  9.86                                                    

