 2019 1229 1808  6.3 L  36.943-121.546  5.4  NCA 180.16 0.7DNCA                1
 ACTION:REG 20-05-18 12:00 OP:avh  STATUS:               ID:20191229180806     I
 GAP= 47 DIM=  3                                                               3
 STAT SP IPHASW D HRMM SECON CODA AMPLIT PERI AZIMU VELO AIN AR TRES W  DIS CAZ7
 SAO  HZ IP   0 D 1808 10.60                                                    
 CADB EZ IP   1 D 1808 11.50                                                    
 HBH  EZ IP   1 U 1808  8.36                                                    
 HBH  HN ES   2   1808 10.32                                                    
 HCA  EZ IP   0 D 1808  8.97                                                    
 HCBB EZ IP   0 U 1808  8.82                                                    
 HCBB HN ES   2   1808 11.10                                                    
 HCO  EZ IP   0 U 1808  9.65                                                    
 HCRB EZ IP   0 D 1808  7.63                                                    
 HCRB HN ES   2   1808  8.82                                                    
 HES  EZ IP   0 U 1808 10.23                                                    
 HFE  EZ IP   0 U 1808  9.32                                                    
 HFP  EZ IP   0 U 1808 10.32                                                    
 HLP  EZ IP   0 D 1808  9.24                                                    
 HSFB EZ IP   0 D 1808  9.61                                                    
 JELB EZ EP   2   1808 11.39                                                    
 1865 EZ EP   2   1808  9.67                                                    
 B058 E1 IS   1   1808 11.66                                                    
 B058 EZ IP   0 D 1808  9.32                                                    
 B065 EZ IP   0 D 1808 10.49                                                    
 B066 E2 IP   1   1808  8.50                                                    
 B067 EZ IP   0 D 1808  9.82                                                    
                                                                                
 2019 1229 1904 49.1 L  38.814-122.817  2.5  NCA  50.01 0.1DNCA                1
 ACTION:REG 20-05-18 12:00 OP:avh  STATUS:               ID:20191229190449     I
 GAP=148 DIM=  1                                                               3
 STAT SP IPHASW D HRMM SECON CODA AMPLIT PERI AZIMU VELO AIN AR TRES W  DIS CAZ7
 CLV  DZ  P   0 U 1904 50.06                                                    
 DRK  DZ  P   0 D 1904 49.92                                                    
 SB4  DZ  P   2 U 1904 49.74                                                    
 SQK  DZ  P   0 D 1904 49.75                                                    
 GDXB HZ  P   0 U 1904 49.80                                                    
                                                                                
 2019 1229 1907 35.8 L  37.563-118.830  5.3  NCA  90.03 0.5DNCA                1
 ACTION:REG 20-05-18 12:00 OP:avh  STATUS:               ID:20191229190735     I
 GAP=301 DIM=  3                                                               3
 STAT SP IPHASW D HRMM SECON CODA AMPLIT PERI AZIMU VELO AIN AR TRES W  DIS CAZ7
 MLAC HZ IP   1 U 1907 37.97                                                    
 MCB  HZ IP   0 D 1907 38.44                                                    
 MCO  EZ IP   0 D 1907 37.79                                                    
 MCS  EZ EP   2   1907 38.62                                                    
 MCV  EZ IP   0 D 1907 37.26                                                    
 MCV  EZ ES   2   1907 38.49                                                    
 MDR  EZ IP   0 D 1907 38.07                                                    
 MGPB EZ IP   0 D 1907 38.14                                                    
 MLC  EZ IP   0 D 1907 38.06                                                    
 MLH  EZ IP   1 U 1907 38.84                                                    
                                                                                
 2019 1229 1923 55.1 L  40.467-121.545  2.3  NCA  80.03-0.0DNCA                1
 ACTION:REG 20-05-18 12:00 OP:avh  STATUS:               ID:20191229192355     I
 GAP=107 DIM=  2                                                               3
 STAT SP IPHASW D HRMM SECON CODA AMPLIT PERI AZIMU VELO AIN AR TRES W  DIS CAZ7
 DANT HZ EP   2   1924  0.13                                                    
 LDB  EZ EP   2   1923 59.03                                                    
 LDH  HZ IP   0 D 1923 56.64                                                    
 LEL  EZ IP   0 D 1923 56.07                                                    
 LEL  EZ IS   0   1923 56.76                                                    
 LME  EZ EP   2   1923 57.18                                                    
 LRD  EZ IP   1 U 1923 56.76                                                    
 LRR  EZ IP   0 U 1923 56.60                                                    
 LSI  EZ IP   0 U 1923 57.60                                                    
 LSI  EZ ES   2   1923 59.53                                                    
                                                                                
 2019 1229 2007 28.6 L  38.808-122.797  0.9  NCA  50.01 0.5DNCA                1
 ACTION:REG 20-05-18 12:00 OP:avh  STATUS:               ID:20191229200728     I
 GAP= 99 DIM=  0                                                               3
 STAT SP IPHASW D HRMM SECON CODA AMPLIT PERI AZIMU VELO AIN AR TRES W  DIS CAZ7
 FNF  DZ  P   2   2007 29.63                                                    
 HVC  DZ  P   2   2007 29.28                                                    
 NEG  DZ  P   0   2007 29.47                                                    
 SQK  DZ  P   0 D 2007 29.13                                                    
 US1  DZ  P   0   2007 29.45                                                    
 GDXB HZ  P   0 D 2007 28.92                                                    
                                                                                
 2019 1229 2021 30.3 L  37.378-119.028  6.8  NCA 320.05 2.3DNCA                1
 ACTION:REG 20-05-18 12:00 OP:avh  STATUS:               ID:20191229202130     I
 GAP= 95 DIM= 13                                                               3
 STAT SP IPHASW D HRMM SECON CODA AMPLIT PERI AZIMU VELO AIN AR TRES W  DIS CAZ7
 BUCR HZ EP   2   2021 47.51                                                    
 KCC  HN IS   1   2021 38.32                                                    
 KCC  HZ IP   1 U 2021 35.09                                                    
 LEGD HZ IP   0 U 2021 47.33                                                    
 CGO  HZ IP   1 D 2021 53.99                                                    
 CWC  HZ EP   3   2021 52.54                                                    
 GRA  HZ EP   2   2021 57.76                                                    
 MLAC HZ IP   1 U 2021 36.47                                                    
 TIN  HZ IP   1 U 2021 44.01                                                    
 BMS  EZ IP   1 D 2021 59.76                                                    
 HSL  EZ IP   1 D 2022  1.37                                                    
 MCB  HZ IP   1 U 2021 36.38                                                    
 MCO  EZ IP   0 U 2021 36.08                                                    
 MCS  EZ EP   2   2021 36.49                                                    
 MCV  EZ IP   0 U 2021 35.71                                                    
 MCY  EZ EP   2   2021 35.76                                                    
 MDC  EZ IP   1 D 2021 36.94                                                    
 MDH1 D1 IP   1 D 2021 36.75                                                    
 MDR  EZ IP   0 U 2021 36.69                                                    
 MDY  HE ES   2   2021 40.15                                                    
 MDY  HZ EP   2   2021 36.32                                                    
 MEM  EZ IP   1 D 2021 36.57                                                    
 MFB  EZ IP   1 U 2021 40.14                                                    
 MGPB EZ IP   0 U 2021 35.94                                                    
 MGS  EZ IP   1 D 2021 47.08                                                    
 MHD  EZ IP   1 D 2021 44.36                                                    
 MINS HN IS   1   2021 39.90                                                    
 MINS HZ EP   2   2021 35.98                                                    
 MLC  EZ IP   0 U 2021 35.51                                                    
 MLH  EZ IP   1 U 2021 37.56                                                    
 MLI  HN ES   2   2021 40.08                                                    
 MLI  HZ EP   2   2021 35.38                                                    
 MMI  EZ IP   0 U 2021 41.22                                                    
 MMLB HZ EP   2   2021 36.35                                                    
 MMP  EZ IP   1 U 2021 35.24                                                    
 MMS  EZ EP   2   2021 36.75                                                    
 MMT  EZ IP   0 U 2021 33.17                                                    
 MMX1 E1 IP   1 D 2021 35.40                                                    
 MMX1 E2 IS   1   2021 38.78                                                    
 MPR  EZ IP   0 U 2021 46.92                                                    
 MQ1P EN ES   2   2021 38.73                                                    
 MQ1P HZ EP   2   2021 35.23                                                    
 MRC  EZ IP   0 U 2021 40.32                                                    
 MRD  EZ IP   0 D 2021 35.00                                                    
 MTU  EZ IP   0 U 2021 37.68                                                    
 FRI  EZ IP   1 U 2021 42.78                                                    
                                                                                
 2019 1229 2035 53.5 L  37.377-119.026  6.9  NCA 210.05 1.6DNCA                1
 ACTION:REG 20-05-18 12:00 OP:avh  STATUS:               ID:20191229203553     I
 GAP=157 DIM= 14                                                               3
 STAT SP IPHASW D HRMM SECON CODA AMPLIT PERI AZIMU VELO AIN AR TRES W  DIS CAZ7
 KCC  HE IS   1   2036  1.58                                                    
 KCC  HZ IP   0 U 2035 58.35                                                    
 MLAC HZ EP   2   2035 59.69                                                    
 MCB  HZ EP   2   2035 59.67                                                    
 MCO  EZ IP   0 U 2035 59.33                                                    
 MCS  EZ ES   2   2036  3.92                                                    
 MCV  EZ IP   0 U 2035 58.96                                                    
 MDC  EZ IP   1 U 2036  0.21                                                    
 MDH1 D1 EP   3   2035 59.98                                                    
 MDH1 D2 ES   2   2036  3.77                                                    
 MDR  EZ IP   1 U 2035 59.94                                                    
 MEM  EN ES   2   2036  3.98                                                    
 MEM  EZ IP   1 D 2035 59.80                                                    
 MGPB EZ IP   0 U 2035 59.18                                                    
 MHD  EZ EP   2   2036  7.53                                                    
 MINS HN IS   1   2036  3.14                                                    
 MINS HZ IP   1 D 2035 59.23                                                    
 MLC  EZ IP   0 U 2035 58.76                                                    
 MMI  EZ IP   0 U 2036  4.49                                                    
 MMLB HZ IP   1 U 2035 59.63                                                    
 MMP  EZ IP   0 U 2035 58.49                                                    
 MMT  EZ IP   0 U 2035 56.45                                                    
 MMX1 E1 EP   2   2035 58.61                                                    
 MMX1 E2 IS   1   2036  2.04                                                    
 MPR  EZ IP   0 U 2036 10.17                                                    
 MRC  EZ IP   0 U 2036  3.55                                                    
 MRD  EZ IP   1 D 2035 58.24                                                    
 MTU  EZ IP   0 U 2036  0.90                                                    
                                                                                
 2019 1229 2037 47.5 L  38.855-122.820 -0.6  NCA  60.08 0.6DNCA                1
 ACTION:REG 20-05-18 12:00 OP:avh  STATUS:               ID:20191229203747     I
 GAP=247 DIM=  3                                                               3
 STAT SP IPHASW D HRMM SECON CODA AMPLIT PERI AZIMU VELO AIN AR TRES W  DIS CAZ7
 AL2  DZ  P   1 D 2037 49.46                                                    
 AL6  DZ  P   0   2037 49.02                                                    
 BUC  DZ  P   3   2037 47.87                                                    
 CLV  DZ  P   1   2037 48.17                                                    
 FNF  DZ  P   2   2037 49.80                                                    
 SB4  DZ  P   0 D 2037 48.68                                                    
 GDXB HZ  P   1   2037 48.85                                                    
                                                                                
 2019 1229 2038 57.0 L  37.380-119.027  6.4  NCA 230.04 1.6DNCA                1
 ACTION:REG 20-05-18 12:00 OP:avh  STATUS:               ID:20191229203856     I
 GAP=157 DIM= 14                                                               3
 STAT SP IPHASW D HRMM SECON CODA AMPLIT PERI AZIMU VELO AIN AR TRES W  DIS CAZ7
 KCC  HN ES   2   2039  4.99                                                    
 KCC  HZ IP   0 U 2039  1.76                                                    
 LEGD HZ IP   1 U 2039 13.98                                                    
 MLAC HZ EP   3   2039  3.05                                                    
 MCB  HN IS   1   2039  7.28                                                    
 MCB  HZ EP   2   2039  3.06                                                    
 MCO  EZ IP   0 U 2039  2.72                                                    
 MCS  EZ EP   2   2039  3.17                                                    
 MCV  EZ IP   0 U 2039  2.36                                                    
 MCY  EZ IS   1   2039  6.33                                                    
 MDC  EZ EP   2   2039  3.47                                                    
 MDH1 D1 EP   3   2039  3.33                                                    
 MDR  EZ IP   0 U 2039  3.32                                                    
 MEM  EZ EP   2   2039  3.13                                                    
 MFB  EZ IP   1 U 2039  6.78                                                    
 MGPB EZ IP   0 U 2039  2.61                                                    
 MHD  EZ EP   2   2039 10.89                                                    
 MINS HN ES   2   2039  6.53                                                    
 MINS HZ EP   2   2039  2.66                                                    
 MLC  EZ IP   0 U 2039  2.18                                                    
 MLH  EZ IP   1 U 2039  4.23                                                    
 MMI  EZ IP   0 U 2039  7.91                                                    
 MMP  EZ EP   2   2039  1.85                                                    
 MMP  EZ IS   1   2039  5.18                                                    
 MMT  EZ IP   0 U 2038 59.86                                                    
 MMX1 E1 EP   2   2039  2.03                                                    
 MPR  EZ IP   1 U 2039 13.58                                                    
 MRC  EZ IP   0 U 2039  6.95                                                    
 MRD  EZ IP   1 U 2039  1.62                                                    
 MRD  EZ IS   1   2039  4.79                                                    
 MTU  EZ IP   0 U 2039  4.31                                                    
                                                                                
 2019 1229 2049 57.3 L  37.379-119.027  6.7  NCA 220.05 1.6DNCA                1
 ACTION:REG 20-05-18 12:00 OP:avh  STATUS:               ID:20191229204957     I
 GAP=157 DIM= 13                                                               3
 STAT SP IPHASW D HRMM SECON CODA AMPLIT PERI AZIMU VELO AIN AR TRES W  DIS CAZ7
 KCC  HZ IP   0 U 2050  2.05                                                    
 MLAC HZ EP   2   2050  3.27                                                    
 MCB  HZ IP   1 U 2050  3.23                                                    
 MCO  EZ IP   0 U 2050  3.04                                                    
 MCV  EZ IP   0 U 2050  2.68                                                    
 MCY  EZ IP   1 D 2050  2.81                                                    
 MDC  EZ IP   1 D 2050  3.92                                                    
 MDR  EZ IP   0 U 2050  3.63                                                    
 MEM  EZ IP   1 D 2050  3.50                                                    
 MGPB EZ IP   0 U 2050  2.92                                                    
 MHD  EZ IP   1 U 2050 11.20                                                    
 MINS HZ IP   0 D 2050  2.95                                                    
 MLC  EZ IP   1 U 2050  2.47                                                    
 MLH  EZ IP   0 U 2050  4.55                                                    
 MMI  EZ IP   0 U 2050  8.21                                                    
 MMLB HZ IP   1 U 2050  3.04                                                    
 MMP  EZ IP   0 U 2050  2.22                                                    
 MMT  EZ IP   0 U 2050  0.17                                                    
 MMX1 E1 EP   2   2050  2.71                                                    
 MMX1 E2 IS   1   2050  5.77                                                    
 MPR  EZ IP   0 U 2050 13.89                                                    
 MRC  EZ IP   0 U 2050  7.27                                                    
 MRD  EZ IP   0 U 2050  1.94                                                    
 MTU  EZ IP   0 U 2050  4.66                                                    
                                                                                
