 2019 1230 0416 40.1 L  36.653-121.275  5.8  NCA 570.10 2.6DNCA                1
 ACTION:REG 20-05-18 12:00 OP:avh  STATUS:               ID:20191230041640     I
 GAP= 66 DIM=  6                                                               3
 STAT SP IPHASW D HRMM SECON CODA AMPLIT PERI AZIMU VELO AIN AR TRES W  DIS CAZ7
 FORD HN ES   2   0416 54.63                                                    
 FORD HZ IP   1 U 0416 48.21                                                    
 HULI HZ IP   0 D 0416 52.08                                                    
 JRSC HZ IP   1 U 0416 59.34                                                    
 LCUV HZ EP   2   0416 59.86                                                    
 LEGD HZ IP   1 U 0416 59.89                                                    
 MHC  HZ EP   2   0416 55.19                                                    
 MTOS HZ IP   0 D 0416 57.46                                                    
 PKD  HZ EP   2   0416 57.17                                                    
 RAMR HZ IP   1 D 0416 59.98                                                    
 SAO  HZ IP   0 U 0416 43.74                                                    
 SCZ  HN ES   2   0416 44.32                                                    
 SCZ  HZ IP   0 U 0416 42.54                                                    
 TCHL HZ EP   2   0417  2.17                                                    
 WINE HZ IP   1 U 0417  0.94                                                    
 CCRB D1 IP   1 U 0416 56.77                                                    
 EADB D1 EP   2   0416 59.07                                                    
 FROB D1 IP   1 D 0416 58.31                                                    
 GHIB D1 EP   2   0417  0.25                                                    
 JCNB D1 EP   3   0416 59.13                                                    
 JCSB D1 EP   2   0416 58.93                                                    
 LCCB D1 EP   2   0416 57.43                                                    
 MMNB D1 IP   1 U 0416 57.74                                                    
 SMNB D1 EP   2   0416 56.22                                                    
 VCAB D1 IP   1 U 0416 57.48                                                    
 47236HZ IP   0 D 0416 42.70                                                    
 47499HE ES   2   0416 47.48                                                    
 47499HZ IP   1 D 0416 44.22                                                    
 47508HE ES   2   0416 51.38                                                    
 47508HZ IP   0 D 0416 46.55                                                    
 57383HZ IP   1 U 0416 49.11                                                    
 BBGB HN ES   2   0416 49.44                                                    
 BBGB HZ IP   0 D 0416 45.21                                                    
 BCC  EZ IP   0 U 0416 47.78                                                    
 BHW  EZ IP   0 D 0416 45.85                                                    
 BJC  EZ IP   0 U 0416 42.97                                                    
 BJF  EZ IP   0 D 0416 47.52                                                    
 BJOB EN ES   2   0416 42.79                                                    
 BJOB EZ IP   0 U 0416 41.68                                                    
 BKC  EZ IP   0 U 0416 46.01                                                    
 BMS  EZ IP   0 U 0416 48.62                                                    
 BPE  HZ IP   1 D 0416 46.14                                                    
 BPRB EZ IP   0 U 0416 48.59                                                    
 BPV  EZ IP   0 D 0416 42.65                                                    
 BRV  EZ IP   0 D 0416 46.54                                                    
 BSG  EZ IP   0 U 0416 44.62                                                    
 BSM  EZ IP   0 D 0416 46.03                                                    
 BSR  EZ IP   0 U 0416 44.04                                                    
 BTV  EZ IP   0 D 0416 45.68                                                    
 BVLB EZ IP   0 D 0416 42.70                                                    
 CADB EZ EP   2   0416 52.01                                                    
 CAO  EZ EP   2   0416 54.69                                                    
 CAP  EZ EP   3   0416 58.64                                                    
 CCOB EN ES   2   0417  6.48                                                    
 CCOB EZ IP   1 U 0416 54.60                                                    
 CDG  EZ EP   2   0416 55.09                                                    
 CMLP EZ IP   1 U 0416 57.78                                                    
 CMM  EZ IP   1 D 0416 56.52                                                    
 CMP  EZ IP   1 U 0416 54.90                                                    
 CMW  HZ EP   2   0416 59.10                                                    
 CNI  EZ EP   2   0417  0.31                                                    
 CSTC EZ IP   1 D 0416 59.74                                                    
 CVL  EZ IP   1 D 0417  0.97                                                    
 HCA  EZ IP   0 D 0416 49.04                                                    
 HCBB EZ EP   3   0416 49.10                                                    
 HCO  EZ IP   1 U 0416 48.38                                                    
 HCRB EZ EP   2   0416 48.44                                                    
 HER  EZ IP   0 U 0416 47.68                                                    
 HES  EZ IP   0 U 0416 48.37                                                    
 HFE  EZ IP   0 D 0416 47.72                                                    
 HFP  EZ IP   0 D 0416 44.07                                                    
 HLO  HZ IP   0 D 0416 46.04                                                    
 HLP  EZ IP   1 U 0416 50.03                                                    
 HMOB EZ IP   0 U 0416 50.11                                                    
 HPC  EZ IP   0 D 0416 48.86                                                    
 HSFB EZ IP   1 U 0416 45.24                                                    
 HSL  EZ IP   1 D 0416 48.93                                                    
 JAR  EZ IP   1 U 0416 53.31                                                    
 JBNB EZ IP   1 D 0416 55.93                                                    
 JELB EZ EP   2   0416 50.51                                                    
 JPE  EZ IP   1 D 0416 58.40                                                    
 MHD  EZ IP   1 U 0417  1.70                                                    
 PBC  EZ IP   0 U 0416 48.53                                                    
 PCC  HZ IP   1 D 0416 51.17                                                    
 PCE  EZ IP   1 U 0416 59.57                                                    
 PHP  EZ EP   3   0416 56.12                                                    
 PKL  EZ IP   1 D 0417  1.51                                                    
 PMPB HZ IP   1 D 0416 51.30                                                    
 PPO  EZ EP   2   0416 58.09                                                    
 PPT  EZ EP   2   0416 53.40                                                    
 PSAB EZ IP   0 D 0416 53.29                                                    
 PSM  EZ IP   1 D 0416 55.56                                                    
 PST  EZ IP   1 U 0416 57.75                                                    
 PVC  EZ IP   1 U 0416 57.78                                                    
 1575 HZ IP   1 U 0416 45.87                                                    
 1865 EZ IP   0 D 0416 46.24                                                    
 B058 EZ IP   0 U 0416 45.58                                                    
 B065 EZ IP   0 U 0416 43.80                                                    
 B066 E2 IP   1   0416 46.53                                                    
 B067 EZ IP   0 U 0416 45.05                                                    
 B072 EZ EP   2   0417  0.43                                                    
 B073 EZ IP   1 U 0416 58.31                                                    
 B076 EZ EP   2   0416 58.91                                                    
 B078 EZ IP   1 U 0417  0.39                                                    
 B079 EZ EP   2   0417  3.37                                                    
 CSD  EZ IP   1 D 0416 59.94                                                    
 SCK  EZ EP   2   0416 52.09                                                    
 SPR  EZ IP   1 D 0416 50.35                                                    
                                                                                
 2019 1230 0601  5.3 L  38.754-122.720  1.8  NCA  80.01 0.8DNCA                1
 ACTION:REG 20-05-18 12:00 OP:avh  STATUS:               ID:20191230060105     I
 GAP=167 DIM=  2                                                               3
 STAT SP IPHASW D HRMM SECON CODA AMPLIT PERI AZIMU VELO AIN AR TRES W  DIS CAZ7
 DES  DZ  P   1 D 0601  5.94                                                    
 FNF  DZ  P   1   0601  6.25                                                    
 HBW  DZ  P   2   0601  8.47                                                    
 HVC  DZ  P   3   0601  7.65                                                    
 LCK  DZ  P   2   0601  6.97                                                    
 PFR  DZ  P   0 U 0601  5.92                                                    
 TCH  DZ  P   0 D 0601  6.19                                                    
 GAXB EZ  P   1   0601  6.40                                                    
 GDXB HZ  P   0 D 0601  7.19                                                    
                                                                                
 2019 1230 0607 49.0 L  38.816-122.812  1.4  NCA 100.03 0.3DNCA                1
 ACTION:REG 20-05-18 12:00 OP:avh  STATUS:               ID:20191230060748     I
 GAP=128 DIM=  1                                                               3
 STAT SP IPHASW D HRMM SECON CODA AMPLIT PERI AZIMU VELO AIN AR TRES W  DIS CAZ7
 AL2  DZ  P   3   0607 50.27                                                    
 BUC  DZ  P   2   0607 48.70                                                    
 CLV  DZ  P   0 D 0607 49.74                                                    
 DRK  DZ  P   1 D 0607 49.69                                                    
 FNF  DZ  P   1 D 0607 50.26                                                    
 HVC  DZ  P   0   0607 49.93                                                    
 NEG  DZ  P   0 D 0607 50.02                                                    
 SB4  DZ  P   0 U 0607 49.47                                                    
 SQK  DZ  P   0 U 0607 49.40                                                    
 US1  DZ  P   2   0607 48.73                                                    
 US3  DZ  P   0   0607 49.66                                                    
 GBG  EZ  P   2   0607 51.87                                                    
 GDXB HZ  P   0 U 0607 49.48                                                    
 GGPC EZ  P   0 D 0607 50.33                                                    
                                                                                
 2019 1230 0625 40.4 L  36.117-117.865  3.8  NCA  90.09 2.6DNCA                1
 ACTION:REG 20-05-18 12:00 OP:avh  STATUS:               ID:20191230062540     I
 GAP=171 DIM=  1                                                               3
 STAT SP IPHASW D HRMM SECON CODA AMPLIT PERI AZIMU VELO AIN AR TRES W  DIS CAZ7
 LIND HZ  P   1 U 0625 59.11                                                    
 JCNB D1  P   3   0626 12.76                                                    
 CCC  HZ  P   1 U 0625 54.37                                                    
 CWC  HZ  P   2   0625 48.07                                                    
 ISA  HZ  P   3   0625 53.31                                                    
 SPG2 HZ  P   0 U 0625 54.43                                                    
 SRT  HZ  P   0 U 0625 49.25                                                    
 VOG  HZ  P   1 D 0626  4.03                                                    
 WAS2 HZ  P   0 U 0625 53.55                                                    
 WCS2 HZ  P   0 U 0625 42.96                                                    
 WMF  HZ  P   0 D 0625 41.41                                                    
 WNM  EZ  P   2 U 0625 45.77                                                    
 WOR  HZ  P   1   0625 50.25                                                    
                                                                                
 2019 1230 0715 21.3 L  38.819-122.802  3.2  NCA  60.02 0.1DNCA                1
 ACTION:REG 20-05-18 12:00 OP:avh  STATUS:               ID:20191230071521     I
 GAP=124 DIM=  1                                                               3
 STAT SP IPHASW D HRMM SECON CODA AMPLIT PERI AZIMU VELO AIN AR TRES W  DIS CAZ7
 AL6  DZ  P   3   0715 22.36                                                    
 CLV  DZ  P   0 U 0715 22.26                                                    
 FNF  DZ  P   0 D 0715 22.70                                                    
 MCL  DZ  P   0   0715 22.55                                                    
 SQK  DZ  P   0 D 0715 22.11                                                    
 US1  DZ  P   2   0715 22.40                                                    
 GDXB HZ  P   1   0715 22.20                                                    
                                                                                
 2019 1230 0718  7.7 L  37.479-118.822  3.8  NCA 140.03 0.4DNCA                1
 ACTION:REG 20-05-18 12:00 OP:avh  STATUS:               ID:20191230071807     I
 GAP=250 DIM= 12                                                               3
 STAT SP IPHASW D HRMM SECON CODA AMPLIT PERI AZIMU VELO AIN AR TRES W  DIS CAZ7
 MLAC HZ IP   0 U 0718 11.28                                                    
 MCB  HZ IP   1 D 0718 11.75                                                    
 MCO  EZ IP   0 D 0718 11.02                                                    
 MCS  EZ IP   1 U 0718 12.00                                                    
 MCV  EZ IP   0 D 0718 10.30                                                    
 MDPB HZ IP   0 D 0718 12.99                                                    
 MDR  EZ IP   0 D 0718 11.42                                                    
 MGPB EZ IP   0 D 0718 11.38                                                    
 MINS HZ IP   0 D 0718 13.03                                                    
 MLC  EZ IP   0 D 0718 11.15                                                    
 MLH  EZ IP   0 D 0718 12.25                                                    
 MMP  EZ IP   0 D 0718 12.14                                                    
 MMT  EZ IP   1 U 0718 13.78                                                    
 MMX1 H2 ES   2   0718 14.25                                                    
 MMX1 H3 IP   1 D 0718 11.49                                                    
                                                                                
 2019 1230 0836 45.2 L  38.836-122.801  1.9  NCA 110.01 0.6DNCA                1
 ACTION:REG 20-05-18 12:00 OP:avh  STATUS:               ID:20191230083645     I
 GAP= 69 DIM=  1                                                               3
 STAT SP IPHASW D HRMM SECON CODA AMPLIT PERI AZIMU VELO AIN AR TRES W  DIS CAZ7
 AL3  DZ  P   3   0836 46.30                                                    
 AL5  DZ  P   0 D 0836 46.44                                                    
 BRP  DZ  P   1 D 0836 45.86                                                    
 BUC  DZ  P   0   0836 46.07                                                    
 CLV  DZ  P   0 D 0836 45.77                                                    
 HBW  DZ  P   2   0836 45.36                                                    
 HVC  DZ  P   0 U 0836 45.83                                                    
 MCL  DZ  P   0 D 0836 46.01                                                    
 NEG  DZ  P   0 U 0836 45.99                                                    
 RGP  DZ  P   0 D 0836 46.26                                                    
 SQK  DZ  P   0 U 0836 45.78                                                    
 GDXB HZ  P   1   0836 45.98                                                    
 OSU  EZ  P   1 D 0837  1.65                                                    
                                                                                
 2019 1230 0853 56.1 L  35.676-117.555 13.3  NCA  70.03 2.0DNCA                1
 ACTION:REG 20-05-18 12:00 OP:avh  STATUS:               ID:20191230085356     I
 GAP=159 DIM= 18                                                               3
 STAT SP IPHASW D HRMM SECON CODA AMPLIT PERI AZIMU VELO AIN AR TRES W  DIS CAZ7
 CCC  HZ  P   0 U 0854  1.06                                                    
 DTP  HZ  P   2 D 0854  5.21                                                    
 LRL  HZ  P   0 D 0854  0.99                                                    
 SRT  HZ  P   0 U 0854  0.28                                                    
 WCS2 HZ  P   1   0854  3.80                                                    
 WNM  EZ  P   2 U 0854  2.81                                                    
 WOR  HZ  P   0 U 0854  6.82                                                    
                                                                                
