 2019 1229 2114 11.8 L  38.745-122.700  0.9  NCA  50.01 0.6DNCA                1
 ACTION:REG 20-05-18 12:00 OP:avh  STATUS:               ID:20191229211411     I
 GAP=142 DIM=  3                                                               3
 STAT SP IPHASW D HRMM SECON CODA AMPLIT PERI AZIMU VELO AIN AR TRES W  DIS CAZ7
 BUC  DZ  P   3   2114 14.19                                                    
 DES  DZ  P   0 D 2114 12.35                                                    
 FNF  DZ  P   0 D 2114 13.13                                                    
 MNS  DZ  P   3   2114 11.40                                                    
 GAXB EZ  P   0 U 2114 13.04                                                    
 GBG  EZ  P   0   2114 13.63                                                    
 GDXB HZ  P   1   2114 14.53                                                    
 NLB  EZ  P   2 D 2114 14.45                                                    
                                                                                
 2019 1229 2115  3.5 L  38.792-122.748  1.2  NCA  90.03 0.6DNCA                1
 ACTION:REG 20-05-18 12:00 OP:avh  STATUS:               ID:20191229211503     I
 GAP= 89 DIM=  1                                                               3
 STAT SP IPHASW D HRMM SECON CODA AMPLIT PERI AZIMU VELO AIN AR TRES W  DIS CAZ7
 DES  DZ  P   0 D 2115  4.47                                                    
 DRK  DZ  P   0   2115  4.55                                                    
 FNF  DZ  P   0 U 2115  4.14                                                    
 NEG  DZ  P   0 D 2115  4.58                                                    
 PFR  DZ  P   2 D 2115  4.44                                                    
 TCH  DZ  P   0 D 2115  3.98                                                    
 GAXB EZ  P   2 U 2115  5.23                                                    
 GBG  EZ  P   0 U 2115  5.03                                                    
 GDXB HZ  P   0 U 2115  4.45                                                    
 NOLB EZ  P   2 D 2115 16.66                                                    
                                                                                
 2019 1229 2119 50.1 L  37.561-122.375  8.1  NCA 170.07 1.2DNCA                1
 ACTION:REG 20-05-18 12:00 OP:avh  STATUS:               ID:20191229211950     I
 GAP=113 DIM=  5                                                               3
 STAT SP IPHASW D HRMM SECON CODA AMPLIT PERI AZIMU VELO AIN AR TRES W  DIS CAZ7
 JRSC HZ IP   1 U 2119 54.53                                                    
 OXMT E1 IP   0 U 2119 52.34                                                    
 OXMT E2 ES   2   2119 53.73                                                    
 SBRN E2 IP   0   2119 53.19                                                    
 CAG  EZ IP   1 U 2119 56.66                                                    
 CYB  EZ IP   1 U 2119 55.50                                                    
 JCH  EZ IP   0 U 2119 52.04                                                    
 JCH  HN ES   2   2119 53.30                                                    
 JFP  EZ EP   2   2119 55.54                                                    
 JGR  EZ IP   0 D 2119 52.54                                                    
 JMGB EZ IP   1 D 2119 53.02                                                    
 JMGB HE ES   2   2119 54.88                                                    
 JPE  EZ IP   1 U 2119 56.61                                                    
 JSA  EZ IP   0 D 2119 52.02                                                    
 JSA  HN ES   2   2119 53.38                                                    
 JSB  EZ IP   1 U 2119 53.02                                                    
 JSP  EZ IP   0 D 2119 52.90                                                    
 NCC  EZ IP   1 D 2119 59.63                                                    
 NCT  EZ IP   1 D 2119 59.77                                                    
 NHF  EZ EP   3   2120  0.50                                                    
 1003 HZ IP   0 U 2119 52.72                                                    
 1752 HE IS   1   2119 55.33                                                    
 1752 HZ IP   1 D 2119 53.10                                                    
 1801 HZ EP   2   2119 52.82                                                    
 B054 EZ IP   0 U 2119 57.15                                                    
 B057 EZ EP   2   2120  0.25                                                    
                                                                                
 2019 1229 2119 50.4 L  35.282-118.538  8.6  NCA 120.06 2.3DNCA                1
 ACTION:REG 20-05-18 12:00 OP:avh  STATUS:               ID:20191229211950     I
 GAP= 95 DIM= 15                                                               3
 STAT SP IPHASW D HRMM SECON CODA AMPLIT PERI AZIMU VELO AIN AR TRES W  DIS CAZ7
 AL1  DZ  P   2   2121  8.71                                                    
 BRP  DZ  P   0   2121 11.60                                                    
 CLV  DZ  P   1 U 2121  1.52                                                    
 PFR  DZ  P   3   2121  3.70                                                    
 TCH  DZ  P   3 D 2121  5.23                                                    
 JCNB D1  P   3   2120 17.38                                                    
 ARV  HZ  P   0 U 2119 56.30                                                    
 CAR  HZ  P   1 U 2120 10.49                                                    
 DTP  HZ  P   0 U 2120  1.31                                                    
 GRA  HZ  P   0   2120 26.83                                                    
 ISA  HZ  P   0 D 2119 57.84                                                    
 LCP  HZ  P   2 U 2120 13.80                                                    
 LDR  HZ  P   0 D 2119 56.98                                                    
 LMY  HZ  P   1 D 2120  4.04                                                    
 SRT  HZ  P   0 U 2120  5.13                                                    
 TEJ  EZ  P   0 U 2119 53.44                                                    
 THC  EZ  P   1 D 2119 57.84                                                    
 TJR  EZ  P   1 U 2119 56.44                                                    
 WNM  EZ  P   2 D 2120  4.71                                                    
 WOR  HZ  P   3 D 2119 59.66                                                    
 BSM  EZ  P   2   2120 36.10                                                    
                                                                                
 2019 1229 2216 37.6 L  37.940-122.069 10.6  NCA 220.07 1.1DNCA                1
 ACTION:REG 20-05-18 12:00 OP:avh  STATUS:               ID:20191229221637     I
 GAP= 92 DIM=  8                                                               3
 STAT SP IPHASW D HRMM SECON CODA AMPLIT PERI AZIMU VELO AIN AR TRES W  DIS CAZ7
 BDM  HZ IP   1 U 2216 41.90                                                    
 BKS  HE ES   2   2216 44.30                                                    
 BKS  HZ IP   0 D 2216 41.61                                                    
 BRIB HN IS   1   2216 42.21                                                    
 BRIB HZ IP   0 D 2216 40.28                                                    
 BRK  HZ EP   3   2216 41.87                                                    
 OAKV HZ EP   2   2216 48.90                                                    
 OHLN E2 EP   2   2216 41.94                                                    
 SM2B C1 IP   0 U 2216 40.86                                                    
 SM2B C2 IS   1   2216 43.22                                                    
 VAK  HZ EP   3   2216 41.77                                                    
 CBR  EE ES   2   2216 44.05                                                    
 CBR  EZ IP   1 U 2216 41.41                                                    
 CMOB EZ IP   1 U 2216 43.57                                                    
 CNI  EZ IP   1 U 2216 45.28                                                    
 CPI  EZ IP   0 U 2216 41.43                                                    
 CRH  EZ IP   0 U 2216 41.01                                                    
 CRPB HZ EP   2   2216 40.88                                                    
 CSL  EZ EP   2   2216 43.04                                                    
 CSPB EZ EP   2   2216 42.66                                                    
 CTA  EZ IP   1 D 2216 41.09                                                    
 JMGB EZ EP   2   2216 46.69                                                    
 JSA  EZ IP   1 D 2216 46.92                                                    
 NCC  EZ EP   3   2216 44.49                                                    
 NCT  EZ IP   1 U 2216 46.47                                                    
 NHF  EZ IP   1 U 2216 45.37                                                    
 B054 E2 IS   1   2216 43.92                                                    
 B054 EZ IP   0 D 2216 41.31                                                    
 B057 EZ EP   3   2216 45.74                                                    
                                                                                
 2019 1229 2237 40.7 L  38.838-122.828  1.0  NCA 180.03 0.9DNCA                1
 ACTION:REG 20-05-18 12:00 OP:avh  STATUS:               ID:20191229223740     I
 GAP= 78 DIM=  2                                                               3
 STAT SP IPHASW D HRMM SECON CODA AMPLIT PERI AZIMU VELO AIN AR TRES W  DIS CAZ7
 AL3  DZ  P   0 U 2237 41.38                                                    
 AL5  DZ  P   0 D 2237 41.47                                                    
 AL6  DZ  P   0 U 2237 41.84                                                    
 BRP  DZ  P   2   2237 41.17                                                    
 BUC  DZ  P   0 U 2237 41.25                                                    
 CLV  DZ  P   0 U 2237 41.48                                                    
 FNF  DZ  P   2   2237 41.36                                                    
 HBW  DZ  P   0   2237 41.79                                                    
 HVC  DZ  P   2   2237 41.32                                                    
 LCK  DZ  P   2   2237 40.77                                                    
 MCL  DZ  P   0 D 2237 40.28                                                    
 NEG  DZ  P   0 D 2237 41.87                                                    
 RGP  DZ  P   0 D 2237 41.68                                                    
 SB4  DZ  P   0 U 2237 41.40                                                    
 SQK  DZ  P   0 U 2237 41.27                                                    
 US1  DZ  P   0 D 2237 41.81                                                    
 US3  DZ  P   0 U 2237 41.51                                                    
 GAXB EZ  P   1 D 2237 43.61                                                    
 GBG  EZ  P   1   2237 43.46                                                    
 GDXB HZ  P   0 U 2237 41.67                                                    
 GGPC EZ  P   0 U 2237 42.36                                                    
 GPM  EZ  P   1 D 2237 43.01                                                    
 GSG  EZ  P   1 D 2237 43.36                                                    
 NOLB EZ  P   2 U 2237 56.69                                                    
                                                                                
 2019 1229 2239 57.9 L  35.676-117.501 11.3  NCA  60.01 1.9DNCA                1
 ACTION:REG 20-05-18 12:00 OP:avh  STATUS:               ID:20191229223957     I
 GAP=174 DIM= 21                                                               3
 STAT SP IPHASW D HRMM SECON CODA AMPLIT PERI AZIMU VELO AIN AR TRES W  DIS CAZ7
 AL1  DZ  P   1   2241 19.68                                                    
 VARB D1  P   3 D 2240 30.67                                                    
 CCC  HZ  P   0 U 2240  2.23                                                    
 LMY  HZ  P   2   2240 22.48                                                    
 LRL  HZ  P   0 U 2240  3.10                                                    
 SHO  HZ  P   2 U 2240 17.27                                                    
 SRT  HZ  P   0 U 2240  2.60                                                    
 WCS2 HZ  P   3   2240  6.08                                                    
 WNM  EZ  P   1 U 2240  5.20                                                    
 WOR  HZ  P   2 D 2240  9.38                                                    
 BLR  EZ  P   1 D 2240 53.69                                                    
 JBMB EZ  P   2   2240 57.68                                                    
 LRB  EZ  P   2 U 2241 24.46                                                    
 PHOB EZ  P   3   2240 37.85                                                    
                                                                                
 2019 1229 2240 18.2 L  38.839-122.827  1.1  NCA  60.00 0.9DNCA                1
 ACTION:REG 20-05-18 12:00 OP:avh  STATUS:               ID:20191229224018     I
 GAP=166 DIM=  2                                                               3
 STAT SP IPHASW D HRMM SECON CODA AMPLIT PERI AZIMU VELO AIN AR TRES W  DIS CAZ7
 BUC  DZ  P   0 U 2240 18.78                                                    
 MCL  DZ  P   0 D 2240 18.77                                                    
 RGP  DZ  P   0   2240 19.22                                                    
 SB4  DZ  P   0 U 2240 18.94                                                    
 SQK  DZ  P   0 U 2240 18.80                                                    
 GDXB HZ  P   3 D 2240 19.24                                                    
                                                                                
 2019 1229 2248 18.9 L  36.553-121.139  8.8  NCA 110.08 1.2DNCA                1
 ACTION:REG 20-05-18 12:00 OP:avh  STATUS:               ID:20191229224818     I
 GAP=128 DIM=  4                                                               3
 STAT SP IPHASW D HRMM SECON CODA AMPLIT PERI AZIMU VELO AIN AR TRES W  DIS CAZ7
 SAO  HZ IP   1 U 2248 25.82                                                    
 SCZ  HZ IP   1 U 2248 23.33                                                    
 JCNB D1  P   2   2248 36.00                                                    
 47236HE IS   1   2248 22.32                                                    
 47236HZ IP   1 D 2248 20.87                                                    
 BBGB HE IS   1   2248 24.68                                                    
 BBGB HZ  P   0 D 2248 22.06                                                    
 BHW  EZ IP   0 U 2248 24.18                                                    
 BJF  EZ IP   0 D 2248 25.62                                                    
 BJOB EN ES   2   2248 24.70                                                    
 BJOB EZ IP   0 D 2248 22.32                                                    
 BMS  EZ IP   0 D 2248 25.89                                                    
 BPV  EZ EP   2   2248 24.09                                                    
 BSG  EZ IP   0 U 2248 22.18                                                    
 BTV  EZ IP   0 U 2248 21.96                                                    
 BVLB EZ  P   0   2248 20.86                                                    
 PBC  EZ IP   1 U 2248 24.38                                                    
 B058 EZ EP   2   2248 27.52                                                    
 B065 EZ EP   2   2248 25.61                                                    
 B067 EZ EP   2   2248 27.12                                                    
                                                                                
 2019 1229 2300 21.3 L  37.557-118.827  6.0  NCA 220.02 1.1DNCA                1
 ACTION:REG 20-05-18 12:00 OP:avh  STATUS:               ID:20191229230021     I
 GAP=104 DIM=  4                                                               3
 STAT SP IPHASW D HRMM SECON CODA AMPLIT PERI AZIMU VELO AIN AR TRES W  DIS CAZ7
 KCC  HZ EP   2   2300 29.96                                                    
 MLAC HZ EP   2   2300 23.54                                                    
 MBS1 E2 EP   2   2300 26.00                                                    
 MCB  HZ EP   2   2300 24.02                                                    
 MCO  EZ IP   0 D 2300 23.44                                                    
 MCS  EZ IP   0 D 2300 24.26                                                    
 MCV  EZ IP   0 D 2300 22.90                                                    
 MDC  EZ IP   1 U 2300 26.09                                                    
 MDH1 D1 EP   2   2300 24.12                                                    
 MDR  EZ IP   1 D 2300 23.72                                                    
 MEM  EN IS   1   2300 27.02                                                    
 MEM  EZ IP   0 D 2300 24.66                                                    
 MGPB EZ IP   0 D 2300 23.79                                                    
 MINS HE ES   2   2300 28.56                                                    
 MINS HZ IP   1 D 2300 25.63                                                    
 MLC  EZ IP   0 D 2300 23.67                                                    
 MLH  EZ IP   0 D 2300 24.46                                                    
 MMLB HZ IP   1 D 2300 24.98                                                    
 MMP  EZ EP   2   2300 24.98                                                    
 MMT  EZ IP   0 U 2300 27.90                                                    
 MMX1 H3 IP   0 D 2300 24.07                                                    
 MQ1P EZ IP   1 D 2300 24.88                                                    
 MRC  EZ IP   0 U 2300 27.00                                                    
 MRD  EZ IP   1 U 2300 25.36                                                    
 MTU  EZ IP   0 D 2300 27.17                                                    
                                                                                
