 2019 1229 0152 17.8 LE 38.151-118.581  2.3  NCA 110.55 1.6DNCA                1
 ACTION:REG 20-05-18 12:00 OP:avh  STATUS:               ID:20191229015217     I
 GAP=239 DIM= 63                                                               3
 STAT SP IPHASW D HRMM SECON CODA AMPLIT PERI AZIMU VELO AIN AR TRES W  DIS CAZ7
 JCNB D1  P   1 U 0152 54.63                                                    
 BAK  HZ  P   2 D 0153  7.52                                                    
 GRA  HZ  P   1 D 0152 45.46                                                    
 CTA  EZ  P   0 D 0152 55.80                                                    
 JGR  EZ  P   2   0153  8.69                                                    
 JPL  EZ  P   1 U 0153  1.74                                                    
 MCB  HZ  P   1 D 0152 29.22                                                    
 MDPB HZ  P   0 D 0152 29.74                                                    
 MDY  HZ  P   0 D 0152 29.31                                                    
 MINS HZ  P   0 D 0152 29.32                                                    
 MMLB HZ  P   2 D 0152 29.07                                                    
 MMP  EZ  P   0 U 0152 30.05                                                    
 MOD  HZ  P   2 D 0152 52.15                                                    
                                                                                
 2019 1229 0201 54.4 L  36.586-121.180  3.0  NCA 320.07 1.8DNCA                1
 ACTION:REG 20-05-18 12:00 OP:avh  STATUS:               ID:20191229020154     I
 GAP=113 DIM=  2                                                               3
 STAT SP IPHASW D HRMM SECON CODA AMPLIT PERI AZIMU VELO AIN AR TRES W  DIS CAZ7
 FORD HZ EP   2   0202  4.13                                                    
 HULI HZ IP   1 D 0202  5.23                                                    
 SAO  HZ IP   0 U 0201 59.84                                                    
 SCZ  HE IS   1   0202  0.61                                                    
 SCZ  HZ IP   0 U 0201 57.93                                                    
 VCAB D1 EP   2   0202 10.32                                                    
 47236HN IS   1   0201 55.93                                                    
 47508HZ EP   2   0201 58.76                                                    
 BBGB HE IS   1   0202  1.00                                                    
 BBGB HZ IP   0 U 0201 57.80                                                    
 BCC  EZ IP   0 U 0202  3.23                                                    
 BHW  EZ IP   0 D 0201 59.62                                                    
 BHW  HE IS   1   0202  3.63                                                    
 BJC  EZ IP   0 U 0201 57.81                                                    
 BJF  EZ IP   0 D 0202  1.22                                                    
 BJOB EN IS   1   0201 58.44                                                    
 BJOB EZ IP   0 U 0201 56.71                                                    
 BKC  EZ IP   0 U 0202  1.56                                                    
 BMS  EZ IP   0 U 0202  1.84                                                    
 BPRB EZ IP   0 D 0202  3.55                                                    
 BPV  EZ IP   1 U 0201 58.38                                                    
 BRV  EZ IP   0 D 0201 59.08                                                    
 BSG  EZ IP   0 U 0201 57.77                                                    
 BSG  HN ES   2   0202  0.26                                                    
 BSR  EZ IP   0 U 0201 59.91                                                    
 BTV  EZ IP   0 D 0201 58.18                                                    
 BVLB EZ IP   0 D 0201 55.21                                                    
 HBH  EZ IP   0 D 0202  3.41                                                    
 HCA  EZ EP   2   0202  5.52                                                    
 HCO  EZ EP   2   0202  4.65                                                    
 HES  EZ IP   1 D 0202  4.53                                                    
 HFP  EZ IP   0 D 0202  0.15                                                    
 HLP  EZ EP   3   0202  6.12                                                    
 HMOB EZ IP   0 U 0202  5.80                                                    
 JAR  EZ EP   2   0202  9.85                                                    
 PBC  EZ IP   1 D 0202  0.94                                                    
 PCC  EZ IP   0 D 0202  4.16                                                    
 PMPB HZ EP   2   0202  3.97                                                    
 PSAB EZ IP   1 D 0202  5.96                                                    
 PSM  EZ EP   3   0202  8.37                                                    
 B058 EZ IP   0 U 0202  1.69                                                    
 B065 E2 ES   2   0202  4.16                                                    
 B065 EZ IP   0 U 0201 59.93                                                    
 B066 E2 EP   2   0202  2.78                                                    
 B067 EZ IP   0 U 0202  1.12                                                    
                                                                                
 2019 1229 0218  1.6 L  38.785-122.746  1.5  NCA  90.02 0.7DNCA                1
 ACTION:REG 20-05-18 12:00 OP:avh  STATUS:               ID:20191229021801     I
 GAP= 80 DIM=  3                                                               3
 STAT SP IPHASW D HRMM SECON CODA AMPLIT PERI AZIMU VELO AIN AR TRES W  DIS CAZ7
 DES  DZ  P   0 D 0218  2.48                                                    
 DRK  DZ  P   0 D 0218  2.66                                                    
 MNS  DZ  P   0 D 0218  2.31                                                    
 NEG  DZ  P   0 U 0218  2.87                                                    
 PFR  DZ  P   3   0218  2.33                                                    
 GAXB EZ  P   2   0218  3.18                                                    
 GBG  EZ  P   0 D 0218  3.11                                                    
 GDXB HZ  P   0 U 0218  2.63                                                    
 GGPC EZ  P   1 U 0218  3.48                                                    
                                                                                
 2019 1229 0255 18.0 L  35.829-117.700 -0.6  NCA 110.15 2.4DNCA                1
 ACTION:REG 20-05-18 12:00 OP:avh  STATUS:               ID:20191229025518     I
 GAP=140 DIM= 16                                                               3
 STAT SP IPHASW D HRMM SECON CODA AMPLIT PERI AZIMU VELO AIN AR TRES W  DIS CAZ7
 LIND HZ  P   2 U 0255 40.33                                                    
 CCC  HZ  P   0 D 0255 26.48                                                    
 CGO  HZ  P   0 U 0255 32.84                                                    
 CWC  HZ  P   0 U 0255 31.41                                                    
 GRA  HZ  P   3   0255 40.91                                                    
 GSC  HZ  P   2 U 0255 35.23                                                    
 ISA  HZ  P   1 D 0255 30.54                                                    
 LRL  HZ  P   0 D 0255 24.82                                                    
 SRT  HZ  P   0 D 0255 21.41                                                    
 WAS2 HZ  P   0 U 0255 32.06                                                    
 WCS2 HZ  P   0 D 0255 22.32                                                    
 WMF  HZ  P   0 D 0255 24.33                                                    
 WNM  EZ  P   1 U 0255 21.67                                                    
 WOR  HZ  P   3   0255 26.83                                                    
 MDR  EZ  P   2 U 0255 55.84                                                    
 KIR  HZ  P   1 U 0256 10.07                                                    
                                                                                
 2019 1229 0307 56.3 L  37.645-118.927  4.9  NCA  60.02 0.1DNCA                1
 ACTION:REG 20-05-18 12:00 OP:avh  STATUS:               ID:20191229030756     I
 GAP=170 DIM=  3                                                               3
 STAT SP IPHASW D HRMM SECON CODA AMPLIT PERI AZIMU VELO AIN AR TRES W  DIS CAZ7
 MCO  EZ EP   2   0307 58.24                                                    
 MDC  EZ EP   2   0307 58.91                                                    
 MGPB EZ IP   1 D 0307 57.93                                                    
 MLC  EZ IP   0 D 0307 57.88                                                    
 MMP  EZ IP   1 D 0307 58.58                                                    
 MMX1 H2 ES   2   0307 59.02                                                    
 MMX1 H3 IP   0 D 0307 57.87                                                    
                                                                                
 2019 1229 0330 56.2 L  37.550-118.826  3.9  NCA 200.03 1.2DNCA                1
 ACTION:REG 20-05-18 12:00 OP:avh  STATUS:               ID:20191229033056     I
 GAP=214 DIM=  4                                                               3
 STAT SP IPHASW D HRMM SECON CODA AMPLIT PERI AZIMU VELO AIN AR TRES W  DIS CAZ7
 MLAC HE ES   2   0331  0.21                                                    
 MLAC HZ IP   0 U 0330 58.47                                                    
 MCB  HN ES   2   0331  0.70                                                    
 MCB  HZ IP   0 D 0330 59.04                                                    
 MCD  EZ EP   3   0331  3.10                                                    
 MCO  EZ IP   0 D 0330 58.31                                                    
 MCS  EZ EP   2   0330 59.22                                                    
 MCV  EZ IP   0 D 0330 57.67                                                    
 MDC  EZ IP   1 U 0331  1.08                                                    
 MDH1 D1 EP   2   0330 59.18                                                    
 MDH1 D2 ES   2   0331  0.98                                                    
 MDPB HZ IP   1 U 0331  0.74                                                    
 MDR  EZ IP   0 D 0330 58.66                                                    
 MDY  HZ IP   1 D 0331  0.48                                                    
 MEM  EZ EP   2   0330 59.88                                                    
 MGPB EZ IP   0 D 0330 58.72                                                    
 MINS HZ IP   0 U 0331  0.69                                                    
 MLC  EZ IP   0 D 0330 58.59                                                    
 MLH  EZ IP   0 U 0330 59.46                                                    
 MLI  HZ EP   3   0331  0.00                                                    
 MMLB HZ EP   3   0331  0.06                                                    
 MMP  EZ IP   0 U 0330 59.93                                                    
 MMX1 E1 IP   1 U 0330 59.07                                                    
 MRC  EZ IP   1 U 0331  2.09                                                    
 MRD  EZ IP   0 U 0331  0.34                                                    
 1576 HN ES   2   0330 59.23                                                    
 1576 HZ IP   0 U 0330 58.04                                                    
                                                                                
 2019 1229 0343 23.4 L  38.769-122.720  1.5  NCA 100.02 1.0DNCA                1
 ACTION:REG 20-05-18 12:00 OP:avh  STATUS:               ID:20191229034323     I
 GAP=107 DIM=  2                                                               3
 STAT SP IPHASW D HRMM SECON CODA AMPLIT PERI AZIMU VELO AIN AR TRES W  DIS CAZ7
 DES  DZ  P   0 D 0343 23.82                                                    
 DRK  DZ  P   0 D 0343 24.93                                                    
 FNF  DZ  P   0 D 0343 24.25                                                    
 MNS  DZ  P   0 U 0343 24.14                                                    
 PFR  DZ  P   0 D 0343 24.05                                                    
 TCH  DZ  P   0 U 0343 24.00                                                    
 GAXB EZ  P   2 U 0343 24.76                                                    
 GBG  EZ  P   1   0343 24.89                                                    
 GDXB HZ  P   2 D 0343 25.12                                                    
 NLB  EZ  P   0 D 0343 26.41                                                    
                                                                                
 2019 1229 0349 38.9 L  38.788-122.743  1.6  NCA 380.05 1.2DNCA                1
 ACTION:REG 20-05-18 12:00 OP:avh  STATUS:               ID:20191229034938     I
 GAP= 42 DIM=  1                                                               3
 STAT SP IPHASW D HRMM SECON CODA AMPLIT PERI AZIMU VELO AIN AR TRES W  DIS CAZ7
 ACR  CZ IP   1 U 0349 40.12                                                    
 AL2  DZ EP   3   0349 41.97                                                    
 AL3  DZ IP   1 D 0349 41.23                                                    
 AL5  DZ EP   3   0349 41.42                                                    
 AL6  DZ EP   2   0349 41.04                                                    
 BUC  DZ EP   3   0349 40.84                                                    
 CLV  DZ EP   2   0349 40.44                                                    
 DEB  D2 EP   2   0349 40.07                                                    
 DES  DZ IP   1 D 0349 39.81                                                    
 DRK  DZ IP   1 D 0349 40.04                                                    
 ESM  CZ IP   1 D 0349 39.70                                                    
 FNF  DE IS   1   0349 40.13                                                    
 FNF  DZ IP   0 D 0349 39.59                                                    
 FUM  DZ IP   1 D 0349 39.83                                                    
 HBW  DZ EP   3   0349 41.85                                                    
 HVC  DZ IP   1 D 0349 40.34                                                    
 LCK  DZ IP   1 D 0349 39.87                                                    
 MCL  DZ IP   1 D 0349 41.13                                                    
 MNS  DZ IP   0 U 0349 39.60                                                    
 NEG  DZ IP   1 D 0349 40.11                                                    
 PFR  DZ IP   1 D 0349 39.77                                                    
 PSB  D2 EP   2   0349 40.11                                                    
 RGP  DZ EP   3   0349 41.33                                                    
 RTB  D1 EP   2   0349 39.81                                                    
 SB4  DZ IP   1 U 0349 40.71                                                    
 SQK  DZ EP   2   0349 40.38                                                    
 SSB  D1 IP   0 D 0349 39.69                                                    
 TCH  DE IS   1   0349 39.81                                                    
 TCH  DZ IP   0 U 0349 39.39                                                    
 US1  DZ IP   1 D 0349 40.60                                                    
 US3  DZ IP   1 D 0349 40.67                                                    
 HOPS HZ EP   3   0349 46.33                                                    
 MNRC HZ EP   2   0349 44.76                                                    
 GAXB EZ IP   1 U 0349 40.58                                                    
 GBG  EZ IP   0 U 0349 40.37                                                    
 GDXB HZ IP   0 U 0349 39.99                                                    
 GGPC EZ IP   0 U 0349 40.86                                                    
 GPM  EZ IP   1 U 0349 42.76                                                    
 GSG  EZ IP   1 U 0349 41.22                                                    
 GSX  EZ EP   2   0349 43.14                                                    
 NLB  EZ IP   1 U 0349 42.23                                                    
 NMT  EZ IP   1 U 0349 44.01                                                    
 NWS  EZ IP   1 U 0349 45.11                                                    
                                                                                
 2019 1229 0533 45.4 L  37.610-121.651  4.7  NCA 230.08 1.2DNCA                1
 ACTION:REG 20-05-18 12:00 OP:avh  STATUS:               ID:20191229053345     I
 GAP= 74 DIM=  8                                                               3
 STAT SP IPHASW D HRMM SECON CODA AMPLIT PERI AZIMU VELO AIN AR TRES W  DIS CAZ7
 BDM  HZ IP   1 D 0533 54.33                                                    
 MHC  BZ IP   0 U 0533 51.69                                                    
 MTOS HZ IP   0 U 0533 51.58                                                    
 WENL HN ES   2   0533 50.47                                                    
 WENL HZ  P   3 D 0533 48.36                                                    
 57202HZ EP   2   0533 48.73                                                    
 57254HZ IP   1 U 0533 48.01                                                    
 CAO  EZ IP   0 U 0533 51.85                                                    
 CAP  EZ IP   0 D 0533 49.08                                                    
 CAP  HE IS   1   0533 51.89                                                    
 CBP  EZ IP   0 D 0533 49.40                                                    
 CBP  HN IS   1   0533 52.58                                                    
 CBR  EZ IP   1 U 0533 54.25                                                    
 CBSB EZ IP   0 D 0533 50.65                                                    
 CBZ  EZ IP   0 U 0533 48.58                                                    
 CCOB EN IP   1   0533 53.51                                                    
 CDG  EZ IP   0 U 0533 53.35                                                    
 CHR  EZ IP   1 D 0533 51.44                                                    
 CML  EZ IP   0 D 0533 49.21                                                    
 CML  HN IS   1   0533 52.10                                                    
 CMLP EZ IP   0 D 0533 50.69                                                    
 CMM  EZ IP   0 U 0533 50.41                                                    
 CMOB EZ EP   2   0533 51.45                                                    
 CMP  EZ IP   1 U 0533 53.37                                                    
 CMW  HZ EP   2   0533 50.58                                                    
 CNI  EZ IP   1 U 0533 51.43                                                    
 CPP  EZ IP   0 U 0533 48.50                                                    
 CSTC EZ IP   0 U 0533 49.15                                                    
 CVL  EZ IP   0 D 0533 49.53                                                    
 PLA  HZ IP   1 D 0533 52.03                                                    
                                                                                
