 2019 1229 2302 26.2 L  35.641-117.428 10.3  NCA  60.02 2.5DNCA                1
 ACTION:REG 20-05-18 12:00 OP:avh  STATUS:               ID:20191229230226     I
 GAP=239 DIM= 29                                                               3
 STAT SP IPHASW D HRMM SECON CODA AMPLIT PERI AZIMU VELO AIN AR TRES W  DIS CAZ7
 MCL  DZ  P   3   2303 54.78                                                    
 TRAM HZ  P   3 D 2303  1.94                                                    
 JCNB D1  P   2 U 2303 10.77                                                    
 BUE  EZ  P   2 D 2303  6.22                                                    
 CCC  HZ  P   3 D 2302 28.28                                                    
 GRA  HZ  P   1 D 2302 50.24                                                    
 ISA  HZ  P   0 U 2302 42.16                                                    
 LRL  HZ  P   0 U 2302 31.62                                                    
 MPM  HZ  P   0 D 2302 34.43                                                    
 SHO  HZ  P   2 D 2302 45.38                                                    
 SMM  HZ  P   2 U 2302 58.23                                                    
 SRT  HZ  P   0 U 2302 31.91                                                    
 WNM  EZ  P   2 U 2302 34.81                                                    
 WOR  HZ  P   0 U 2302 38.80                                                    
 BCG  EZ  P   0   2303 23.91                                                    
 KKP  EZ  P   2 U 2304  3.96                                                    
 KPP  EZ  P   3   2304  2.58                                                    
 KPR  EZ  P   0 D 2304  7.69                                                    
 PVC  EZ  P   0 U 2303  8.98                                                    
 B933 EZ  P   0 U 2304  4.55                                                    
                                                                                
 2019 1229 2315  1.8 L  40.246-124.146 11.8  NCA 220.15 2.0DNCA                1
 ACTION:REG 20-05-18 12:00 OP:avh  STATUS:               ID:20191229231501     I
 GAP=138 DIM=  2                                                               3
 STAT SP IPHASW D HRMM SECON CODA AMPLIT PERI AZIMU VELO AIN AR TRES W  DIS CAZ7
 DMOR HZ IP   0 U 2315 13.99                                                    
 INGL HZ IP   1 D 2315 17.34                                                    
 JCC  HE ES   2   2315 22.30                                                    
 JCC  HZ EP   2   2315 13.37                                                    
 PETL HN IS   1   2315  8.87                                                    
 PETL HZ IP   1 D 2315  5.63                                                    
 PETY HZ IP   1 U 2315 20.74                                                    
 TRIN HZ EP   2   2315 24.51                                                    
 89101HN IS   1   2315  8.44                                                    
 89101HZ IP   0 D 2315  5.44                                                    
 KBN  EZ EP   2   2315 17.47                                                    
 KBU  EZ IP   0 D 2315  7.22                                                    
 KBU  HN IS   1   2315 11.57                                                    
 KCO  EZ IP   0 U 2315  4.93                                                    
 KCO  HE ES   2   2315  7.57                                                    
 KCPB HZ EP   2   2315 16.26                                                    
 KCT  HN ES   2   2315 13.84                                                    
 KCT  HZ IP   0 D 2315  8.31                                                    
 KHBB HZ IP   1 U 2315 17.25                                                    
 KHMB HZ IP   1 U 2315 15.73                                                    
 KMPB HN IS   1   2315  9.51                                                    
 KMPB HZ IP   0 D 2315  6.05                                                    
 KMR  HE ES   2   2315 15.15                                                    
 KMR  HZ IP   0 D 2315  9.27                                                    
 KPR  EZ IP   0 D 2315  4.72                                                    
 KPR  HN IS   1   2315  7.04                                                    
 LBK  EZ EP   2   2315 25.92                                                    
 LVR  EZ EP   2   2315 22.58                                                    
 1582 HZ EP   2   2315 11.72                                                    
 1586 HZ IP   1 U 2315 11.23                                                    
 1591 HZ IP   0 D 2315  8.88                                                    
 B045 E1 IS   1   2315 11.06                                                    
 B045 EZ IP   0 D 2315  6.92                                                    
 B046 E1 IS   1   2315  8.15                                                    
 B046 EZ IP   0 D 2315  5.31                                                    
 B047 E1 IS   1   2315  6.30                                                    
 B047 EZ IP   0 U 2315  4.19                                                    
 B049 E1 ES   2   2315 11.82                                                    
 B049 EZ IP   0 D 2315  7.46                                                    
 B932 E1 IS   1   2315  6.47                                                    
 B932 EZ IP   0 U 2315  4.31                                                    
 B934 E1 EP   2   2315 12.56                                                    
 B935 E1 IS   1   2315 20.92                                                    
 B935 EZ IP   1 D 2315 12.59                                                    
                                                                                
 2019 1229 2316 12.2 L  37.558-118.828  6.0  NCA 110.01 0.6DNCA                1
 ACTION:REG 20-05-18 12:00 OP:avh  STATUS:               ID:20191229231612     I
 GAP=130 DIM=  4                                                               3
 STAT SP IPHASW D HRMM SECON CODA AMPLIT PERI AZIMU VELO AIN AR TRES W  DIS CAZ7
 MLAC HZ EP   2   2316 14.42                                                    
 MCB  HZ IP   1 U 2316 14.94                                                    
 MCO  EZ IP   0 D 2316 14.33                                                    
 MCS  EZ EP   2   2316 15.10                                                    
 MCV  EZ IP   0 D 2316 13.78                                                    
 MCV  EZ ES   2   2316 15.10                                                    
 MDR  EZ IP   0 D 2316 14.60                                                    
 MGPB EZ IP   0 D 2316 14.67                                                    
 MLC  EZ IP   0 D 2316 14.57                                                    
 MLH  EZ EP   2   2316 15.36                                                    
 MMT  EZ IP   0 U 2316 18.78                                                    
 MTU  EZ EP   2   2316 18.11                                                    
                                                                                
 2019 1229 2321 57.0 L  37.378-119.040  9.3  NCA  80.17 1.0DNCA                1
 ACTION:REG 20-05-18 12:00 OP:avh  STATUS:               ID:20191229232157     I
 GAP=164 DIM= 12                                                               3
 STAT SP IPHASW D HRMM SECON CODA AMPLIT PERI AZIMU VELO AIN AR TRES W  DIS CAZ7
 KCC  HN IP   0   2322  2.04                                                    
 KCC  HN IS   0   2322  5.25                                                    
 MCO  EZ EP   2   2322  2.99                                                    
 MCV  EZ IP   0 U 2322  2.62                                                    
 MDR  EZ EP   2   2322  3.59                                                    
 MLC  EZ IP   1 U 2322  2.44                                                    
 MMT  EZ IP   0 U 2322  0.12                                                    
 MRD  EZ EP   2   2322  1.88                                                    
 MTU  EZ IP   0 D 2322  4.58                                                    
                                                                                
 2019 1230 0038  6.3 L  37.389-118.485  5.6  NCA 170.05 1.5DNCA                1
 ACTION:REG 20-05-18 12:00 OP:avh  STATUS:               ID:20191230003806     I
 GAP=194 DIM=  7                                                               3
 STAT SP IPHASW D HRMM SECON CODA AMPLIT PERI AZIMU VELO AIN AR TRES W  DIS CAZ7
 MBS1 E2 IS   0   0038 24.38                                                    
 MCB  HZ IP   0 D 0038 14.83                                                    
 MCO  EZ IP   0 U 0038 14.04                                                    
 MCS  EZ EP   2   0038 14.75                                                    
 MCV  EZ IP   0 U 0038 13.13                                                    
 MCV  EZ ES   2   0038 18.46                                                    
 MDC  EZ IP   1 D 0038 17.03                                                    
 MDR  EZ EP   2   0038 14.04                                                    
 MEM  EZ EP   2   0038 15.48                                                    
 MFB  EZ EP   2   0038  8.52                                                    
 MGPB EZ IP   1 U 0038 14.52                                                    
 MINS HZ IP   1 U 0038 16.56                                                    
 MLC  EZ IP   1 U 0038 14.45                                                    
 MLH  EZ EP   2   0038 14.48                                                    
 MMP  EZ IP   1 U 0038 15.74                                                    
 MMT  EZ IP   0 U 0038 17.05                                                    
 MMX1 H3 EP   2   0038 15.01                                                    
 MRD  EZ IP   0 U 0038 16.14                                                    
 MTU  EZ IP   0 U 0038  8.33                                                    
                                                                                
 2019 1230 0115 40.3 L  38.821-122.866 -0.6  NCA  80.71 0.6DNCA                1
 ACTION:REG 20-05-18 12:00 OP:avh  STATUS:               ID:20191230011540     I
 GAP=123 DIM=  3                                                               3
 STAT SP IPHASW D HRMM SECON CODA AMPLIT PERI AZIMU VELO AIN AR TRES W  DIS CAZ7
 AL2  DZ  P   2   0115 42.32                                                    
 BUC  DZ  P   0   0115 39.80                                                    
 FUM  DZ  P   2   0115 41.14                                                    
 HER  DZ  P   2   0115 42.67                                                    
 MCL  DZ  P   0   0115 41.61                                                    
 SB4  DZ  P   2   0115 41.63                                                    
 US1  DZ  P   2   0115 41.97                                                    
 GDXB HZ  P   0 U 0115 42.04                                                    
 OSU  EZ  P   2 D 0115 55.43                                                    
                                                                                
 2019 1230 0119  4.4 L  38.082-118.835 10.3  NCA 390.05 2.8LNCA                1
 ACTION:REG 20-05-18 12:00 OP:avh  STATUS:               ID:20191230011904     I
 GAP=128 DIM= 37                                                               3
 STAT SP IPHASW D HRMM SECON CODA AMPLIT PERI AZIMU VELO AIN AR TRES W  DIS CAZ7
 BUCR HZ IP   1 D 0119 24.91                                                    
 CMB  HZ IP   0 U 0119 26.79                                                    
 KARE HZ IP   1 U 0119 33.45                                                    
 KCC  HZ IP   1 D 0119 20.37                                                    
 LEGD HZ IP   0 D 0119 29.26                                                    
 LIND HZ EP   2   0119 36.14                                                    
 MTOS HZ EP   2   0119 41.76                                                    
 SUTB HZ EP   3   0119 50.20                                                    
 WELL HZ IP   0 U 0119 32.44                                                    
 WINE HZ EP   3   0119 35.27                                                    
 WSRE HZ EP   3   0119 41.67                                                    
 GRA  HZ EP   2   0119 35.11                                                    
 MLAC HE ES   2   0119 20.14                                                    
 MLAC HZ EP   2   0119 13.50                                                    
 CDG  EZ EP   2   0119 41.63                                                    
 CMM  EZ EP   3   0119 43.53                                                    
 CMP  EZ EP   2   0119 42.07                                                    
 CSTC EZ EP   3   0119 43.44                                                    
 HSL  EZ EP   2   0119 42.26                                                    
 MBS1 E1 IP   1 U 0119 11.02                                                    
 MCB  HZ IP   1 D 0119 13.23                                                    
 MCO  EZ IP   1 D 0119 13.74                                                    
 MCS  EZ IP   0 D 0119 13.07                                                    
 MCV  EZ IP   0 D 0119 14.09                                                    
 MCY  EZ IP   0 D 0119 13.64                                                    
 MDC  EZ IP   0 D 0119 12.39                                                    
 MDH1 D1 EP   2   0119 12.16                                                    
 MDH1 D2 IS   1   0119 17.61                                                    
 MDPB HN IS   1   0119 20.59                                                    
 MDPB HZ IP   0 D 0119 13.88                                                    
 MDR  EZ IP   0 D 0119 13.31                                                    
 MDY  HZ IP   1 D 0119 13.42                                                    
 MEM  EZ IP   0 D 0119 12.96                                                    
 MFB  EZ IP   1 U 0119 18.52                                                    
 MGPB EZ IP   1 D 0119 13.66                                                    
 MHD  EZ IP   0 D 0119 28.06                                                    
 MINS HN IS   1   0119 19.93                                                    
 MINS HZ IP   0 D 0119 13.47                                                    
 MLC  EZ IP   1 D 0119 13.84                                                    
 MLH  EZ IP   0 D 0119 12.75                                                    
 MLI  HN IS   1   0119 20.66                                                    
 MLI  HZ IP   1 D 0119 13.93                                                    
 MMI  EZ IP   0 D 0119 22.61                                                    
 MMLB HZ IP   1 D 0119 13.20                                                    
 MMP  EZ IP   0 D 0119 14.13                                                    
 MMT  EZ IP   0 D 0119 18.79                                                    
 MMX1 H1 ES   2   0119 20.30                                                    
 MMX1 H3 IP   1 U 0119 13.79                                                    
 MPR  EZ IP   1 D 0119 22.43                                                    
 MQ1P EN IS   1   0119 20.69                                                    
 MQ1P EZ IP   0 D 0119 14.05                                                    
 MRC  EZ IP   0 U 0119 13.84                                                    
 MRD  EZ IP   0 D 0119 14.46                                                    
 MTU  EZ IP   0 U 0119 18.85                                                    
 OCR  EZ EP   3   0119 52.54                                                    
 OST  EZ EP   3   0119 49.38                                                    
 OSU  EZ EP   3   0119 51.55                                                    
 DON  EZ EP   2   0119 36.11                                                    
 PAH  HZ EP   2   0119 34.82                                                    
 PEA  EZ EP   2   0119 36.56                                                    
 PNT  HZ IP   0 U 0119 26.40                                                    
 SJC  EZ IP   0 U 0119 15.44                                                    
 TVH1 HZ IP   0 D 0119 12.12                                                    
 1587 HZ IP   1 U 0119 17.55                                                    
                                                                                
 2019 1230 0211 11.4 L  36.565-121.092 10.4  NCA 150.13 0.9DNCA                1
 ACTION:REG 20-05-18 12:00 OP:avh  STATUS:               ID:20191230021111     I
 GAP=122 DIM=  5                                                               3
 STAT SP IPHASW D HRMM SECON CODA AMPLIT PERI AZIMU VELO AIN AR TRES W  DIS CAZ7
 SAO  HZ EP   3   0211 18.57                                                    
 SCZ  HE IS   1   0211 20.13                                                    
 SCZ  HZ IP   0 U 0211 16.50                                                    
 BBGB HN IS   1   0211 16.51                                                    
 BBGB HZ IP   0 D 0211 14.24                                                    
 BHW  EZ EP   3   0211 17.36                                                    
 BJC  EZ IP   1 D 0211 16.26                                                    
 BJF  EZ EP   3   0211 18.67                                                    
 BJOB EN IS   1   0211 18.53                                                    
 BJOB EZ IP   0 U 0211 15.48                                                    
 BMS  EZ EP   3   0211 17.82                                                    
 BRV  EZ EP   2   0211 15.16                                                    
 BSG  EZ IP   0 U 0211 15.26                                                    
 BSG  HN IS   1   0211 17.97                                                    
 BTV  EZ IP   0 U 0211 14.49                                                    
 BTV  HN IS   1   0211 16.93                                                    
 BVLB EZ IP   0 U 0211 14.01                                                    
 HFP  EZ EP   2   0211 18.87                                                    
 B065 EZ EP   2   0211 18.61                                                    
 B067 E1 EP   3   0211 19.71                                                    
                                                                                
