 2019 1229 0654 23.9 L  38.813-122.788  3.4  NCA  60.01 0.6DNCA                1
 ACTION:REG 20-05-18 12:00 OP:avh  STATUS:               ID:20191229065423     I
 GAP= 88 DIM=  1                                                               3
 STAT SP IPHASW D HRMM SECON CODA AMPLIT PERI AZIMU VELO AIN AR TRES W  DIS CAZ7
 CLV  DZ  P   0 D 0654 24.89                                                    
 DRK  DZ  P   2   0654 24.36                                                    
 FNF  DZ  P   0 D 0654 25.08                                                    
 HVC  DZ  P   3   0654 24.55                                                    
 NEG  DZ  P   2   0654 24.87                                                    
 SQK  DZ  P   0 D 0654 24.76                                                    
 TCH  DZ  P   0   0654 25.17                                                    
 US1  DZ  P   2   0654 24.26                                                    
 US3  DZ  P   3   0654 23.25                                                    
 GDXB HZ  P   0 U 0654 24.66                                                    
                                                                                
 2019 1229 0729  8.8 L  37.282-121.654  5.9  NCA 540.08 1.7DNCA                1
 ACTION:REG 20-05-18 12:00 OP:avh  STATUS:               ID:20191229072908     I
 GAP= 45 DIM=  3                                                               3
 STAT SP IPHASW D HRMM SECON CODA AMPLIT PERI AZIMU VELO AIN AR TRES W  DIS CAZ7
 BRIB HZ IP   1 D 0729 24.10                                                    
 JRSC HZ IP   1 U 0729 18.15                                                    
 MHC  HN IS   1   0729 12.39                                                    
 MHC  HZ IP   0 D 0729 10.78                                                    
 MHDL E1 EP   2   0729 25.34                                                    
 MTOS HE ES   2   0729 21.38                                                    
 MTOS HZ IP   1 D 0729 15.83                                                    
 OXMT E1 EP   2   0729 21.70                                                    
 SAO  HZ IP   1 D 0729 20.21                                                    
 WENL HZ IP   1 D 0729 16.33                                                    
 BJF  EZ IP   1 U 0729 28.14                                                    
 CADB EZ IP   0 U 0729 12.07                                                    
 CAG  EZ EP   2   0729 24.83                                                    
 CAO  EZ IP   1 U 0729 11.55                                                    
 CAO  HN IS   1   0729 13.64                                                    
 CAP  EZ IP   0 D 0729 14.64                                                    
 CBP  EZ EP   2   0729 18.88                                                    
 CBR  EZ EP   2   0729 21.95                                                    
 CCOB EN IS   1   0729 12.22                                                    
 CCOB EZ IP   0 U 0729 10.48                                                    
 CDG  EZ IP   0 U 0729 15.22                                                    
 CHR  EZ IP   0 D 0729 12.01                                                    
 CML  EZ IP   0 D 0729 13.22                                                    
 CMLP EZ IP   0 D 0729 13.72                                                    
 CMLP HZ ES   3   0729 17.23                                                    
 CMM  EZ IP   0 D 0729 13.56                                                    
 CMP  EZ IP   0 U 0729 14.66                                                    
 CMW  HZ IP   0 D 0729 15.52                                                    
 CNI  EZ IP   1 U 0729 17.33                                                    
 CPI  EZ IP   1 D 0729 25.61                                                    
 CPM  EZ EP   2   0729 26.09                                                    
 CSL  EZ EP   3   0729 19.99                                                    
 CSPB EZ IP   1 D 0729 26.06                                                    
 CSTC EZ IP   0 D 0729 17.03                                                    
 CVL  EZ IP   1 U 0729 16.87                                                    
 CYB  EZ EP   2   0729 24.15                                                    
 HBH  EZ EP   3   0729 17.04                                                    
 HCA  EZ IP   1 U 0729 14.95                                                    
 HCBB EZ IP   0 U 0729 16.27                                                    
 HCO  EZ IP   0 D 0729 17.38                                                    
 HCRB EZ IP   1 D 0729 15.69                                                    
 HER  EZ IP   0 D 0729 18.94                                                    
 HES  EZ IP   0 D 0729 17.81                                                    
 HFE  EZ EP   2   0729 16.14                                                    
 HFP  EZ IP   0 U 0729 19.93                                                    
 HLP  EZ IP   0 D 0729 14.13                                                    
 HMOB EZ IP   0 U 0729 22.61                                                    
 HPC  EZ IP   0 U 0729 16.38                                                    
 HSFB EZ IP   0 D 0729 19.29                                                    
 HSL  EZ IP   1 U 0729 19.42                                                    
 JAR  EZ IP   0 D 0729 17.72                                                    
 JBMB EZ IP   0 U 0729 17.04                                                    
 JBNB EZ IP   0 D 0729 17.78                                                    
 JCH  EZ EP   2   0729 21.27                                                    
 JELB EZ IP   1 U 0729 17.11                                                    
 JFP  EZ IP   0 U 0729 17.57                                                    
 JLAB HE EP   2   0729 12.32                                                    
 JPE  EZ IP   1 U 0729 17.90                                                    
 JPR  EZ IP   1 D 0729 24.31                                                    
 JPSB EZ IP   1 D 0729 20.02                                                    
 JSA  EZ IP   1 D 0729 21.71                                                    
 JSJ  EZ IP   0 U 0729 16.55                                                    
 JSP  EZ IP   1 D 0729 23.21                                                    
 NCC  EZ IP   1 D 0729 27.22                                                    
 NCT  EZ IP   1 U 0729 28.24                                                    
 NHF  EZ EP   2   0729 28.26                                                    
 NOLB EZ EP   3   0729 30.30                                                    
 NTAC EZ IP   1 D 0729 27.23                                                    
 1758 HE ES   2   0729 15.14                                                    
 1758 HZ IP   0 D 0729 12.26                                                    
 1865 EZ IP   0 U 0729 18.56                                                    
 B054 EZ IP   1 U 0729 23.99                                                    
 B057 E1 EP   3   0729 28.01                                                    
 B058 EZ IP   0 D 0729 18.68                                                    
 B065 EZ IP   1 U 0729 20.11                                                    
 B066 E2 IP   1   0729 17.63                                                    
 B067 EZ IP   0 D 0729 19.28                                                    
                                                                                
 2019 1229 0759 54.9 L  38.852-122.791  1.0  NCA  80.03 0.5DNCA                1
 ACTION:REG 20-05-18 12:00 OP:avh  STATUS:               ID:20191229075954     I
 GAP=161 DIM=  2                                                               3
 STAT SP IPHASW D HRMM SECON CODA AMPLIT PERI AZIMU VELO AIN AR TRES W  DIS CAZ7
 CLV  DZ  P   0 D 0759 55.42                                                    
 HVC  DZ  P   0 U 0759 55.42                                                    
 MCL  DZ  P   0 D 0759 55.65                                                    
 NEG  DZ  P   0 D 0759 55.67                                                    
 SQK  DZ  P   0 D 0759 55.74                                                    
 GBG  EZ  P   0 U 0759 57.23                                                    
 GDXB HZ  P   0 D 0759 56.04                                                    
 GSG  EZ  P   1 D 0759 56.87                                                    
                                                                                
 2019 1229 0822 36.0 L  38.816-122.823  3.0  NCA 140.02 0.9DNCA                1
 ACTION:REG 20-05-18 12:00 OP:avh  STATUS:               ID:20191229082236     I
 GAP=102 DIM=  1                                                               3
 STAT SP IPHASW D HRMM SECON CODA AMPLIT PERI AZIMU VELO AIN AR TRES W  DIS CAZ7
 AL5  DZ  P   0 D 0822 37.13                                                    
 AL6  DZ  P   0 U 0822 37.06                                                    
 BUC  DZ  P   0 D 0822 36.79                                                    
 CLV  DZ  P   0 D 0822 37.05                                                    
 DRK  DZ  P   0 D 0822 36.96                                                    
 FNF  DZ  P   0   0822 37.47                                                    
 HBW  DZ  P   3   0822 36.14                                                    
 HVC  DZ  P   0 U 0822 37.19                                                    
 MCL  DZ  P   1   0822 36.10                                                    
 NEG  DZ  P   0 U 0822 37.24                                                    
 SB4  DZ  P   1 D 0822 36.72                                                    
 SQK  DZ  P   0 U 0822 36.76                                                    
 US1  DZ  P   2   0822 35.36                                                    
 GAXB EZ  P   0 U 0822 38.43                                                    
 GBG  EZ  P   0 U 0822 38.66                                                    
 GDXB HZ  P   0 U 0822 36.88                                                    
 GGPC EZ  P   0 D 0822 37.35                                                    
                                                                                
 2019 1229 0830  0.4 L  37.611-121.653  6.3  NCA 180.07 1.0DNCA                1
 ACTION:REG 20-05-18 12:00 OP:avh  STATUS:               ID:20191229083000     I
 GAP= 75 DIM=  9                                                               3
 STAT SP IPHASW D HRMM SECON CODA AMPLIT PERI AZIMU VELO AIN AR TRES W  DIS CAZ7
 MHC  HZ IP   0 D 0830  6.72                                                    
 MTOS HZ IP   0 U 0830  6.62                                                    
 WENL HN ES   3   0830  5.46                                                    
 WENL HZ EP   2   0830  3.32                                                    
 57252HZ EP   2   0830  3.61                                                    
 CAO  EZ IP   0 U 0830  6.87                                                    
 CAP  EZ IP   0 D 0830  4.06                                                    
 CAP  HE IS   1   0830  6.87                                                    
 CBP  EZ IP   0 D 0830  4.41                                                    
 CBSB EZ IP   0 D 0830  5.65                                                    
 CBZ  EZ IP   0 U 0830  3.54                                                    
 CDG  EZ IP   0 U 0830  8.39                                                    
 CML  EZ IP   0 U 0830  4.19                                                    
 CML  EZ ES   2   0830  7.09                                                    
 CMLP EZ IP   0 D 0830  5.68                                                    
 CMM  EZ IP   0 U 0830  5.39                                                    
 CMOB EZ EP   3   0830  5.89                                                    
 CMP  EZ IP   0 U 0830  8.34                                                    
 CNI  EZ IP   1 D 0830  6.45                                                    
 CPP  EZ EP   2   0830  3.68                                                    
 CSTC EZ IP   0 D 0830  4.18                                                    
                                                                                
 2019 1229 0906 33.2 L  37.575-118.817  5.2  NCA 100.03 0.2DNCA                1
 ACTION:REG 20-05-18 12:00 OP:avh  STATUS:               ID:20191229090633     I
 GAP=281 DIM=  2                                                               3
 STAT SP IPHASW D HRMM SECON CODA AMPLIT PERI AZIMU VELO AIN AR TRES W  DIS CAZ7
 MLAC HZ IP   0 D 0906 35.12                                                    
 MCB  HZ IP   1 D 0906 35.78                                                    
 MCO  EZ IP   0 D 0906 35.08                                                    
 MCS  EZ EP   2   0906 35.98                                                    
 MCV  EZ IP   1 D 0906 34.53                                                    
 MCV  EZ IS   1   0906 35.73                                                    
 MDR  EZ IP   1 D 0906 35.30                                                    
 MGPB EZ IP   0 D 0906 35.52                                                    
 MLC  EZ IP   0 D 0906 35.45                                                    
 MLH  EZ IP   1 U 0906 36.08                                                    
 MMP  EZ IP   0 D 0906 36.90                                                    
                                                                                
 2019 1229 0913 51.2 L  35.958-117.492 10.8  NCA  40.01 2.0DNCA                1
 ACTION:REG 20-05-18 12:00 OP:avh  STATUS:               ID:20191229091351     I
 GAP=227 DIM= 26                                                               3
 STAT SP IPHASW D HRMM SECON CODA AMPLIT PERI AZIMU VELO AIN AR TRES W  DIS CAZ7
 JCNB D1  P   2 D 0914 30.83                                                    
 JCSB D1  P   0 D 0914 23.79                                                    
 CCC  HZ  P   0 D 0914  0.05                                                    
 LRL  HZ  P   0 U 0914  0.98                                                    
 SRT  HZ  P   3   0913 58.48                                                    
 WCS2 HZ  P   0 U 0913 56.18                                                    
 WMF  HZ  P   0 U 0913 58.01                                                    
 WNM  EZ  P   2 U 0913 58.62                                                    
 WOR  HZ  P   3   0914  4.05                                                    
 CVL  EZ  P   2 D 0914 45.60                                                    
 GDXB HZ  P   2 D 0915  8.15                                                    
                                                                                
 2019 1229 1130 38.6 L  37.542-118.839  4.4  NCA 190.03 0.8DNCA                1
 ACTION:REG 20-05-18 12:00 OP:avh  STATUS:               ID:20191229113038     I
 GAP=171 DIM=  5                                                               3
 STAT SP IPHASW D HRMM SECON CODA AMPLIT PERI AZIMU VELO AIN AR TRES W  DIS CAZ7
 MLAC HE ES   2   1130 42.95                                                    
 MLAC HZ IP   0 D 1130 41.08                                                    
 MCB  HZ IP   0 D 1130 41.41                                                    
 MCO  EZ IP   0 D 1130 40.82                                                    
 MCS  EZ IP   0 D 1130 41.70                                                    
 MCV  EZ IP   0 U 1130 40.20                                                    
 MDC  EZ IP   1 D 1130 43.43                                                    
 MDH1 D1 EP   2   1130 41.70                                                    
 MDH1 D1 IS   1   1130 43.65                                                    
 MDR  EZ IP   0 U 1130 41.21                                                    
 MDY  HZ IP   0 D 1130 42.72                                                    
 MEM  EZ IP   0 D 1130 42.10                                                    
 MGPB EZ IP   0 D 1130 41.16                                                    
 MINS HZ IP   0 D 1130 43.00                                                    
 MLC  EZ IP   0 D 1130 40.98                                                    
 MLH  EZ IP   0 D 1130 42.00                                                    
 MMLB HZ IP   0 D 1130 42.39                                                    
 MMP  EZ IP   0 D 1130 42.21                                                    
 MMT  EZ IP   0 U 1130 44.97                                                    
 MMX1 E1 IP   0 U 1130 41.40                                                    
 MMX1 E2 ES   2   1130 43.32                                                    
 MQ1P EZ IP   1 D 1130 42.15                                                    
 MRD  EZ IP   0 D 1130 42.59                                                    
 1576 HN ES   2   1130 42.02                                                    
                                                                                
 2019 1229 1148 20.0 L  38.776-122.724  2.1  NCA 120.02 0.6DNCA                1
 ACTION:REG 20-05-18 12:00 OP:avh  STATUS:               ID:20191229114820     I
 GAP=105 DIM=  1                                                               3
 STAT SP IPHASW D HRMM SECON CODA AMPLIT PERI AZIMU VELO AIN AR TRES W  DIS CAZ7
 DES  DZ  P   0 U 1148 20.64                                                    
 DRK  DZ  P   0 D 1148 21.52                                                    
 FNF  DZ  P   0 D 1148 20.90                                                    
 HBW  DZ  P   2   1148 23.65                                                    
 LCK  DZ  P   0 D 1148 21.33                                                    
 MNS  DZ  P   0   1148 20.74                                                    
 NEG  DZ  P   0 D 1148 21.67                                                    
 PFR  DZ  P   0 D 1148 20.83                                                    
 TCH  DZ  P   0 D 1148 20.64                                                    
 GBG  EZ  P   0 U 1148 21.45                                                    
 GDXB HZ  P   1 U 1148 21.51                                                    
 GGPC EZ  P   0 U 1148 22.26                                                    
 NLB  EZ  P   1 U 1148 23.17                                                    
                                                                                
