 2019 1230 0214 49.0 L  38.796-122.796  6.0  NCA  40.03 0.4DNCA                1
 ACTION:REG 20-05-18 12:00 OP:avh  STATUS:               ID:20191230021449     I
 GAP=249 DIM=  1                                                               3
 STAT SP IPHASW D HRMM SECON CODA AMPLIT PERI AZIMU VELO AIN AR TRES W  DIS CAZ7
 CLV  DZ  P   0   0214 50.61                                                    
 DES  DZ  P   2   0214 51.23                                                    
 FUM  DZ  P   1   0214 50.25                                                    
 LCK  DZ  P   2   0214 51.54                                                    
 PFR  DZ  P   2   0214 51.53                                                    
 SQK  DZ  P   2   0214 50.82                                                    
 GBG  EZ  P   0 U 0214 51.44                                                    
 GDXB HZ  P   2 U 0214 51.38                                                    
                                                                                
 2019 1230 0226  9.8 L  40.461-124.721 24.7  NCA 310.19 2.7DNCA                1
 ACTION:REG 20-05-18 12:00 OP:avh  STATUS:               ID:20191230022609     I
 GAP=294 DIM= 33                                                               3
 STAT SP IPHASW D HRMM SECON CODA AMPLIT PERI AZIMU VELO AIN AR TRES W  DIS CAZ7
 DANT HZ IP   0 U 0226 44.27                                                    
 DMOR HZ IP   0 U 0226 24.32                                                    
 HAYF HZ EP   2   0226 28.81                                                    
 JCC  HN IS   1   0226 29.19                                                    
 JCC  HZ IP   0 U 0226 20.99                                                    
 PETL HN IS   1   0226 23.15                                                    
 PETL HZ IP   0 U 0226 17.32                                                    
 PETY HZ EP   2   0226 34.57                                                    
 SCOT HZ IP   1 U 0226 36.38                                                    
 TRIN HZ IP   1 D 0226 35.52                                                    
 WEAV HZ EP   2   0226 31.74                                                    
 89101HN IS   1   0226 23.77                                                    
 89101HZ IP   1 U 0226 17.71                                                    
 89255HZ EP   2   0226 19.22                                                    
 89462HZ EP   2   0226 19.56                                                    
 GRO  EZ EP   2   0226 37.09                                                    
 GVV  EZ IP   1 D 0226 37.76                                                    
 KBN  EZ IP   1 U 0226 32.07                                                    
 KCO  EZ IP   1 U 0226 18.28                                                    
 KCO  HN IS   1   0226 24.69                                                    
 KCT  HN ES   2   0226 23.04                                                    
 KCT  HZ IP   0 D 0226 17.08                                                    
 KHBB HZ IP   1 U 0226 29.12                                                    
 KHMB HZ EP   2   0226 24.83                                                    
 KMPB HN IS   1   0226 26.37                                                    
 KMPB HZ IP   1 U 0226 19.17                                                    
 KMR  HZ EP   3   0226 25.12                                                    
 KPR  EZ EP   2   0226 20.75                                                    
 LBC  EZ EP   2   0226 50.12                                                    
 LBK  EZ IP   1 D 0226 36.57                                                    
 LDB  EZ IP   0 D 0226 44.44                                                    
 LDH  HZ IP   0 D 0226 46.92                                                    
 LEL  EZ IP   0 D 0226 48.03                                                    
 LMI  EZ IP   0 D 0226 40.97                                                    
 LRD  EZ IP   0 D 0226 48.76                                                    
 LRR  EZ IP   0 D 0226 46.47                                                    
 LSF  EZ IP   0 D 0226 36.99                                                    
 LSH  EZ IP   0 D 0226 42.44                                                    
 LSI  EZ IP   0 D 0226 48.83                                                    
 LTC  EZ IP   1 D 0226 42.10                                                    
 LVR  EZ EP   2   0226 36.40                                                    
 OCR  EZ EP   2   0226 45.55                                                    
 1581 HZ EP   2   0226 19.09                                                    
 1582 HZ IP   0 U 0226 19.02                                                    
 1586 HE IS   1   0226 25.61                                                    
 1586 HZ IP   0 U 0226 18.56                                                    
 B045 E1 IS   1   0226 28.43                                                    
 B045 EZ IP   1 U 0226 20.36                                                    
 B046 E1 IS   1   0226 23.51                                                    
 B046 EZ IP   0 U 0226 17.59                                                    
 B049 EZ IP   1 U 0226 23.10                                                    
 B932 E1 IS   1   0226 24.75                                                    
 B932 EZ IP   0 U 0226 18.31                                                    
 B934 E1 EP   3   0226 27.64                                                    
 B935 EZ IP   0 U 0226 25.19                                                    
                                                                                
 2019 1230 0230 59.0 L  38.815-122.823  2.7  NCA 160.02 0.9DNCA                1
 ACTION:REG 20-05-18 12:00 OP:avh  STATUS:               ID:20191230023058     I
 GAP= 92 DIM=  1                                                               3
 STAT SP IPHASW D HRMM SECON CODA AMPLIT PERI AZIMU VELO AIN AR TRES W  DIS CAZ7
 AL2  DZ  P   0   0231  0.45                                                    
 AL3  DZ  P   0 D 0230 59.92                                                    
 AL6  DZ  P   0 U 0230 59.98                                                    
 BUC  DZ  P   0 D 0230 59.72                                                    
 CLV  DZ  P   3   0230 58.78                                                    
 DRK  DZ  P   3   0230 58.45                                                    
 FNF  DZ  P   0 D 0231  0.41                                                    
 FUM  DZ  P   0 D 0230 59.94                                                    
 HBW  DZ  P   0 D 0231  0.48                                                    
 LCK  DZ  P   2   0231  0.37                                                    
 NEG  DZ  P   0 U 0230 58.45                                                    
 SB4  DZ  P   0 U 0230 59.63                                                    
 SQK  DZ  P   0   0230 59.70                                                    
 US1  DZ  P   0 U 0230 59.84                                                    
 US3  DZ  P   0 U 0230 59.68                                                    
 GAXB EZ  P   0 U 0231  1.36                                                    
 GBG  EZ  P   0 D 0231  1.65                                                    
 GDXB HZ  P   0 U 0230 59.79                                                    
 GPM  EZ  P   2   0231  1.30                                                    
 NEA  EZ  P   2   0231  7.74                                                    
                                                                                
 2019 1230 0236 42.8 L  38.803-122.821  2.8  NCA 110.02 0.3DNCA                1
 ACTION:REG 20-05-18 12:00 OP:avh  STATUS:               ID:20191230023642     I
 GAP= 75 DIM=  1                                                               3
 STAT SP IPHASW D HRMM SECON CODA AMPLIT PERI AZIMU VELO AIN AR TRES W  DIS CAZ7
 AL6  DZ IP   1 D 0236 43.78                                                    
 BUC  DZ EP   2   0236 43.65                                                    
 CLV  DZ IP   1 U 0236 43.98                                                    
 DRK  DZ IP   1 U 0236 43.57                                                    
 RTB  D1 EP   2   0236 45.10                                                    
 SB4  DN ES   2   0236 43.94                                                    
 SB4  DZ IP   0 D 0236 43.45                                                    
 SQK  DZ IP   1 D 0236 43.61                                                    
 US1  DZ IP   1 U 0236 43.53                                                    
 US3  DZ IP   0 D 0236 43.46                                                    
 GDXB HN ES   2   0236 44.17                                                    
 GDXB HZ IP   0 U 0236 43.57                                                    
 GGPC EZ IP   1 D 0236 43.93                                                    
                                                                                
 2019 1230 0341 21.1 L  36.420-120.988  1.8  NCA 170.19 1.4DNCA                1
 ACTION:REG 20-05-18 12:00 OP:avh  STATUS:               ID:20191230034121     I
 GAP=111 DIM=  3                                                               3
 STAT SP IPHASW D HRMM SECON CODA AMPLIT PERI AZIMU VELO AIN AR TRES W  DIS CAZ7
 HULI HZ IP   1 D 0341 29.78                                                    
 SAO  HZ IP   1 D 0341 30.82                                                    
 SCZ  HZ IP   1 U 0341 28.26                                                    
 BBGB HE ES   2   0341 29.41                                                    
 BBGB HZ IP   0 D 0341 25.50                                                    
 BHW  EZ IP   0 U 0341 27.37                                                    
 BJC  EZ EP   3   0341 27.75                                                    
 BJF  EZ IP   0 U 0341 28.20                                                    
 BMS  EZ IP   0 D 0341 28.10                                                    
 BRV  EZ IP   0 U 0341 22.22                                                    
 BSG  EZ IP   0 D 0341 25.17                                                    
 BSG  HE ES   2   0341 28.12                                                    
 BTV  EZ IP   0 U 0341 23.03                                                    
 BTV  HN ES   2   0341 24.96                                                    
 BVLB EZ IP   1 U 0341 25.84                                                    
 HFP  EZ EP   3   0341 31.50                                                    
 PBC  EZ IP   0 D 0341 23.87                                                    
 PBC  HN ES   2   0341 26.16                                                    
 PMPB HZ IP   0 D 0341 26.68                                                    
 PSAB EZ EP   3   0341 28.99                                                    
 B065 E1 ES   2   0341 38.08                                                    
 B065 EZ IP   1 U 0341 30.82                                                    
                                                                                
 2019 1230 0350 42.7 L  38.814-122.796  2.6  NCA 100.03 0.8DNCA                1
 ACTION:REG 20-05-18 12:00 OP:avh  STATUS:               ID:20191230035042     I
 GAP= 63 DIM=  1                                                               3
 STAT SP IPHASW D HRMM SECON CODA AMPLIT PERI AZIMU VELO AIN AR TRES W  DIS CAZ7
 AL1  DZ  P   2   0350 43.06                                                    
 AL2  DZ  P   2   0350 43.33                                                    
 BUC  DZ  P   1   0350 42.47                                                    
 CLV  DZ  P   0 D 0350 43.51                                                    
 DES  DZ  P   3   0350 42.89                                                    
 FNF  DZ  P   0   0350 43.87                                                    
 FUM  DZ  P   0   0350 43.44                                                    
 HVC  DZ  P   2   0350 42.37                                                    
 MCL  DZ  P   0 D 0350 43.97                                                    
 NEG  DZ  P   0 U 0350 43.57                                                    
 SQK  DZ  P   0 U 0350 43.36                                                    
 GBG  EZ  P   0 U 0350 44.85                                                    
 GDXB HZ  P   0 D 0350 43.33                                                    
 GGPC EZ  P   1 U 0350 44.13                                                    
 GPM  EZ  P   0 U 0350 45.41                                                    
                                                                                
 2019 1230 0409 20.4 L  37.565-118.838  2.3  NCA 170.02 0.6DNCA                1
 ACTION:REG 20-05-18 12:00 OP:avh  STATUS:               ID:20191230040920     I
 GAP=266 DIM=  3                                                               3
 STAT SP IPHASW D HRMM SECON CODA AMPLIT PERI AZIMU VELO AIN AR TRES W  DIS CAZ7
 MLAC HZ IP   0 D 0409 22.23                                                    
 MCB  HE ES   2   0409 24.47                                                    
 MCB  HZ IP   1 U 0409 22.85                                                    
 MCO  EZ IP   1 D 0409 22.05                                                    
 MCS  EZ IP   1 D 0409 23.03                                                    
 MCV  EZ IP   0 U 0409 21.43                                                    
 MDC  EZ EP   3   0409 24.95                                                    
 MDH1 D1 IP   1 D 0409 22.98                                                    
 MDH1 D1 ES   2   0409 24.56                                                    
 MDPB HZ IP   0 U 0409 24.65                                                    
 MDR  EZ IP   0 D 0409 22.43                                                    
 MEM  EE ES   2   0409 25.47                                                    
 MEM  EZ IP   1 D 0409 23.48                                                    
 MGPB EZ IP   0 D 0409 22.50                                                    
 MINS HZ EP   2   0409 24.58                                                    
 MLC  EZ IP   1 U 0409 22.37                                                    
 MLH  EZ IP   1 D 0409 23.31                                                    
 MMP  EZ IP   1 U 0409 23.84                                                    
 MMX1 H3 EP   3   0409 22.91                                                    
 MQ1P EZ EP   3   0409 23.78                                                    
 MRD  EZ IP   1 U 0409 24.27                                                    
                                                                                
