 2019 1229 1150  4.5 L  38.818-122.823  3.2  NCA 130.02 0.4DNCA                1
 ACTION:REG 20-05-18 12:00 OP:avh  STATUS:               ID:20191229115004     I
 GAP= 82 DIM=  1                                                               3
 STAT SP IPHASW D HRMM SECON CODA AMPLIT PERI AZIMU VELO AIN AR TRES W  DIS CAZ7
 AL3  DZ  P   3   1150  5.44                                                    
 AL5  DZ  P   0   1150  5.60                                                    
 BUC  DZ  P   2   1150  5.21                                                    
 CLV  DZ  P   0 U 1150  5.53                                                    
 FNF  DZ  P   0 U 1150  5.97                                                    
 MCL  DZ  P   0   1150  5.64                                                    
 MNS  DZ  P   1   1150  6.56                                                    
 NEG  DZ  P   0 U 1150  5.71                                                    
 SB4  DZ  P   1 D 1150  5.18                                                    
 SQK  DZ  P   0 U 1150  5.23                                                    
 TCH  DZ  P   2   1150  4.88                                                    
 GBG  EZ  P   2   1150  7.19                                                    
 GDXB HZ  P   0   1150  5.39                                                    
 GGPC EZ  P   3 D 1150  5.81                                                    
                                                                                
 2019 1229 1224 20.2 L  38.810-122.791  3.1  NCA 120.02 0.8DNCA                1
 ACTION:REG 20-05-18 12:00 OP:avh  STATUS:               ID:20191229122420     I
 GAP= 64 DIM=  0                                                               3
 STAT SP IPHASW D HRMM SECON CODA AMPLIT PERI AZIMU VELO AIN AR TRES W  DIS CAZ7
 BUC  DZ  P   2 U 1224 21.37                                                    
 CLV  DZ  P   0 D 1224 21.16                                                    
 DRK  DZ  P   2   1224 20.38                                                    
 FUM  DZ  P   0   1224 20.99                                                    
 MCL  DZ  P   0   1224 21.58                                                    
 MNS  DZ  P   0 D 1224 21.75                                                    
 NEG  DZ  P   0 D 1224 21.14                                                    
 SB4  DZ  P   0 D 1224 21.16                                                    
 SQK  DZ  P   0 D 1224 21.03                                                    
 US1  DZ  P   0   1224 21.30                                                    
 GBG  EZ  P   0 U 1224 22.32                                                    
 GDXB HZ  P   0 D 1224 20.90                                                    
 GGPC EZ  P   0 D 1224 21.70                                                    
                                                                                
 2019 1229 1300 25.7 L  38.820-122.824  3.4  NCA  60.01 0.1DNCA                1
 ACTION:REG 20-05-18 12:00 OP:avh  STATUS:               ID:20191229130025     I
 GAP=139 DIM=  1                                                               3
 STAT SP IPHASW D HRMM SECON CODA AMPLIT PERI AZIMU VELO AIN AR TRES W  DIS CAZ7
 BUC  DZ  P   0 D 1300 26.59                                                    
 DRK  DZ  P   0 U 1300 26.80                                                    
 FNF  DZ  P   1   1300 27.29                                                    
 MCL  DZ  P   2   1300 26.95                                                    
 SQK  DZ  P   0 U 1300 26.55                                                    
 GDXB HZ  P   2 U 1300 26.72                                                    
                                                                                
 2019 1229 1318 15.1 L  35.964-117.475  9.2  NCA  80.08 2.2DNCA                1
 ACTION:REG 20-05-18 12:00 OP:avh  STATUS:               ID:20191229131815     I
 GAP=192 DIM= 27                                                               3
 STAT SP IPHASW D HRMM SECON CODA AMPLIT PERI AZIMU VELO AIN AR TRES W  DIS CAZ7
 JCNB D1  P   0   1318 56.83                                                    
 CCC  HZ  P   0 D 1318 23.96                                                    
 CGO  HZ  P   1 U 1318 27.45                                                    
 ISA  HZ  P   3 D 1318 31.61                                                    
 LRL  HZ  P   0 D 1318 24.88                                                    
 SHO  HZ  P   1 U 1318 33.85                                                    
 SRT  HZ  P   0 U 1318 22.40                                                    
 WCS2 HZ  P   0 U 1318 20.09                                                    
 WMF  HZ  P   0 U 1318 21.93                                                    
 WNM  EZ  P   1 U 1318 22.53                                                    
 WOR  HZ  P   0 U 1318 27.94                                                    
 CTA  EZ  P   1 D 1319 22.14                                                    
 CVL  EZ  P   1   1319 15.70                                                    
 JPL  EZ  P   1 D 1319 15.10                                                    
                                                                                
 2019 1229 1437 28.9 L  33.581-116.814  6.4  NCA  60.05 1.8DNCA                1
 ACTION:REG 20-05-18 12:00 OP:avh  STATUS:               ID:20191229143728     I
 GAP=127 DIM= 18                                                               3
 STAT SP IPHASW D HRMM SECON CODA AMPLIT PERI AZIMU VELO AIN AR TRES W  DIS CAZ7
 KNW  HZ  P   0 D 1437 32.04                                                    
 LVA2 HZ  P   0 U 1437 35.01                                                    
 PFO  HZ  P   0 D 1437 34.50                                                    
 PLM  HZ  P   0 D 1437 33.45                                                    
 PMD  HZ  P   0 D 1437 35.71                                                    
 PEC  EZ  P   1 U 1437 36.90                                                    
                                                                                
 2019 1229 1500  6.8 L  38.825-122.797  2.7  NCA 240.03 0.9DNCA                1
 ACTION:REG 20-05-18 12:00 OP:avh  STATUS:               ID:20191229150006     I
 GAP= 39 DIM=  1                                                               3
 STAT SP IPHASW D HRMM SECON CODA AMPLIT PERI AZIMU VELO AIN AR TRES W  DIS CAZ7
 AL2  DZ  P   0 U 1500  8.67                                                    
 AL3  DZ  P   0   1500  8.01                                                    
 AL5  DZ  P   0   1500  8.13                                                    
 AL6  DZ  P   2   1500  6.94                                                    
 BUC  DZ  P   0 U 1500  7.73                                                    
 CLV  DZ  P   0 D 1500  7.53                                                    
 DES  DZ  P   0   1500  8.81                                                    
 DRK  DZ  P   0 U 1500  7.75                                                    
 FNF  DZ  P   0 D 1500  8.16                                                    
 FUM  DZ  P   1   1500  7.72                                                    
 HBW  DZ  P   2   1500  7.07                                                    
 HVC  DZ  P   0 U 1500  7.57                                                    
 MCL  DZ  P   0 D 1500  7.86                                                    
 MNS  DZ  P   2   1500  6.92                                                    
 NEG  DZ  P   0 U 1500  7.64                                                    
 PFR  DZ  P   0 D 1500  8.65                                                    
 RGP  DZ  P   0 D 1500  8.13                                                    
 SB4  DZ  P   0 U 1500  7.65                                                    
 SQK  DZ  P   0 U 1500  7.46                                                    
 TCH  DZ  P   0 D 1500  8.23                                                    
 US1  DZ  P   0 U 1500  7.93                                                    
 US3  DZ  P   0 U 1500  7.77                                                    
 GAXB EZ  P   0 U 1500  9.21                                                    
 GBG  EZ  P   0 U 1500  8.96                                                    
 GDXB HZ  P   0 D 1500  7.52                                                    
 GGPC EZ  P   0 D 1500  8.40                                                    
 NLB  EZ  P   1 D 1500 11.14                                                    
 NWS  EZ  P   1 U 1500 14.02                                                    
                                                                                
 2019 1229 1640  5.5 L  38.809-122.828  1.5  NCA  70.01 0.3DNCA                1
 ACTION:REG 20-05-18 12:00 OP:avh  STATUS:               ID:20191229164005     I
 GAP= 93 DIM=  0                                                               3
 STAT SP IPHASW D HRMM SECON CODA AMPLIT PERI AZIMU VELO AIN AR TRES W  DIS CAZ7
 BUC  DZ  P   0 U 1640  6.04                                                    
 DRK  DZ  P   0   1640  6.20                                                    
 SB4  DZ  P   0 U 1640  5.84                                                    
 SQK  DZ  P   0 D 1640  6.06                                                    
 US1  DZ  P   0 U 1640  6.04                                                    
 US3  DZ  P   0 U 1640  5.90                                                    
 GDXB HZ  P   0 U 1640  6.14                                                    
                                                                                
 2019 1229 1641 52.6 L  38.824-122.792  1.3  NCA  60.01 0.2DNCA                1
 ACTION:REG 20-05-18 12:00 OP:avh  STATUS:               ID:20191229164152     I
 GAP=122 DIM=  2                                                               3
 STAT SP IPHASW D HRMM SECON CODA AMPLIT PERI AZIMU VELO AIN AR TRES W  DIS CAZ7
 ACR  CZ EP   3   1641 53.41                                                    
 CLV  DZ IP   1 U 1641 53.16                                                    
 HVC  DZ EP   3   1641 53.27                                                    
 NEG  DZ EP   2   1641 53.25                                                    
 SQK  DZ IP   1 D 1641 53.12                                                    
 GDXB HE ES   2   1641 53.53                                                    
 GDXB HZ IP   0 D 1641 53.12                                                    
                                                                                
 2019 1229 1716  9.0 L  38.817-122.822  3.2  NCA 160.06 0.9DNCA                1
 ACTION:REG 20-05-18 12:00 OP:avh  STATUS:               ID:20191229171609     I
 GAP= 56 DIM=  1                                                               3
 STAT SP IPHASW D HRMM SECON CODA AMPLIT PERI AZIMU VELO AIN AR TRES W  DIS CAZ7
 AL2  DZ  P   1   1716 10.55                                                    
 AL3  DZ  P   0 D 1716 10.00                                                    
 AL5  DZ  P   0 D 1716 10.14                                                    
 AL6  DZ  P   3   1716  8.25                                                    
 BRP  DZ  P   2   1716  9.77                                                    
 BUC  DZ  P   0 D 1716  9.80                                                    
 CLV  DZ  P   0 D 1716 10.06                                                    
 DRK  DZ  P   0 D 1716  9.98                                                    
 FNF  DZ  P   0 D 1716 10.47                                                    
 HBW  DZ  P   2   1716  9.24                                                    
 MCL  DZ  P   0 D 1716 10.17                                                    
 NEG  DZ  P   0   1716 10.24                                                    
 SB4  DZ  P   0 D 1716  9.72                                                    
 TCH  DZ  P   0   1716 10.72                                                    
 US3  DZ  P   0 D 1716  9.98                                                    
 GAXB EZ  P   0 U 1716 11.45                                                    
 GBG  EZ  P   0 D 1716 11.74                                                    
 GDXB HZ  P   2 U 1716  9.91                                                    
 GGPC EZ  P   0 D 1716 10.36                                                    
                                                                                
 2019 1229 1718 38.0 L  37.573-118.846 -0.2  NCA 170.04 0.8DNCA                1
 ACTION:REG 20-05-18 12:00 OP:avh  STATUS:               ID:20191229171837     I
 GAP=196 DIM=  2                                                               3
 STAT SP IPHASW D HRMM SECON CODA AMPLIT PERI AZIMU VELO AIN AR TRES W  DIS CAZ7
 MLAC HZ EP   2   1718 39.66                                                    
 MCB  HZ EP   2   1718 40.12                                                    
 MCO  EZ IP   0 D 1718 39.40                                                    
 MCS  EZ IP   1 D 1718 40.47                                                    
 MCV  EZ IP   0 U 1718 38.66                                                    
 MDC  EZ EP   3   1718 42.40                                                    
 MDH1 D1 EP   3   1718 40.41                                                    
 MDR  EZ IP   1 D 1718 39.81                                                    
 MEM  EZ IP   1 D 1718 40.93                                                    
 MGPB EZ IP   0 D 1718 39.92                                                    
 MGPB EZ ES   2   1718 41.72                                                    
 MINS HZ IP   1 D 1718 42.07                                                    
 MLC  EZ IP   1 D 1718 39.78                                                    
 MLH  EZ EP   2   1718 40.66                                                    
 MMP  EZ EP   2   1718 41.35                                                    
 MMP  EZ IS   1   1718 43.63                                                    
 MMT  EZ EP   3   1718 44.60                                                    
 MMX1 H3 EP   2   1718 40.31                                                    
 MQ1P EN IS   1   1718 43.71                                                    
 MQ1P EZ IP   1 D 1718 41.25                                                    
 MRD  EZ EP   2   1718 41.81                                                    
                                                                                
 2019 1229 1747 57.1 L  38.815-122.806  1.3  NCA 210.04 1.0DNCA                1
 ACTION:REG 20-05-18 12:00 OP:avh  STATUS:               ID:20191229174757     I
 GAP= 41 DIM=  1                                                               3
 STAT SP IPHASW D HRMM SECON CODA AMPLIT PERI AZIMU VELO AIN AR TRES W  DIS CAZ7
 AL3  DZ  P   3 D 1747 58.13                                                    
 AL5  DZ  P   0 U 1747 58.46                                                    
 AL6  DZ  P   0 D 1747 58.21                                                    
 BUC  DZ  P   0 D 1747 57.78                                                    
 CLV  DZ  P   0 D 1747 57.83                                                    
 DRK  DZ  P   0 U 1747 57.83                                                    
 FNF  DZ  P   0   1747 58.38                                                    
 HBW  DZ  P   0   1747 58.90                                                    
 HVC  DZ  P   0 U 1747 57.98                                                    
 MCL  DZ  P   0 D 1747 58.16                                                    
 NEG  DZ  P   0 U 1747 58.00                                                    
 RGP  DZ  P   0   1747 58.60                                                    
 SB4  DZ  P   0 D 1747 57.64                                                    
 SQK  DZ  P   0 U 1747 57.54                                                    
 TCH  DZ  P   0   1747 58.55                                                    
 US1  DZ  P   0 D 1747 57.93                                                    
 US3  DZ  P   0 D 1747 57.78                                                    
 GAXB EZ  P   1 D 1747 59.50                                                    
 GBG  EZ  P   0 U 1747 59.50                                                    
 GDXB HZ  P   0 D 1747 57.64                                                    
 GGPC EZ  P   0 U 1747 58.49                                                    
                                                                                
 2019 1229 1748  6.3 L  38.820-122.810  2.2  NCA  70.01 0.9DNCA                1
 ACTION:REG 20-05-18 12:00 OP:avh  STATUS:               ID:20191229174806     I
 GAP=123 DIM=  0                                                               3
 STAT SP IPHASW D HRMM SECON CODA AMPLIT PERI AZIMU VELO AIN AR TRES W  DIS CAZ7
 AL6  DZ  P   3   1748  6.55                                                    
 CLV  DZ  P   1 D 1748  7.14                                                    
 DRK  DZ  P   0 U 1748  7.16                                                    
 SB4  DZ  P   0 D 1748  6.96                                                    
 SQK  DZ  P   0 U 1748  6.86                                                    
 US1  DZ  P   0 D 1748  7.25                                                    
 US3  DZ  P   0 D 1748  7.10                                                    
 GDXB HZ  P   0 D 1748  6.96                                                    
                                                                                
